center_lat,center_lng,keyword,name,address,lat,lng,url
17.473470,106.434295,Đồn biên phòng,Đồn Biên phòng Cảng,"Kỳ Lợi, Thị xã Kỳ Anh, Hà Tĩnh",18.0993202,106.4113993,"https://www.google.com/maps/place/%C4%90%E1%BB%93n+Bi%C3%AAn+ph%C3%B2ng+C%E1%BA%A3ng/@18.0993202,106.4113993,17z/data=!3m1!4b1!4m6!3m5!1s0x3138890000000001:0x45fb3e06b29b56d4!8m2!3d18.0993202!4d106.4113993!16s%2Fg%2F1tdk7k10?authuser=0&hl=vi&entry=ttu&g_ep=EgoyMDI1MTIwOS4wIKXMDSoASAFQAw%3D%3D"
17.473470,106.434295,Đồn biên phòng,Đồn Biên Phòng Cà Ròong,"76R4+WW8, Bản 61, Bố Trạch, Quảng Bình",17.2922806,106.2073437,"https://www.google.com/maps/place/%C4%90%E1%BB%93n+Bi%C3%AAn+Ph%C3%B2ng+C%C3%A0+R%C3%B2ong/@17.2922806,106.2073437,17z/data=!3m1!4b1!4m6!3m5!1s0x313f4bd2faaab0f3:0x333174bf24baa3fe!8m2!3d17.2922806!4d106.2073437!16s%2Fg%2F11f535xcw3?authuser=0&hl=vi&entry=ttu&g_ep=EgoyMDI1MTIwOS4wIKXMDSoASAFQAw%3D%3D"
17.473470,106.434295,Đồn biên phòng,Đồn Biên Phòng Nhật Lệ,"115 Trương Pháp, Bắc Lý, Đồng Hới, Quảng Bình",17.4853173,106.6269413,"https://www.google.com/maps/place/%C4%90%E1%BB%93n+Bi%C3%AAn+Ph%C3%B2ng+Nh%E1%BA%ADt+L%E1%BB%87/@17.4853173,106.6269413,17z/data=!3m1!4b1!4m6!3m5!1s0x3147572ce3321b6f:0xcb54933272443768!8m2!3d17.4853173!4d106.6269413!16s%2Fg%2F11b6df9l3n?authuser=0&hl=vi&entry=ttu&g_ep=EgoyMDI1MTIwOS4wIKXMDSoASAFQAw%3D%3D"
17.473470,106.434295,Đồn biên phòng,Đồn Biên Phòng,"R59R+F86, Mỹ Bình, Đức Huệ, Long An",10.8186705,106.1907564,"https://www.google.com/maps/place/%C4%90%E1%BB%93n+Bi%C3%AAn+Ph%C3%B2ng/@10.8186705,106.1907564,17z/data=!3m1!4b1!4m6!3m5!1s0x310adff9d513679d:0x591225323f149a67!8m2!3d10.8186705!4d106.1907564!16s%2Fg%2F11g0l9z2s_?authuser=0&hl=vi&entry=ttu&g_ep=EgoyMDI1MTIwOS4wIKXMDSoASAFQAw%3D%3D"
17.473470,106.434295,Đồn biên phòng,Đồn biên phòng Làng Ho,"3HJQ+5F5, Lâm Thuỷ, Lệ Thủy, Quảng Bình",17.0803942,106.5887278,"https://www.google.com/maps/place/%C4%90%E1%BB%93n+bi%C3%AAn+ph%C3%B2ng+L%C3%A0ng+Ho/@17.0803942,106.5887278,17z/data=!3m1!4b1!4m6!3m5!1s0x3140a7100786f573:0xcc1ddfda2b5b8ce4!8m2!3d17.0803942!4d106.5887278!16s%2Fg%2F11v0klm48x?authuser=0&hl=vi&entry=ttu&g_ep=EgoyMDI1MTIwOS4wIKXMDSoASAFQAw%3D%3D"
17.473470,106.434295,Đồn biên phòng,Đồn Biên Phòng Roòn Tố Hũng Tác Biện Phòng Vùng Chùa,"J864+P4M, ĐT20, Sơn Trạch, Bố Trạch, Quảng Bình",17.6118271,106.3053112,"https://www.google.com/maps/place/%C4%90%E1%BB%93n+Bi%C3%AAn+Ph%C3%B2ng+Ro%C3%B2n+T%E1%BB%91+H%C5%A9ng+T%C3%A1c+Bi%E1%BB%87n+Ph%C3%B2ng+V%C3%B9ng+Ch%C3%B9a/@17.6118271,106.3053112,17z/data=!3m1!4b1!4m6!3m5!1s0x3138bb0eb56fcf97:0x225297c45e80f2fb!8m2!3d17.6118271!4d106.3053112!16s%2Fg%2F11v9l5tywf?authuser=0&hl=vi&entry=ttu&g_ep=EgoyMDI1MTIwOS4wIKXMDSoASAFQAw%3D%3D"
17.473470,106.434295,Đồn biên phòng,Đồn Biên Phòng 122,"Sơn Lợi, Trường Sơn, Sầm Sơn, Thanh Hóa",19.7377235,105.8906507,"https://www.google.com/maps/place/%C4%90%E1%BB%93n+Bi%C3%AAn+Ph%C3%B2ng+122/@19.7377235,105.8906507,16z/data=!3m1!4b1!4m6!3m5!1s0x3136513a4d28547d:0xe2072c4d004617b1!8m2!3d19.7377235!4d105.8906507!16s%2Fg%2F1tdj1prf?authuser=0&hl=vi&entry=ttu&g_ep=EgoyMDI1MTIwOS4wIKXMDSoASAFQAw%3D%3D"
17.473470,106.434295,Đồn biên phòng,Đồn biên phòng cảng gianh,"PF4J+RCV, Quảng Phúc, Ba Đồn, Quảng Bình",17.708134,106.480751,"https://www.google.com/maps/place/%C4%90%E1%BB%93n+bi%C3%AAn+ph%C3%B2ng+c%E1%BA%A3ng+gianh/@17.708134,106.480751,17z/data=!3m1!4b1!4m6!3m5!1s0x3138a1653325df75:0x673376fd4c962b70!8m2!3d17.708134!4d106.480751!16s%2Fg%2F11vhj7knzz?authuser=0&hl=vi&entry=ttu&g_ep=EgoyMDI1MTIwOS4wIKXMDSoASAFQAw%3D%3D"
17.473470,106.434295,Đồn biên phòng,Đồn biên phòng Long Hoà,"Duyên Hải, Long Hoà, Cần Giờ, Thành phố Hồ Chí Minh",10.3804004,106.8819943,"https://www.google.com/maps/place/%C4%90%E1%BB%93n+bi%C3%AAn+ph%C3%B2ng+Long+Ho%C3%A0/@10.3804004,106.8819943,17z/data=!3m1!4b1!4m6!3m5!1s0x317543868c2013e5:0x1331ed12c42e99c4!8m2!3d10.3804004!4d106.8819943!16s%2Fg%2F11kqdmtt_3?authuser=0&hl=vi&entry=ttu&g_ep=EgoyMDI1MTIwOS4wIKXMDSoASAFQAw%3D%3D"
17.473470,106.434295,Đồn biên phòng,Đồn Biên phòng 845 Ninh Điền,"ấp Bến Cừ, Ninh Điền, Châu Thành, Tây Ninh",11.2078196,105.968924,"https://www.google.com/maps/place/%C4%90%E1%BB%93n+Bi%C3%AAn+ph%C3%B2ng+845+Ninh+%C4%90i%E1%BB%81n/@11.2078196,105.968924,17z/data=!3m1!4b1!4m6!3m5!1s0x310b0dbbe3cbfd63:0x96b406d55f9f2d65!8m2!3d11.2078196!4d105.968924!16s%2Fg%2F11sqh2fc8d?authuser=0&hl=vi&entry=ttu&g_ep=EgoyMDI1MTIwOS4wIKXMDSoASAFQAw%3D%3D"
17.473470,106.434295,Đồn biên phòng,Đồn biên phòng Làng Mô,"6F83+V76, Trường Sơn, Quảng Ninh, Quảng Bình",17.2171702,106.453132,"https://www.google.com/maps/place/%C4%90%E1%BB%93n+bi%C3%AAn+ph%C3%B2ng+L%C3%A0ng+M%C3%B4/@17.2171702,106.453132,17z/data=!3m1!4b1!4m6!3m5!1s0x313f56d8059275bd:0xba31754dd356999e!8m2!3d17.2171702!4d106.453132!16s%2Fg%2F11g81gkz3c?authuser=0&hl=vi&entry=ttu&g_ep=EgoyMDI1MTIwOS4wIKXMDSoASAFQAw%3D%3D"
17.473470,106.434295,Đồn biên phòng,Đồn biên phòng Thạnh An,"FX9F+9XW, Thạnh Bình, Cần Giờ, Thành phố Hồ Chí Minh",10.4686051,106.974986,"https://www.google.com/maps/place/%C4%90%E1%BB%93n+bi%C3%AAn+ph%C3%B2ng+Th%E1%BA%A1nh+An/@10.4686051,106.974986,17z/data=!3m1!4b1!4m6!3m5!1s0x31756b583ad70483:0x7db7e532ff26056d!8m2!3d10.4686051!4d106.974986!16s%2Fg%2F11rv1df7_c?authuser=0&hl=vi&entry=ttu&g_ep=EgoyMDI1MTIwOS4wIKXMDSoASAFQAw%3D%3D"
17.473470,106.434295,Đồn biên phòng,Đồn biên phòng Cửa Đại,"5PHQ+WQJ, Thừa Đức, Bình Đại, Bến Tre",10.1798336,106.7393767,"https://www.google.com/maps/place/%C4%90%E1%BB%93n+bi%C3%AAn+ph%C3%B2ng+C%E1%BB%ADa+%C4%90%E1%BA%A1i/@10.1798336,106.7393767,17z/data=!3m1!4b1!4m6!3m5!1s0x31755809dc969295:0xf983fae1ad657007!8m2!3d10.1798336!4d106.7393767!16s%2Fg%2F11g81fhy1p?authuser=0&hl=vi&entry=ttu&g_ep=EgoyMDI1MTIwOS4wIKXMDSoASAFQAw%3D%3D"
17.473470,106.434295,Đồn biên phòng,Đồn Biên phòng Hàm Luông,"XJHG+5M, Tiệm Tôm, Ba Tri, Bến Tre",9.9779515,106.6267404,"https://www.google.com/maps/place/%C4%90%E1%BB%93n+Bi%C3%AAn+ph%C3%B2ng+H%C3%A0m+Lu%C3%B4ng/@9.9779515,106.6267404,17z/data=!3m1!4b1!4m6!3m5!1s0x319ff70071c675fd:0x9cc0d2269b4daf56!8m2!3d9.9779515!4d106.6267404!16s%2Fg%2F11w2jjwdp7?authuser=0&hl=vi&entry=ttu&g_ep=EgoyMDI1MTIwOS4wIKXMDSoASAFQAw%3D%3D"
17.473470,106.434295,Đồn biên phòng,Đồn Biên Phòng Long Sơn,"F3F6+W24, Long Sơn, Vũng Tàu, Bà Rịa - Vũng Tàu",10.4747674,107.0600736,"https://www.google.com/maps/place/%C4%90%E1%BB%93n+Bi%C3%AAn+Ph%C3%B2ng+Long+S%C6%A1n/@10.4747674,107.0600736,17z/data=!3m1!4b1!4m6!3m5!1s0x31756d049ec3851f:0x66b4b1ac783d784!8m2!3d10.4747674!4d107.0600736!16s%2Fg%2F11ljczsn8_?authuser=0&hl=vi&entry=ttu&g_ep=EgoyMDI1MTIwOS4wIKXMDSoASAFQAw%3D%3D"
17.473470,106.434295,Đồn biên phòng,Đồn Biên Phòng Bến Đá,"398 Trần Phú, Phường 5, Vũng Tàu, Bà Rịa - Vũng Tàu",10.384281,107.0644388,"https://www.google.com/maps/place/%C4%90%E1%BB%93n+Bi%C3%AAn+Ph%C3%B2ng+B%E1%BA%BFn+%C4%90%C3%A1/@10.384281,107.0644388,17z/data=!3m1!4b1!4m6!3m5!1s0x31756e51f265ac99:0x99997804da26a1d8!8m2!3d10.384281!4d107.0644388!16s%2Fg%2F11b67gt2cc?authuser=0&hl=vi&entry=ttu&g_ep=EgoyMDI1MTIwOS4wIKXMDSoASAFQAw%3D%3D"
17.473470,106.434295,Đồn biên phòng,Đồn Biên phòng Đắk Ơ,"426P+QGF, Đắc ơ, Bù Gia Mập, Bình Phước",12.1119307,107.0362964,"https://www.google.com/maps/place/%C4%90%E1%BB%93n+Bi%C3%AAn+ph%C3%B2ng+%C4%90%E1%BA%AFk+%C6%A0/@12.1119307,107.0362964,17z/data=!3m1!4b1!4m6!3m5!1s0x31731b0019666455:0xe476c43b32767eb6!8m2!3d12.1119307!4d107.0362964!16s%2Fg%2F11yc817yr6?authuser=0&hl=vi&entry=ttu&g_ep=EgoyMDI1MTIwOS4wIKXMDSoASAFQAw%3D%3D"
17.473470,106.434295,Đồn biên phòng,Đồn biên phòng Tân Thành,"Ấp Tân Phong, Tân Thành, Thị Xã Bảo Lâm, Bình Phước",11.9590504,106.7012706,"https://www.google.com/maps/place/%C4%90%E1%BB%93n+bi%C3%AAn+ph%C3%B2ng+T%C3%A2n+Th%C3%A0nh/@11.9590504,106.7012706,17z/data=!3m1!4b1!4m6!3m5!1s0x317337f2208cd687:0x1dfc150f81f5bafc!8m2!3d11.9590504!4d106.7012706!16s%2Fg%2F11shk4pp69?authuser=0&hl=vi&entry=ttu&g_ep=EgoyMDI1MTIwOS4wIKXMDSoASAFQAw%3D%3D"
17.473470,106.434295,Đồn biên phòng,Đồn Biên Phòng Bình Thạnh,"R425+GQ8, Đ. Trần Văn Trà, Bình Thạnh, Mộc Hóa, Long An",10.8012994,106.1094654,"https://www.google.com/maps/place/%C4%90%E1%BB%93n+Bi%C3%AAn+Ph%C3%B2ng+B%C3%ACnh+Th%E1%BA%A1nh/@10.8012994,106.1094654,17z/data=!3m1!4b1!4m6!3m5!1s0x310ae6dfbd3e7601:0x5187defcdc00dd01!8m2!3d10.8012994!4d106.1094654!16s%2Fg%2F11clsxf21r?authuser=0&hl=vi&entry=ttu&g_ep=EgoyMDI1MTIwOS4wIKXMDSoASAFQAw%3D%3D"
17.473470,106.434295,Đồn biên phòng,Đồn Biên Phòng Bù Đốp,"2Q7R+46Q, Unnamed Road, Thiên Hùng, Bù Đốp, Bình Phước",12.0128371,106.7905994,"https://www.google.com/maps/place/%C4%90%E1%BB%93n+Bi%C3%AAn+Ph%C3%B2ng+B%C3%B9+%C4%90%E1%BB%91p/@12.0128371,106.7905994,17z/data=!3m1!4b1!4m6!3m5!1s0x31733bd9667873e3:0x99f403fc1d92a83b!8m2!3d12.0128371!4d106.7905994!16s%2Fg%2F11rb3zglyl?authuser=0&hl=vi&entry=ttu&g_ep=EgoyMDI1MTIwOS4wIKXMDSoASAFQAw%3D%3D"
17.473470,106.434295,Đồn biên phòng,Đồn Biên phòng Tân Phú,"JVJ5+9XC, Tà Xia -Tân Phú, Tân Biên, Tây Ninh",11.6309266,105.8598845,"https://www.google.com/maps/place/%C4%90%E1%BB%93n+Bi%C3%AAn+ph%C3%B2ng+T%C3%A2n+Ph%C3%BA/@11.6309266,105.8598845,17z/data=!3m1!4b1!4m6!3m5!1s0x310c81d2e6dd12eb:0x85567a8c5da507ba!8m2!3d11.6309266!4d105.8598845!16s%2Fg%2F11q_bqfhjm?authuser=0&hl=vi&entry=ttu&g_ep=EgoyMDI1MTIwOS4wIKXMDSoASAFQAw%3D%3D"
17.473470,106.434295,Đồn biên phòng,Đồn biên phòng Thới Thuận,"2MVX+GFP, Thới Thuận, Bình Đại, Bến Tre",10.0438357,106.6986928,"https://www.google.com/maps/place/%C4%90%E1%BB%93n+bi%C3%AAn+ph%C3%B2ng+Th%E1%BB%9Bi+Thu%E1%BA%ADn/@10.0438357,106.6986928,17z/data=!3m1!4b1!4m6!3m5!1s0x319ffae7743e2fc9:0xa38068339cdee815!8m2!3d10.0438357!4d106.6986928!16s%2Fg%2F11c6tvcjrv?authuser=0&hl=vi&entry=ttu&g_ep=EgoyMDI1MTIwOS4wIKXMDSoASAFQAw%3D%3D"
17.473470,106.434295,Đồn biên phòng,Đồn Biên Phòng Thuận Bình,"Q5GJ+23R, Đ. tỉnh 839, Thuận Bình, Thạnh Hóa, Long An",10.7751062,106.1801408,"https://www.google.com/maps/place/%C4%90%E1%BB%93n+Bi%C3%AAn+Ph%C3%B2ng+Thu%E1%BA%ADn+B%C3%ACnh/@10.7751062,106.1801408,17z/data=!3m1!4b1!4m6!3m5!1s0x310add9fc0138873:0x2715ea9cafaf996!8m2!3d10.7751062!4d106.1801408!16s%2Fg%2F11clt03nd3?authuser=0&hl=vi&entry=ttu&g_ep=EgoyMDI1MTIwOS4wIKXMDSoASAFQAw%3D%3D"
17.473470,106.434295,Đồn biên phòng,Đồn Biên Phòng Cổ Chiên,"RJG2+G7X, Thanh Phong, Thạnh Phú, Bến Tre",9.826012,106.59955,"https://www.google.com/maps/place/%C4%90%E1%BB%93n+Bi%C3%AAn+Ph%C3%B2ng+C%E1%BB%95+Chi%C3%AAn/@9.826012,106.59955,17z/data=!3m1!4b1!4m6!3m5!1s0x319f8ba438162f83:0x24e166c84cc5044a!8m2!3d9.826012!4d106.59955!16s%2Fg%2F11v59fx_fr?authuser=0&hl=vi&entry=ttu&g_ep=EgoyMDI1MTIwOS4wIKXMDSoASAFQAw%3D%3D"
17.473470,106.434295,Đồn biên phòng,Đồn Biên phòng Làng HO,"2JGR+GM2, Kim Thuỷ, Lệ Thủy, Quảng Bình",17.0262564,106.6416543,"https://www.google.com/maps/place/%C4%90%E1%BB%93n+Bi%C3%AAn+ph%C3%B2ng+L%C3%A0ng+HO/@17.0262564,106.6416543,17z/data=!3m1!4b1!4m6!3m5!1s0x3140bd49e1fbac0f:0x635f5735d4202ccf!8m2!3d17.0262564!4d106.6416543!16s%2Fg%2F11flbf1chv?authuser=0&hl=vi&entry=ttu&g_ep=EgoyMDI1MTIwOS4wIKXMDSoASAFQAw%3D%3D"
17.473470,106.434295,Đồn biên phòng,Đồn biên phòng Hồ Tràm,"Đường Ven Biển, Phước Thuận, Xuyên Mộc, Bà Rịa - Vũng Tàu",10.47245,107.4405813,"https://www.google.com/maps/place/%C4%90%E1%BB%93n+bi%C3%AAn+ph%C3%B2ng+H%E1%BB%93+Tr%C3%A0m/@10.47245,107.4405813,17z/data=!3m1!4b1!4m6!3m5!1s0x3175986437d58a19:0x4e8ba2262335f671!8m2!3d10.47245!4d107.4405813!16s%2Fg%2F11gd_7gsh7?authuser=0&hl=vi&entry=ttu&g_ep=EgoyMDI1MTIwOS4wIKXMDSoASAFQAw%3D%3D"
17.473470,106.434295,Đồn biên phòng,Đồn biên phòng Tân Thành,"7QVG+J65, Tân Thành, Gò Công Đông, Tiền Giang",10.2940095,106.7756072,"https://www.google.com/maps/place/%C4%90%E1%BB%93n+bi%C3%AAn+ph%C3%B2ng+T%C3%A2n+Th%C3%A0nh/@10.2940095,106.7756072,17z/data=!3m1!4b1!4m6!3m5!1s0x31755bcf298097cf:0xc72d9c6f45c61884!8m2!3d10.2940095!4d106.7756072!16s%2Fg%2F11f64lybqd?authuser=0&hl=vi&entry=ttu&g_ep=EgoyMDI1MTIwOS4wIKXMDSoASAFQAw%3D%3D"
17.473470,106.434295,Đồn biên phòng,Đồn biên phòng phước tỉnh,"C54R+X4Q, ĐH5, Phước Tỉnh, Long Điền, Bà Rịa - Vũng Tàu",10.4074525,107.190352,"https://www.google.com/maps/place/%C4%90%E1%BB%93n+bi%C3%AAn+ph%C3%B2ng+ph%C6%B0%E1%BB%9Bc+t%E1%BB%89nh/@10.4074525,107.190352,17z/data=!3m1!4b1!4m6!3m5!1s0x3175714696e5e5b9:0x46e0f57c8c69b372!8m2!3d10.4074525!4d107.190352!16s%2Fg%2F11h4f0rms1?authuser=0&hl=vi&entry=ttu&g_ep=EgoyMDI1MTIwOS4wIKXMDSoASAFQAw%3D%3D"
17.473470,106.434295,Đồn biên phòng,Đồn Biên Phòng Đắc Nô,"65G4+HHH, Đắc ơ, Bù Gia Mập, Bình Phước",12.2264331,107.1564992,"https://www.google.com/maps/place/%C4%90%E1%BB%93n+Bi%C3%AAn+Ph%C3%B2ng+%C4%90%E1%BA%AFc+N%C3%B4/@12.2264331,107.1564992,17z/data=!3m1!4b1!4m6!3m5!1s0x31731a43fe6edf8d:0x2adf7c80746d7035!8m2!3d12.2264331!4d107.1564992!16s%2Fg%2F11c6sn6bfw?authuser=0&hl=vi&entry=ttu&g_ep=EgoyMDI1MTIwOS4wIKXMDSoASAFQAw%3D%3D"
17.473470,106.434295,Đồn biên phòng,Đồn biên phòng Tuy Đức,"6CVP+HCH, ĐT681, Đắk Bút So, Tuy Đức, Đắk Nông",12.2435795,107.4348808,"https://www.google.com/maps/place/%C4%90%E1%BB%93n+bi%C3%AAn+ph%C3%B2ng+Tuy+%C4%90%E1%BB%A9c/@12.2435795,107.4348808,17z/data=!3m1!4b1!4m6!3m5!1s0x31725370ac6be819:0xf6c45bb9b6495262!8m2!3d12.2435795!4d107.4348808!16s%2Fg%2F11twtn7801?authuser=0&hl=vi&entry=ttu&g_ep=EgoyMDI1MTIwOS4wIKXMDSoASAFQAw%3D%3D"
17.473470,106.434295,Đồn biên phòng,Đồn biên phòng cửu khẩu cảng bến lức,"JF5P+2MV, Trung Trực, Khu Phố 8, Bến Lức, Long An",10.6076149,106.4866703,"https://www.google.com/maps/place/%C4%90%E1%BB%93n+bi%C3%AAn+ph%C3%B2ng+c%E1%BB%ADu+kh%E1%BA%A9u+c%E1%BA%A3ng+b%E1%BA%BFn+l%E1%BB%A9c/@10.6076149,106.4866703,17z/data=!3m1!4b1!4m6!3m5!1s0x310acb6f1f2ed4d5:0xfff7b62454eca7c8!8m2!3d10.6076149!4d106.4866703!16s%2Fg%2F11q9fvm60n?authuser=0&hl=vi&entry=ttu&g_ep=EgoyMDI1MTIwOS4wIKXMDSoASAFQAw%3D%3D"
17.473470,106.434295,Đồn biên phòng,Đồn Biên phòng Tân Hà,"P5J6+XG, Tân Hà, Tân Châu, Tây Ninh",11.7318368,106.1616541,"https://www.google.com/maps/place/%C4%90%E1%BB%93n+Bi%C3%AAn+ph%C3%B2ng+T%C3%A2n+H%C3%A0/@11.7318368,106.1616541,17z/data=!3m1!4b1!4m6!3m5!1s0x310ca3002f17085b:0x3ecf5531b394ff20!8m2!3d11.7318368!4d106.1616541!16s%2Fg%2F11wx33pq50?authuser=0&hl=vi&entry=ttu&g_ep=EgoyMDI1MTIwOS4wIKXMDSoASAFQAw%3D%3D"
17.473470,106.434295,Đồn biên phòng,Đồn biên phòng xã Thạnh Trị,"VXHC+FR, Thạnh Trị, Tân Thạnh, Long An",10.8786384,105.9721222,"https://www.google.com/maps/place/%C4%90%E1%BB%93n+bi%C3%AAn+ph%C3%B2ng+x%C3%A3+Th%E1%BA%A1nh+Tr%E1%BB%8B/@10.8786384,105.9721222,17z/data=!3m1!4b1!4m6!3m5!1s0x310ae3cab665b475:0x3505de74f16a901f!8m2!3d10.8786384!4d105.9721222!16s%2Fg%2F11q41ky106?authuser=0&hl=vi&entry=ttu&g_ep=EgoyMDI1MTIwOS4wIKXMDSoASAFQAw%3D%3D"
17.473470,106.434295,Đồn biên phòng,ĐỒN BIÊN PHÒNG,"R8J5+G46, A Nông, Tây Giang, Quảng Nam",15.8312869,107.3077559,"https://www.google.com/maps/place/%C4%90%E1%BB%92N+BI%C3%8AN+PH%C3%92NG/@15.8312869,107.3077559,17z/data=!3m1!4b1!4m6!3m5!1s0x3141d5fa1f1e9efb:0xf141360c9aec4227!8m2!3d15.8312869!4d107.3077559!16s%2Fg%2F11kxd8wh33?authuser=0&hl=vi&entry=ttu&g_ep=EgoyMDI1MTIwOS4wIKXMDSoASAFQAw%3D%3D"
17.473470,106.434295,Đồn biên phòng,Đồn Biên Phòng Phước Chỉ,"X6Q8+9RJ, Phước Hưng, Trảng Bàng, Tây Ninh",10.9884664,106.2170293,"https://www.google.com/maps/place/%C4%90%E1%BB%93n+Bi%C3%AAn+Ph%C3%B2ng+Ph%C6%B0%E1%BB%9Bc+Ch%E1%BB%89/@10.9884664,106.2170293,17z/data=!3m1!4b1!4m6!3m5!1s0x310b2162cceca0fb:0xa890ad5360432d2c!8m2!3d10.9884664!4d106.2170293!16s%2Fg%2F11hbvbcl9z?authuser=0&hl=vi&entry=ttu&g_ep=EgoyMDI1MTIwOS4wIKXMDSoASAFQAw%3D%3D"
17.473470,106.434295,Đồn biên phòng,Đồn biên phòng cửa khẩu quốc tế Vĩnh Xương,"W53C+RJ7, ĐT952, Vĩnh Xương, An Phú, An Giang",10.9045424,105.1715358,"https://www.google.com/maps/place/%C4%90%E1%BB%93n+bi%C3%AAn+ph%C3%B2ng+c%E1%BB%ADa+kh%E1%BA%A9u+qu%E1%BB%91c+t%E1%BA%BF+V%C4%A9nh+X%C6%B0%C6%A1ng/@10.9045424,105.1715358,17z/data=!3m1!4b1!4m6!3m5!1s0x310a2dac699f493b:0x27af80feed097d49!8m2!3d10.9045424!4d105.1715358!16s%2Fg%2F11py352_m6?authuser=0&hl=vi&entry=ttu&g_ep=EgoyMDI1MTIwOS4wIKXMDSoASAFQAw%3D%3D"
17.473470,106.434295,Đồn biên phòng,Đồn Biên Phòng Tuyên Bình,"VV23+VHF, Tuyên Bình, Vĩnh Hưng, Long An",10.8521944,105.8539166,"https://www.google.com/maps/place/%C4%90%E1%BB%93n+Bi%C3%AAn+Ph%C3%B2ng+Tuy%C3%AAn+B%C3%ACnh/@10.8521944,105.8539166,17z/data=!3m1!4b1!4m6!3m5!1s0x310aff746dfd4f95:0x6f05d568225daee9!8m2!3d10.8521944!4d105.8539166!16s%2Fg%2F11n0bwhkyq?authuser=0&hl=vi&entry=ttu&g_ep=EgoyMDI1MTIwOS4wIKXMDSoASAFQAw%3D%3D"
17.473470,106.434295,Đồn biên phòng,Đồn Biên Phòng Bù Đốp,"3Q5J+QR, Hưng Phước, Bù Đốp, Bình Phước",12.059429,106.782111,"https://www.google.com/maps/place/%C4%90%E1%BB%93n+Bi%C3%AAn+Ph%C3%B2ng+B%C3%B9+%C4%90%E1%BB%91p/@12.059429,106.782111,17z/data=!3m1!4b1!4m6!3m5!1s0x31733b175dc7c829:0xb534d762a77cc29d!8m2!3d12.059429!4d106.782111!16s%2Fg%2F11svg3htpx?authuser=0&hl=vi&entry=ttu&g_ep=EgoyMDI1MTIwOS4wIKXMDSoASAFQAw%3D%3D"
17.473470,106.434295,Đồn biên phòng,Đồn Biên phòng Phước Lộc,"129 Lê Minh Công, Phửụứng Phửụực Loọ, La Gi, Bình Thuận",10.6504832,107.7648126,"https://www.google.com/maps/place/%C4%90%E1%BB%93n+Bi%C3%AAn+ph%C3%B2ng+Ph%C6%B0%E1%BB%9Bc+L%E1%BB%99c/@10.6504832,107.7648126,17z/data=!3m1!4b1!4m6!3m5!1s0x3175cf52dc5f64fb:0xa0c684b20540ed72!8m2!3d10.6504832!4d107.7648126!16s%2Fg%2F11zg6lp0m?authuser=0&hl=vi&entry=ttu&g_ep=EgoyMDI1MTIwOS4wIKXMDSoASAFQAw%3D%3D"
17.473470,106.434295,Đồn biên phòng,Đồn Biên Phòng,"GVFX+J3M, Đường tỉnh 788, Hoà Hiệp, Tân Biên, Tây Ninh",11.5240828,105.8976602,"https://www.google.com/maps/place/%C4%90%E1%BB%93n+Bi%C3%AAn+Ph%C3%B2ng/@11.5240828,105.8976602,17z/data=!3m1!4b1!4m6!3m5!1s0x310b7bf299555555:0x749660cc170c61a1!8m2!3d11.5240828!4d105.8976602!16s%2Fg%2F11l_0tjrbr?authuser=0&hl=vi&entry=ttu&g_ep=EgoyMDI1MTIwOS4wIKXMDSoASAFQAw%3D%3D"
17.473470,106.434295,Đồn biên phòng,Đồn Biên Phòng Lăng Cô,"63JP+4V4, TT. Lăng Cô, Phú Lộc, Thành phố Huế",16.2302652,108.0872036,"https://www.google.com/maps/place/%C4%90%E1%BB%93n+Bi%C3%AAn+Ph%C3%B2ng+L%C4%83ng+C%C3%B4/@16.2302652,108.0872036,17z/data=!3m1!4b1!4m6!3m5!1s0x31422723a4a1019b:0x73012c84153f111b!8m2!3d16.2302652!4d108.0872036!16s%2Fg%2F11g9dfmhmd?authuser=0&hl=vi&entry=ttu&g_ep=EgoyMDI1MTIwOS4wIKXMDSoASAFQAw%3D%3D"
17.473470,106.434295,Đồn biên phòng,Đồn 3 Biên phòng Đắk Đam,"JH4P+7WM, Đắk Lao, Đắk Mil, Đắk Nông",12.6057153,107.5873012,"https://www.google.com/maps/place/%C4%90%E1%BB%93n+3+Bi%C3%AAn+ph%C3%B2ng+%C4%90%E1%BA%AFk+%C4%90am/@12.6057153,107.5873012,17z/data=!3m1!4b1!4m6!3m5!1s0x31726b2ad952d8ad:0x60457680a2c5546e!8m2!3d12.6057153!4d107.5873012!16s%2Fg%2F11r_mj5drm?authuser=0&hl=vi&entry=ttu&g_ep=EgoyMDI1MTIwOS4wIKXMDSoASAFQAw%3D%3D"
17.473470,106.434295,Đồn biên phòng,Đồn Biên phòng Cửa khẩu Tà Vát,"PC8P+R9J, Lộc Thịnh, Lộc Ninh, Bình Phước",11.7170839,106.4358825,"https://www.google.com/maps/place/%C4%90%E1%BB%93n+Bi%C3%AAn+ph%C3%B2ng+C%E1%BB%ADa+kh%E1%BA%A9u+T%C3%A0+V%C3%A1t/@11.7170839,106.4358825,17z/data=!3m1!4b1!4m6!3m5!1s0x310cae83c1eb9947:0xce92ea602d473bb6!8m2!3d11.7170839!4d106.4358825!16s%2Fg%2F11f2vb8zqj?authuser=0&hl=vi&entry=ttu&g_ep=EgoyMDI1MTIwOS4wIKXMDSoASAFQAw%3D%3D"
17.473470,106.434295,Đồn biên phòng,Đồn Biên Phòng Cha Lo,"QQ39+R6, Dân Hoá, Minh Hóa, Quảng Bình",17.7545955,105.7680882,"https://www.google.com/maps/place/%C4%90%E1%BB%93n+Bi%C3%AAn+Ph%C3%B2ng+Cha+Lo/@17.7545955,105.7680882,17z/data=!3m1!4b1!4m6!3m5!1s0x313921b1595f57ed:0x288a3e5e3a94bc38!8m2!3d17.7545955!4d105.7680882!16s%2Fg%2F11v3h9k4dx?authuser=0&hl=vi&entry=ttu&g_ep=EgoyMDI1MTIwOS4wIKXMDSoASAFQAw%3D%3D"
17.473470,106.434295,Đồn biên phòng,Đồn Biên Phòng 288,"8V28+4R2, Thôn, An Cường, Bình Sơn, Quảng Ngãi",15.3002653,108.8670187,"https://www.google.com/maps/place/%C4%90%E1%BB%93n+Bi%C3%AAn+Ph%C3%B2ng+288/@15.3002653,108.8670187,17z/data=!3m1!4b1!4m6!3m5!1s0x31684b9c51a8d685:0xc7ad57cb8c473d04!8m2!3d15.3002653!4d108.8670187!16s%2Fg%2F11fhr75b2l?authuser=0&hl=vi&entry=ttu&g_ep=EgoyMDI1MTIwOS4wIKXMDSoASAFQAw%3D%3D"
17.473470,106.434295,Đồn biên phòng,Đồn Biên phòng Sông Trăng,"XJ8F+W2, Hưng Hà, Tân Hưng, Long An",10.967339,105.62257,"https://www.google.com/maps/place/%C4%90%E1%BB%93n+Bi%C3%AAn+ph%C3%B2ng+S%C3%B4ng+Tr%C4%83ng/@10.967339,105.62257,17z/data=!3m1!4b1!4m6!3m5!1s0x310badcc1500b77b:0xead204deb9fe7bd!8m2!3d10.967339!4d105.62257!16s%2Fg%2F11t9v7ptgr?authuser=0&hl=vi&entry=ttu&g_ep=EgoyMDI1MTIwOS4wIKXMDSoASAFQAw%3D%3D"
17.473470,106.434295,Đồn biên phòng,Đồn Biên Phòng Mỏ Vẹt,"Q5QR+Q84, Bình Hoà Hưng, Đức Huệ, Long An",10.7893994,106.1908315,"https://www.google.com/maps/place/%C4%90%E1%BB%93n+Bi%C3%AAn+Ph%C3%B2ng+M%E1%BB%8F+V%E1%BA%B9t/@10.7893994,106.1908315,17z/data=!3m1!4b1!4m6!3m5!1s0x310add173e5eeefb:0x5e206ea3596eb7e6!8m2!3d10.7893994!4d106.1908315!16s%2Fg%2F11fj_05cv0?authuser=0&hl=vi&entry=ttu&g_ep=EgoyMDI1MTIwOS4wIKXMDSoASAFQAw%3D%3D"
17.473470,106.434295,Đồn biên phòng,Đồn biên phòng Cần Thạnh,"CX87+G9, TT. Cần Thạnh, Cần Giờ, Thành phố Hồ Chí Minh",10.4163311,106.9635016,"https://www.google.com/maps/place/%C4%90%E1%BB%93n+bi%C3%AAn+ph%C3%B2ng+C%E1%BA%A7n+Th%E1%BA%A1nh/@10.4163311,106.9635016,17z/data=!3m1!4b1!4m6!3m5!1s0x317569b1e0153ef9:0xcf86921516eb964!8m2!3d10.4163311!4d106.9635016!16s%2Fg%2F11kr93nv8v?authuser=0&hl=vi&entry=ttu&g_ep=EgoyMDI1MTIwOS4wIKXMDSoASAFQAw%3D%3D"
17.473470,106.434295,Đồn biên phòng,Đồn biên phòng Cửa Sót,"FW93+25, Thạch Bằng, Lộc Hà, Hà Tĩnh",18.4678906,105.9024379,"https://www.google.com/maps/place/%C4%90%E1%BB%93n+bi%C3%AAn+ph%C3%B2ng+C%E1%BB%ADa+S%C3%B3t/@18.4678906,105.9024379,17z/data=!3m1!4b1!4m6!3m5!1s0x313849f0c8e0bfbb:0x7bbd3301c3c57cd9!8m2!3d18.4678906!4d105.9024379!16s%2Fg%2F11ryk0zrlx?authuser=0&hl=vi&entry=ttu&g_ep=EgoyMDI1MTIwOS4wIKXMDSoASAFQAw%3D%3D"
17.473470,106.434295,Đồn biên phòng,Đồn Biên Phòng 484- Bình Châu,"Bình Châu, Xuyên Mộc, Bà Rịa - Vũng Tàu",10.5601637,107.5441327,"https://www.google.com/maps/place/%C4%90%E1%BB%93n+Bi%C3%AAn+Ph%C3%B2ng+484-+B%C3%ACnh+Ch%C3%A2u/@10.5601637,107.5441327,17z/data=!3m1!4b1!4m6!3m5!1s0x3175bc6e371d4eef:0x8621e0234560174c!8m2!3d10.5601637!4d107.5441327!16s%2Fg%2F1tg4hwnp?authuser=0&hl=vi&entry=ttu&g_ep=EgoyMDI1MTIwOS4wIKXMDSoASAFQAw%3D%3D"
17.473470,106.434295,Đồn biên phòng,Đồn Biên Phòng Phước Hải,"C74G+4HF, Khu phố Hải Sơn, Đất Đỏ, Bà Rịa - Vũng Tàu",10.4053044,107.2764355,"https://www.google.com/maps/place/%C4%90%E1%BB%93n+Bi%C3%AAn+Ph%C3%B2ng+Ph%C6%B0%E1%BB%9Bc+H%E1%BA%A3i/@10.4053044,107.2764355,17z/data=!3m1!4b1!4m6!3m5!1s0x317577362fe16fc1:0xf357bbcfe632fbfc!8m2!3d10.4053044!4d107.2764355!16s%2Fg%2F11sy6smk93?authuser=0&hl=vi&entry=ttu&g_ep=EgoyMDI1MTIwOS4wIKXMDSoASAFQAw%3D%3D"
17.473470,106.434295,Đồn biên phòng,Đồn Biên phòng Bo Heng 747,"WG63+7R8, QL14C, Krông Na, Buôn Đôn, Đắk Lắk",12.910671,107.504591,"https://www.google.com/maps/place/%C4%90%E1%BB%93n+Bi%C3%AAn+ph%C3%B2ng+Bo+Heng+747/@12.910671,107.504591,17z/data=!3m1!4b1!4m6!3m5!1s0x317277838126f5c3:0x443e7f3693e01830!8m2!3d12.910671!4d107.504591!16s%2Fg%2F11qp_wm1x1?authuser=0&hl=vi&entry=ttu&g_ep=EgoyMDI1MTIwOS4wIKXMDSoASAFQAw%3D%3D"
17.473470,106.434295,Đồn biên phòng,Đồn Biên phòng Mũi Né,"57 Nguyễn Minh Châu, Mũi Né, Thành phố Phan Thiết, Bình Thuận",10.9295042,108.2859978,"https://www.google.com/maps/place/%C4%90%E1%BB%93n+Bi%C3%AAn+ph%C3%B2ng+M%C5%A9i+N%C3%A9/@10.9295042,108.2859978,17z/data=!3m1!4b1!4m6!3m5!1s0x31768f9ca624d05d:0x269347201311a0c!8m2!3d10.9295042!4d108.2859978!16s%2Fg%2F11nxt589lc?authuser=0&hl=vi&entry=ttu&g_ep=EgoyMDI1MTIwOS4wIKXMDSoASAFQAw%3D%3D"
17.473470,106.434295,Đồn biên phòng,Đồn Biên Phòng Chí Linh 518,"414 Nguyễn Hữu Cảnh, Phường 10, Vũng Tàu, Bà Rịa - Vũng Tàu",10.3694767,107.1185203,"https://www.google.com/maps/place/%C4%90%E1%BB%93n+Bi%C3%AAn+Ph%C3%B2ng+Ch%C3%AD+Linh+518/@10.3694767,107.1185203,17z/data=!3m1!4b1!4m6!3m5!1s0x317571c978310213:0x74059c50b3341f9e!8m2!3d10.3694767!4d107.1185203!16s%2Fg%2F11rfsymkv3?authuser=0&hl=vi&entry=ttu&g_ep=EgoyMDI1MTIwOS4wIKXMDSoASAFQAw%3D%3D"
17.473470,106.434295,Đồn biên phòng,Đồn Biên phòng Ba Tầng,"FQMC+J89, thôn P Lu, Hướng Hóa, Quảng Trị",16.4840393,106.7708599,"https://www.google.com/maps/place/%C4%90%C3%B4%CC%80n+Bi%C3%AAn+pho%CC%80ng+Ba+T%C3%A2%CC%80ng/@16.4840393,106.7708599,17z/data=!3m1!4b1!4m6!3m5!1s0x3140650d0721dc95:0xcf83cf0f4bd57a8e!8m2!3d16.4840393!4d106.7708599!16s%2Fg%2F11t9tn_dv7?authuser=0&hl=vi&entry=ttu&g_ep=EgoyMDI1MTIwOS4wIKXMDSoASAFQAw%3D%3D"
17.473470,106.434295,Đồn biên phòng,Đồn biên phòng Bến Phố,"2P9X+JC, Hưng Điền A, Vĩnh Hưng, Long An",11.0202562,105.7488206,"https://www.google.com/maps/place/%C4%90%E1%BB%93n+bi%C3%AAn+ph%C3%B2ng+B%E1%BA%BFn+Ph%E1%BB%91/@11.0202562,105.7488206,17z/data=!3m1!4b1!4m6!3m5!1s0x310ba900338d5ca1:0x3e674bdd0f10d2fc!8m2!3d11.0202562!4d105.7488206!16s%2Fg%2F11w951091q?authuser=0&hl=vi&entry=ttu&g_ep=EgoyMDI1MTIwOS4wIKXMDSoASAFQAw%3D%3D"
