name,address,lat,lng,matched_keyword
Bãi Tắm Bảo Ninh,"FJGP+2MJ, Bảo Xuân",17.4750814,106.6366398,Bãi tắm
Bãi biển Đá Nhảy Thanh Trạch,"MG67+8WP, Thanh Trạch",17.6608422,106.5148303,Bãi tắm
Bãi tắm Hải Ninh,"Bãi tắm Hải Ninh, 7 ĐT1, An Đông, Thành phố Huế, Việt Nam",17.37559,106.726024,Bãi tắm
Biển Nhật Lệ,"Biển Nhật Lệ, 189 Trương Pháp, Bắc Lý, Đồng Hới, Quảng Bình, Việt Nam",17.49373,106.6261869,Bãi tắm
Bãi tắm Hải Ninh,"9PFG+MC2, Tân Định",17.3741744,106.725532,Bãi tắm
Bãi Tắm Trung Tâm Nhật Lệ,"FJVG+3W6 Biển Nhật Lệ, Trương Pháp, Bắc Lý",17.4926639,106.6272655,Bãi tắm
"Biển Bảo Ninh, Đồng Hới","Biển Bảo Ninh, Đồng Hới, Bảo Xuân, Đồng Hới, Quảng Bình, Việt Nam",17.4512788,106.6541556,Bãi tắm
Bãi Biển Quảng Thọ,"QF38+8G3, Quảng Thọ",17.7532621,106.4662994,Bãi tắm
Bãi tắm Tân Phú,"381 Trương Pháp, Quang Phú",17.5113865,106.614464,Bãi tắm
Bãi tắm Phú Xuân Cao Quảng,"Q59P+XQ, Cao Quảng",17.7699081,106.1869236,Bãi tắm
Bãi Biển Hải Ninh,"8QX2+VVM, Unnamed Road, Hải Ninh",17.3497084,106.7521763,Bãi tắm
Bãi tắm Xuân Hồng,"8QX2+MG4, Hải Ninh",17.3491384,106.7513374,Bãi tắm
Bãi biển Trung Trạch,"HHP7+Q98, Unnamed, Road",17.586923,106.563453,Bãi tắm
Nhật Lệ,"Nhật Lệ, Quang Phú, Đồng Hới, Quảng Bình, Việt Nam",17.5143874,106.6117746,Bãi tắm
Bãi tắm Poseido Hotel - Nhat Le Beach,"222 Trương Pháp, Quang Phú",17.5008805,106.6222903,Bãi tắm
Bãi Đá Nhảy,"Bãi Đá Nhảy, Thanh Trạch, Bố Trạch, Quảng Bình, Việt Nam",17.6592008,106.5149533,Bãi tắm
Bãi biển Nhật Lệ,"Nhật Lệ, Hà Thôn, Bảo Ninh",17.493734,106.6261679,Bãi tắm
Bãi Đá Nhảy Lý Hòa,"MG67+H8P, QL1A, Thanh Trạch",17.6614671,106.5133172,Bãi tắm
Bao Ninh Beach,"FJGP+2MJ, Bảo Xuân",17.4750814,106.6375239,Bãi tắm
Ban quản lý các bãi tắm biển TP. Đồng Hới,"FJXC+XRG, Trương Pháp, Quang Phú",17.4999289,106.6220814,Bãi tắm
Bãi biển Nhật Lệ,"381 Trương Pháp, Quang Phú",17.4907113,106.6278267,Bãi tắm
Phố Đi Bộ Bãi Biển Legend Sea Walk,Bảo Ninh,17.4582206,106.6471627,Bãi tắm
Khu nghỉ mát bãi biển Bảo Ninh,"Đường Võ Nguyên Giáp, Bảo Ninh",17.4607063,106.6444711,Bãi tắm
Đồi Cát Nhân Trạch,Nhân Trạch,17.5316495,106.5944609,Bãi tắm
Tượng đài Mẹ Suốt,"2 Quách Xuân Kỳ, Đồng Hải",17.4654471,106.6270884,Bãi tắm
HaVa Valley - Thung Lũng Ngọc Bich,"Đường Hồ Chí Minh Đông, nhánh Tây",17.5755034,106.2535282,Bãi tắm
Nhà Hàng Cát Trắng,"Bãi Biển, Trung Trạch",17.5860273,106.5630032,Bãi tắm
Khe Nước Lạnh,"6HJW+FRW, Rào Đá",17.2312375,106.5970892,Bãi tắm
Quảng Bình Sup & Camp,"Trương Pháp, Quang Phú",17.524415,106.6043011,Bãi tắm
Khu Vui Chơi giải trí Suối Đá,thôn 3,17.6419813,106.2695947,Bãi tắm
Quảng trường biển Bảo Ninh,"Trần Hưng Đạo, Bảo Xuân",17.4747974,106.6361211,Bãi tắm
Nha Hang Khu Nghi Dưỡng Va Karraoke Song Ngu,"9P5R+9F2, Bãi tắm",17.3583935,106.7411559,Bãi tắm
Hang Chà Lòi,Ngân Thuỷ,17.1969393,106.5998512,Bãi tắm
Quảng trường biển Legend Sea Walk,"FJ5W+PRH, Bảo Xuân",17.4588507,106.6476851,Bãi tắm
Quán Tâm Khôi,"Bãi tắm, Đá Nhảy",17.6610488,106.5130736,Bãi tắm
Suối Chà Cùng,"696M+4Q5, Trường Sơn",17.2103735,106.3839807,Bãi tắm
Xuân Hoà beach,"Unnamed Road, Quảng Xuân",17.8210974,106.4458519,Bãi tắm
Suối Nước Mooc,Phúc Trạch,17.5566597,106.2381149,Bãi tắm
Tien Son Cave,"H7HH+V9, Phong Nha",17.5796353,106.2784573,Bãi tắm
Nhà Hàng Khách Sạn Cát Biển,"MG39+QHM Bãi biển, Đá Nhảy",17.6544523,106.5189076,Bãi tắm
Fisherman Beach Bar,"Bãi tắm biển Quảng Trường Biển, Bảo Ninh",17.4742956,106.637373,Bãi tắm
Bãi đá nhảy,"MG57+MXP, Bãi Đá Nhảy",17.6592008,106.5149533,Bãi tắm
Hang Tối,"Hồ Chí Minh Tây, Sơn Trạch",17.5741716,106.2542393,Bãi tắm
Dark Cave,Sơn Trạch,17.5741854,106.251424,Bãi tắm
"Bãi cát,sạn Quân Trang","FJ4M+279, Phú Hải",17.4554583,106.63323,Bãi tắm
Cửa biển Nhật Lệ,"Cửa biển Nhật Lệ, Đồng Hới, Việt Nam",17.4809787,106.6468148,Bãi tắm
Quán Hải Sản Quỳnh Lan ️,Bãi tắm,17.3748173,106.7261579,Bãi tắm
Nhà Hàng Cánh Buồm Đỏ,"Bãi tắm Nhật Lệ, 2 Trương Pháp, Bắc Lý",17.4994871,106.6225205,Bãi tắm
Feel Cafe,"Bãi tắm Khe Chuối, Quang Phú",17.5243447,106.6037723,Bãi tắm
Bưu điện tỉnh Quảng Bình,"01 Trần Hưng Đạo, Phường Hải Thịnh",17.4716073,106.621809,Bưu cục
Bưu điện Tp. Đồng Hới,"4 Lý Thường Kiệt, Phường Hải Thịnh",17.4719755,106.6215568,Bưu cục
J&T Express - Hùng Vương,"Đường Phan Thanh Phường, Khu Phố 1",17.7544205,106.4228974,Bưu cục
.,"125 Đ. Hùng Vương, Trung Trạch",17.5796989,106.5367136,Bưu cục
"Viettel Post, Bưu cục Quảng Ninh - QBH",Cầu Dinh Thuỷ,17.3744799,106.6692102,Bưu cục
Bưu điện Cộn,"394 Lý Thái Tổ, Đồng Sơn",17.4482554,106.5787538,Bưu cục
"Viettel Post, Bưu cục Ba Đồn - QBH","PHƯỜNG/44 Lý Thường Kiệt, Ba Đồn",17.7487974,106.4284244,Bưu cục
"Viettel Post, Bưu cục Lê Lợi - QBH","131 Lê Lợi, Đức Ninh Đông",17.4572579,106.6210636,Bưu cục
"Viettel Post, Bưu cục Quảng Trạch - QBH","Thôn, Di Lộc",17.7532105,106.4200261,Bưu cục
"Viettel Post, Bưu cục Lệ Thủy - QBH","Đông Thành, Liên Thuỷ",17.2271732,106.7976202,Bưu cục
Viettel Post Bưu cục Bố Trạch - QBH,"300 Đ. Hùng Vương, Tây Trạch",17.5943075,106.5152391,Bưu cục
"Viettel Post, Bưu cục Nhật Lệ - QBH","441 Lý Thường Kiệt, Đồng Phú",17.48367,106.6078,Bưu cục
J&T Express - Lệ Thủy,"8 Hùng Vương, TT. Kiến Giang",17.2249919,106.7870071,Bưu cục
Viettel Post Đồng Hới,"29 Trần Quang Khải, Phường Hải Thành",17.476928,106.6178934,Bưu cục
J&T Express - Bắc Lý,"106B Lê Lợi, Phường Hải Đình",17.4589159,106.6218927,Bưu cục
Bưu cục Phong Nha,"J864+H8M, ĐT20, Sơn Trạch",17.6114234,106.305777,Bưu cục
Viettel Post,"QC4G+QCF, Quang Trung, Ba Đồn",17.7569292,106.4260549,Bưu cục
Chuyển phát nhanh J&T Expresss Ba Đồn 2,"P9HG+JWC, Thanh Tân",17.7289922,106.3772849,Bưu cục
J&T Express - Quảng Ninh,"Thôn, Dinh Mười",17.3607341,106.6792353,Bưu cục
Bưu cục (bưu điện) Mỹ Đức,"6PJ3+C7M, Sơn Thuỷ",17.2311601,106.7032474,Bưu cục
Bưu điện văn hóa xã Lộc Thủy,"6QP5+WGX, An Xá",17.2373607,106.7588598,Bưu cục
Bưu điện bưu cục Phong Nha,"H7XV+8W5, Phong NHA",17.5982473,106.2948429,Bưu cục
Bưu cục Tróoc,"J7WC+WGV, Cầu Troóc, Xuân Trạch",17.6474566,106.2713149,Bưu cục
Bưu điện - Bưu cục Hòa Ninh,"P9HM+WVR, Quảng Hoà",17.7298634,106.3846459,Bưu cục
Bưu điện văn hóa xã Lý Trạch,"GHC7+XP7, Lý Trạch",17.5224112,106.5642998,Bưu cục
Bưu điện văn hóa xã Quảng Hải,"Q93F+G4Q, Văn Đông",17.7538265,106.3728707,Bưu cục
Bưu Điện Huyện Quảng Ninh,"Trần Hưng Đạo, Tổ dân phố BÌnh MInh",17.4054771,106.6427644,Bưu cục
Bưu Điện Huyện Lệ Thủy,"6QFR+G6Q, Hùng Vương, Liên Thuỷ",17.2237701,106.7904615,Bưu cục
Bưu điện huyện Bố Trạch,"HGPM+HMQ, QL1A, TT. Hoàn Lão",17.5864586,106.5342186,Bưu cục
Bưu Cục Lộc Đại,"GH2R+C7M, Lý Thánh Tông, Lộc Ninh",17.5010834,106.5906842,Bưu cục
Bưu Điện Quảng Thọ,"QC2R+JV6, QL1A, Quảng Thọ",17.7515398,106.4421432,Bưu cục
Bưu cục GTHK Ba Đồn ( Quảng Bình),"104, 106 Đ. Đào Duy Từ, Quảng Thuận",17.7515449,106.4287482,Bưu cục
Bưu Cục Phú Quý,"FGJ7+48G, Đường Không Tên, TT. NT Việt Trung",17.4803209,106.5133215,Bưu cục
Bưu cục GHTK Quảng Ninh ( Quảng Bình),"Thôn Hữu Hậu, Võ Ninh",17.3981133,106.6408391,Bưu cục
Bưu Điện Bắc Lý 2,"122 Phan Đình Phùng, Đồng Phú",17.4729807,106.5911664,Bưu cục
Bưu cục GHTK Quảng Ninh ( Quảng Bình),"Tổ dân phố, Cù Lạc 1",17.6168219,106.3235397,Bưu cục
Bưu Điện Chánh Hòa,"GGXW+GP3, Đại Trạch",17.5487086,106.5468334,Bưu cục
Post Office,"J864+G95, Phong NHA",17.6113014,106.3060008,Bưu cục
Bưu Điện Xã Xuân Ninh,"8J9P+85F, Xuân Ninh",17.318283,106.6354089,Bưu cục
Bưu Điện Đồng Hới,"01 Trần Hưng Đạo, Phường Hải Thịnh",17.4709938,106.6213281,Bưu cục
Bưu điện văn hóa xã Xuân Trạch,"M772+CR7, thôn 5",17.6634844,106.2518719,Bưu cục
Viettel Post - Bưu cục Nam Trạch - QBH,"Thôn, Chánh Hòa",17.5461793,106.5490081,Bưu cục
Trung tâm khai thác Viettel Post ( kho),"525 Phan Đình Phùng, Đồng Phú",17.4845889,106.5560247,Bưu cục
Bdvhx tân ninh,"8MMC+867, ĐT564B, Tân Ninh",17.3333485,106.6705555,Bưu cục
Viettel Post Kho vùng QBH1,"418 Lý Thường Kiệt, Đồng Phú",17.4877899,106.6003576,Bưu cục
Bưu cục Hòa Ninh,"P9JG+PW2, ĐT559B, Quảng Hoà",17.7317656,106.3772419,Bưu cục
Bưu cục đường F325 - GHN,"143 F325, Đồng Phú",17.4816528,106.5910908,Bưu cục
Bưu cục Ngọa Cương,"Q7QG+RH7, Cảnh Hoá",17.7895354,106.2764239,Bưu cục
Bưu điện Xã Quảng Lưu,"R95G+JJR, Văn Chung",17.8091173,106.376484,Bưu cục
Bưu Cục Đại Học Quảng Bình,"477 Lý Thường Kiệt, Đồng Phú",17.48409,106.6064637,Bưu cục
ABM Lý Hoà - Quảng Bình chuyển phát nhanh quốc tế,"JGV9+938, Lý Hòa",17.643422,106.5176936,Bưu cục
Bưu Điện Xã Mỹ Trạch,"PC45+275, Mỹ Trạch",17.7050022,106.4082726,Bưu cục
Nhất Tín Logistics - Văn Phòng Đại Diện Quảng Bình,"252 Lý Thường Kiệt, Phường Hải Thành",17.4822064,106.6122823,Bưu cục
Bưu Điện Ba Đồn,"Quang Trung, Ba Đồn",17.756544,106.4213081,Bưu cục
Vietnam Post,"Thọ Lộc, Vạn Trạch, Bố Trạch",17.6281079,106.4423221,Bưu cục
Bưu Điện Xã Hạ Trạch,"PC5J+C5W, Hạ Trạch",17.708582,106.4304399,Bưu cục
Bưu điện,"GGJQ+4PP, 4, Nam Trạch",17.5303407,106.5393399,Bưu cục
VinFast Trạm sạc điện,"Bãi đỗ xe bưu cục cấp, 1 Trần Hưng Đạo, Phường Hải Thịnh",17.471359,106.621956,Bưu cục
Shopee Express Đồng Hới SOC,"74 Đường Phạm Văn Đồng, Nam Sách",17.4634618,106.6070335,Bưu cục
Bưu Điện Xã Cự Nẫm,"JCC4+Q4J, Cự Nẫm",17.6219595,106.4052541,Bưu cục
Bưu điện Chợ Sải,"Trung Thôn, Quảng Trung, Ba Đồn",17.7554108,106.3485108,Bưu điện
Bưu điện xã Vạn Ninh,"7MJM+HHM, thôn Giữa",17.281469,106.683911,Bưu điện
Bưu Điện Dinh Mười,"9M8G+7F7, QL1A, Gia Ninh",17.3656553,106.6761704,Bưu điện
Kho SPX Express,Võ Ninh,17.3723841,106.6715891,Bưu điện
Bưu điện văn hóa xã Nhân Trạch,"GHXM+R88, Nhân Trạch",17.5495445,106.5833067,Bưu điện
Bưu điện VHX Tân Ninh,"8MRC+J56, Quảng Xá",17.3415454,106.6703963,Bưu điện
Điểm CCDVVT lưu động Kim Hoàng (sim thẻ Ngọc Phong),"6QJ8+F84, Xóm 3.Lộc Hạ",17.2311263,106.765834,Bưu điện
Bưu điện văn hóa xã Quảng Xuân,"RF22+JW9, Quảng Xuân",17.8015457,106.4523662,Bưu điện
Bưu điện văn hóa xã Hoa Thủy,"7P83+7M, Hoa Thuỷ",17.265284,106.7048939,Bưu điện
Bưu Điện Việt Nam,"Thượng Đức, Đức Trạch, Bố Trạch",17.6335403,106.5273064,Bưu điện
Bưu Điện Việt Nam,"xóm 10, Bắc Trạch, Bố Trạch",17.7024141,106.4411571,Bưu điện
Bưu điện văn hóa xã Quảng Minh,"M9Q7+CJM, Quảng Minh",17.6885751,106.3640398,Bưu điện
Bưu Điện Văn Hóa Xã An Ninh,"8M48+49P, ĐT564B, An Ninh",17.3053307,106.665959,Bưu điện
Bưu điện Văn hóa Xã An Thủy số điện thoại,"6QJ7+P2J, An Thuỷ",17.2318461,106.7625457,Bưu điện
Bưu Điện Quảng Thạch,"R964+68P, Đại Sơn",17.8105704,106.3558349,Bưu điện
Bưu Điện Xã Liên Trạch,"M9FV+4PR, Phú Kinh",17.67288,106.3942482,Bưu điện
Bưu Điện Văn Hóa Xã Quảng Thủy,"P9M2+5QF, Quảng Thuỷ",17.7329089,106.3519417,Bưu điện
Bưu điện,"9J8P+99J, Hàm Ninh",17.3659618,106.6358976,Bưu điện
CHUYỂN PHÁT NHANH BEST EXPRESS ĐỒNG HỚI,"65 Hoàng Diệu, Nam Lý",17.4688557,106.5973137,Bưu điện
Bưu Điện Xã Hải Ninh,"9P8J+485, Hải Ninh",17.3652359,106.730877,Bưu điện
BĐVHX Hưng Trạch,"J9F6+RWQ, Hưng Trạch",17.6245958,106.3623755,Bưu điện
Bưu Đien Quảng Binh @ Hữu Nghị,"46 Hữu Nghị, Đồng Phú",17.4810237,106.6038832,Bưu điện
Bưu điện Minh Cầm,"R5FF+78M, Phong Hoá",17.8232243,106.173292,Bưu điện
"Điểm Bán Sim số đẹp, Thẻ cào cào Lâm Hợi Quảng Bình","QC5F+88H, Ba Đồn",17.7583091,106.4233594,Bưu điện
Điểm CCDVVT Mai Anh,"Đội 2 Lộc Hạ, An Thuỷ",17.2318325,106.7673355,Bưu điện
Bưu điện Quảng Sơn,"Minh Sơn, Quảng Sơn",17.7223017,106.3600296,Bưu điện
Trạm BTS,"JGR9+5C, Trung Thuận",17.6403958,106.518545,Bưu điện
Tập Đoàn Bưu Chính Viễn Thông Việt Nam ( Vnpt - Thanh Khê ),"MFVM+P3J, QL1A, Thanh Trạch",17.6943423,106.482638,Bưu điện
Sim số đẹp Quảng Bình - sodepAMI,"1 Lý Thường Kiệt, Đồng Hải",17.4730907,106.6218236,Các công trình dịch vụ khác
Ban Quản Lý Các Công Trình Công Cộng Huyện Bố Trạch,"Hoàn Lão, Bố Trạch",17.580489,106.5308706,Các công trình dịch vụ khác
Tập đoàn Sơn Hải,"117 Hữu Nghị, Nam Lý",17.4739651,106.6039604,Các công trình dịch vụ khác
Công ty CP Dịch Thuật Miền Trung - MIDTRANS,"2 Hoàng Diệu, Nam Lý",17.4664899,106.5983693,Các công trình dịch vụ khác
Công ty TNHH thương mại và dịch vụ Thuận Hoàng,"331 Lê Lợi, Đức Ninh",17.4425717,106.6090028,Các công trình dịch vụ khác
Làng Đưng (Dung Village),Hồ Bàu Đưng,17.4636943,106.5693234,Các công trình dịch vụ khác
Ban Quản Lý Công Trình Công Cộng Huyên Qt,"Minh Phương, Ba Đồn",17.7545323,106.4317533,Các công trình dịch vụ khác
Mộc Nam Adventure,"57 Trần Nguyên Hãn, Phường Hải Thành",17.4780305,106.6177329,Các công trình dịch vụ khác
THUÊ XE DU LỊCH QUẢNG BÌNH-XE ĐẸP-GIÁ TỐT,"Vườn hoa Nhật Nguyệt, Tạ Quang Bửu, Nam Lý",17.4629019,106.5952033,Các công trình dịch vụ khác
CAVITO,"59 Đường 23/8, Đức Ninh Đông",17.4568486,106.6134427,Các công trình dịch vụ khác
TOUR DU LỊCH QUẢNG BÌNH,"41 Đường Hai Bà Trưng, Phường Hải Thành",17.4779964,106.6184464,Các công trình dịch vụ khác
Cửa Hàng Trang Sức PNJ 79A Trần Hưng Đạo,"79A Trần Hưng Đạo, Phường Hải Thịnh",17.469856,106.6156733,Các công trình dịch vụ khác
Cốc Cốc Homestay Quảng Bình,"Phan Phu Tiên, Kế Toại",17.4509196,106.617866,Các công trình dịch vụ khác
Trung tâm tiêm chủng VNVC Đồng Hới,"Trung tâm mua sắm Hiếu Hằng, 58A Nguyễn Hữu Cảnh, Đồng Hải",17.463525,106.6200194,Các công trình dịch vụ khác
Điểm bán vé Động Phong Nha,"ĐT20, Phong NHA",17.6121851,106.3058507,Các công trình dịch vụ khác
Nhà Máy Kết Cấu Thép Thanh Tin,Thuận Đức,17.4886268,106.5624745,Các công trình dịch vụ khác
LUXE Wedding,"41 Trần Hưng Đạo, Phường Hải Thịnh",17.4705118,106.6190032,Các công trình dịch vụ khác
Nhà Xe Xuân Truyền,"QC4P+H63, 141 Quang Trung, Quảng Thọ",17.7547796,106.4349199,Các công trình dịch vụ khác
Netin Travel - Tour Du lịch Quảng Bình,"32 Phong Nha, Nam Lý",17.4723282,106.6021962,Các công trình dịch vụ khác
Quảng trường Hồ Chí Minh,Hải Đinh,17.4679906,106.6221448,Các công trình dịch vụ khác
Động Phong Nha,"Vườn quốc gia, Phong Nha",17.5816795,106.283462,Các công trình dịch vụ khác
Cửa Gianh,"Cửa Gianh, Việt Nam",17.6911014,106.5024344,Các công trình dịch vụ khác
Sở Tài chính Quảng Trị,"6-8 23 Tháng 8, Phường Hải Thịnh",17.4625469,106.6181658,Các công trình dịch vụ khác
Công ty TNHH tư vấn giáo dục quốc tế IECS,"457 Lý Thường Kiệt, Đồng Phú",17.4838472,106.607266,Các công trình dịch vụ khác
Thế Giới Kim Cương Vincom Đồng Hới,"Vincom Plaza, TTTM, Quách Xuân Kỳ, P",17.4655105,106.6261979,Các công trình dịch vụ khác
Chợ Hoà Ninh,"P9MH+5H8, Quảng Hoà",17.732878,106.378866,Chợ
Chợ Hoàn Trạch,"JG25+4J8, Hoàn Trạch",17.6002908,106.509022,Chợ
Chợ Cầu 4,"FH86+CWH, Đồng Sơn",17.4660633,106.5623466,Chợ
Chợ Đồng Mỹ,"FJHF+9J2, Nguyễn Du, Đồng Hải",17.4783785,106.6240146,Chợ
chợ nhân trạch,"GHXM+M4P, thôn Nam",17.5492038,106.5828233,Chợ
Chợ Nhân Thọ,"QC8V+FH5, QL1A, Quảng Thọ",17.7661324,106.4439861,Chợ
Chợ Khương Hà,"J9G6+5GQ, Hưng Trạch",17.6254646,106.3613514,Chợ
Chợ Thọ Lộc,"ĐT561, Vạn Trạch",17.6277677,106.4438609,Chợ
Chợ Bắc Trạch,"MFX4+V7C, Bắc Trạch",17.6996813,106.4556313,Chợ
Chợ thị trấn Lệ Ninh,"6MJV+74V, Unnamed Rd, Sơn Thuỷ",17.2307453,106.69281,Chợ
Chợ Hạ Trạch,"PC5J+9M9, Hạ Trạch",17.7084232,106.4317469,Chợ
Chợ Hoàn Lão,"QL1A, Trung Trạch",17.5815446,106.5372251,Chợ
Chợ Cộn.quảng bình,Bắc Nghĩa,17.4437066,106.5929177,Chợ
Chợ Mỹ Đức+ĐS1,"6PJ3+J79, An-Sơn, Sơn Thuỷ",17.2314016,106.7030827,Chợ
Chợ Vĩnh Tuy,"9JWC+Q5C, Vĩnh Tuy",17.3982294,106.620791,Chợ
Chợ Đồng Trạch,"JG7J+6P3, Unnamed Road",17.6130359,106.5317882,Chợ
Chợ Troóc,"Quầy thuốc ngọc Lan chợ troóc, Thôn Ba",17.6474024,106.2773506,Chợ
Chợ Lộc Đại,"161 Lý Thánh Tông, Lộc Ninh",17.4936167,106.5935874,Chợ
Chợ Lý Hòa,"QL1A, Lý Hòa",17.6405779,106.5200164,Chợ
Moon Xinh,Ba Đồn,17.751337,106.4225921,Chợ
Chợ Phú Định,"HCQH+2WQ, Phú Định",17.5875751,106.4298619,Chợ
Chợ Công Đoàn,"FHCR+4RP, Đồng Phú",17.4702937,106.5920435,Chợ
Chợ Xuân Hưng,"Quảng Xuân, Quảng Trạch",17.803414,106.4318087,Chợ
Chợ Thanh Hà,"MFWG+CWM, QL1A, Thanh Trạch",17.6960879,106.4772926,Chợ
Chợ Đôộng,"5QVM+CM4, Chợ Động",17.1934556,106.7842303,Chợ
Chợ Cự Nẫm,"JCHH+XWJ, Cự Nẫm",17.6299633,106.4297533,Chợ
Chợ Đồng Sơn,"CHXH+P6V, Lý Thái Tổ, Đồng Sơn",17.4493438,106.5781385,Chợ
Chợ Hải Sản Đồng Hới,"2 Quách Xuân Kỳ, Đồng Hải",17.4646325,106.6273409,Chợ
Chợ Du Lịch Xuân Sơn,"J864+MWX, Phong NHA",17.6117414,106.307364,Chợ
Chợ Trường Quảng Hoà,"P9MH+5J6, Quảng Hoà, thị xã, Ba Đồn, Thanh Tân",17.7329011,106.379025,Chợ
Chợ văn phú,"PCGM+F22, Unnamed, Road",17.7261173,106.4325311,Chợ
Chợ Quang Phú,"GJ75+GV8, Trương Pháp, Quang Phú",17.5137938,106.6097027,Chợ
Chợ Phú Hòa,"5PVP+QFP, Phú Thuỷ",17.1945174,106.7362114,Chợ
Chợ Quảng Sơn,"P994+6WM, Unnamed, Road",17.7180637,106.3572922,Chợ
Chợ Cầu Hợp Hoà,"P9PR+FQF, Cầu Trắng, Quảng Hoà",17.7361766,106.3919177,Chợ
Chợ Bắc Lý,"FHJX+JWP, Trường Chinh, Đồng Phú",17.4815958,106.5998482,Chợ
Chợ Duy Ninh,"9M27+86V, Duy Ninh",17.3509129,106.6630342,Chợ
Chợ Xuân Mai,"R686+927, Mai Hoá",17.8159236,106.2100524,Chợ
Chợ Họa,"PCQM+7WW, xóm Hội",17.7382456,106.4348132,Chợ
Chợ Quảng Thạch,"R964+4FV, Chợ, Quảng Thạch",17.8102951,106.3562469,Chợ
Chợ Quảng Văn,"sông Son, 58 LAHA QUANG VAN, La Hà",17.7315977,106.4118746,Chợ
Chợ Trạm (Chợ Hôm Trạm),"5RX6+X44, Mỹ Thuỷ",17.1999311,106.8103777,Chợ
Chợ Ba Đồn,"QC2C+WXV, Ba Đồn",17.7523517,106.4224198,Chợ
Chợ chiều Hướng Phương,"Q9HM+3W4, Hương Phượng",17.7776289,106.3848156,Chợ
Chợ Phú Hải,"287 Quốc lộ 1A cũ, Phú Hồng",17.4402418,106.6336683,Chợ
Chợ pháp kệ,"Q9HV+VM7, Pháp Kệ",17.7796801,106.3942629,Chợ
Chợ sáng Phù Ninh,"Q96M+78V, Quảng Thanh",17.7607258,106.383282,Chợ
Chợ Võ Xá,"9MM3+VCR, QL1A, Võ Ninh",17.3847385,106.6535022,Chợ
Chợ Việt Trung,"FGJ7+4JC, ĐT563, TT. NT Việt Trung",17.4801039,106.5139783,Chợ
Chợ Cảnh Hóa,"Q7RM+2VC, QL12A, Cảnh Hoá",17.7896671,106.2770176,Chợ
Chợ Hồng Thủy,"7QM5+8PF, Hồng Thuỷ",17.2833175,106.7592849,Chợ
Chợ Thùi,"6PWV+QC8, Unnamed, Road",17.2471063,106.7437327,Chợ
Chợ Đức Ninh,"CJW8+65J, KDC mới",17.4455995,106.6153959,Chợ
Chợ Tréo - Lệ Thủy,Liên Thuỷ,17.222501,106.7898713,Chợ
Chợ,"29 Võ Xuân Cẩn, Lộc Ninh",17.5065161,106.6010831,Chợ
Chợ xép,"FH4W+9MX, Triệu Quang Phục, Đức Ninh",17.4559968,106.596738,Chợ
Chợ Quán Hàu,"CJ2R+RMW, Tiểu khu 5",17.4021156,106.6417175,Chợ
Chợ Hàm Ninh,"9J3M+QWQ, Unnamed, Road",17.3544711,106.6348571,Chợ
Chợ Đê,"Q927+G6C, Quảng Tân",17.7513242,106.3630293,Chợ
Chợ Ninh Lộc,"6MVW+9VQ, Hoa Thuỷ",17.2434701,106.6972312,Chợ
Cửa Hàng Xe Máy Honda Hưng Phát 5,"84 Đường Hùng Vương, TT. Quán Hàu",17.4031376,106.6383951,Cửa hàng
Cửa Hàng HONDA Thành Ngân 2,"358 Đ. Hùng Vương, TT. Hoàn Lão",17.5811967,106.5359364,Cửa hàng
Cửa Hàng Bách Hoá Kim Tuyến,"49 Lý Thường Kiệt, Đồng Hải",17.4757131,106.6211749,Cửa hàng
Cửa hàng điện thoại CellphoneS Đồng Hới - Quảng Bình,"117 Trần Hưng Đạo, Phường Hải Thịnh",17.4695199,106.6136346,Cửa hàng
Cửa Hàng HONDA Thành Ngân 1,"306 Lý Thường Kiệt, Phường Hải Thành",17.4829406,106.6095641,Cửa hàng
Cửa Hàng Kính Thuốc Sài Gòn,"102 Trần Hưng Đạo, Phường Hải Thịnh",17.4695823,106.6164546,Cửa hàng
Cửa Hàng Vàng Bạc Kim Bình,"HGJP+HCF, QL1A, TT. Hoàn Lão",17.5814293,106.53606,Cửa hàng
Cửa hàng Thể thao Hải sport,"53 Hữu Nghị, Đồng Phú",17.4811758,106.6042944,Cửa hàng
Cửa hàng Trang Sức PNJ Vincom Đồng Hới Quảng Bình,"L1-03, Vincom, Hải Đình",17.4653166,106.626302,Cửa hàng
Cửa hàng Xe đạp điện Thành Ngân 5,"304 Lý Thường Kiệt, Phường Hải Thành",17.4830163,106.6092758,Cửa hàng
Cửa Hàng Kem - Trà Sữa MIXUE (CS2),"354 Trần Hưng Đạo, Nam Sách",17.4670031,106.6055913,Cửa hàng
"VNB Sports - Hệ thống cửa hàng cầu lông, tennis, pickleball","233 Trần Hưng Đạo, Phường",17.468066,106.6072834,Cửa hàng
Winmart 204 Quang Trung- Ba Đồn,"204 Quang Trung, Quảng Thọ",17.75601,106.432826,Cửa hàng
Cửa Hàng Bách Hóa Yến Chi,Ba Đồn,17.7530404,106.423814,Cửa hàng
Cửa hàng thời trang Genviet Jeans,"70 Trần Hưng Đạo, Phường Hải Thịnh",17.4695571,106.6149372,Cửa hàng
Cửa hàng Nhung Huy,"7M56+R9M, Chợ, Ang Sơn",17.2595787,106.6609339,Cửa hàng
Phan Gia - Cửa Hàng Đồng Giá 19K,"QL1A, Hải Trạch",17.640882,106.5183666,Cửa hàng
Cửa Hàng Quạt Điện Mitsubishi Tuyết Mai,"14A Mẹ Suốt, P",17.463848,106.625412,Cửa hàng
Cửa hàng Trọng Thảo,"7Q7P+RR7, QL1A, Thanh Thuỷ",17.2645344,106.7870514,Cửa hàng
Cửa Hàng HONDA Thành Ngân 5,"529 Lý Thường Kiệt, Đồng Phú",17.484478,106.6046287,Cửa hàng
Cửa Hàng Đồ Gỗ Quyết Tiến,"QL1A, Trung Trạch",17.5784483,106.5372648,Cửa hàng
Cửa Hàng Kem - Trà Sữa Mixue (CS1),"16 Nguyễn Du, Đồng Hải",17.4745835,106.622867,Cửa hàng
Cửa hàng sơn Dulux KoVa Tuấn Hòa,"QL12A, Quảng Phong",17.7575642,106.4096798,Cửa hàng
Cửa Hàng Mỹ Phẩm Phước Toàn,"145 Trần Hưng Đạo, Phường Hải Thịnh",17.4693862,106.6126638,Cửa hàng
Cửa Hàng Gạch Men Hải Phương,"GH9G+625, Lý Thánh Tông, Lý Trạch",17.5180107,106.5751179,Cửa hàng
Cửa Hàng Kem - Trà Sữa Mixue (CS3),"01 Mẹ Suốt, Đồng Hải",17.4634713,106.625081,Cửa hàng
Store Nhã Phan,"HGPM+F43, Unnamed, Road",17.5861283,106.5327898,Cửa hàng
Cửa Hàng Dịch Vụ Viettel,"475 Lý Thường Kiệt, Đồng Phú",17.4840388,106.6064726,Cửa hàng
Cửa Hàng Xe máy Huy Hoàng - Hải Hà,"69 Trần Hưng Đạo, Liên Thuỷ",17.223855,106.791181,Cửa hàng
WinMart+ Phúc Tự Đông,Phúc Tự Đông,17.549209,106.545759,Cửa hàng
Cửa hàng sơn Dulux Hoàng Gia Phát,"6QCV+GG3, Tổ dân phố 8",17.2212557,106.7937877,Cửa hàng
Cửa Hàng Giày Dép Biti's Bita's Thái Hà,"335 Trần Hưng Đạo, Nam Sách",17.4665987,106.6036192,Cửa hàng
Cửa hàng sơn Dulux Hoài Thu,"GGXW+CMP, AH1, Đại Trạch",17.5485852,106.5466976,Cửa hàng
Cửa hàng phụ tùng xe máy Đồng Long,"122 Quang Trung, Phú Hải",17.4570402,106.6278138,Cửa hàng
Cửa Hàng Phụ Tùng Ôtô Quảng Bình Quốc Toản,"615 Lý Thường Kiệt, Đồng Phú",17.4874675,106.6011397,Cửa hàng
Cửa hàng Giày BQ Đồng Hới,"51 Lý Thường Kiệt, Đồng Hải",17.4758714,106.6211378,Cửa hàng
Cửa hàng sơn Việt Hoàng,Vân Tiền,17.8088244,106.376605,Cửa hàng
LANI KIDS (cửa hàng mẹ và bé),"GJ75+2XX, Thôn Tân Phú",17.512628,106.6099983,Cửa hàng
Cửa Hàng Tạp Hóa Vũ Dành,"112 Quang Trung, Quảng Thọ",17.7544255,106.4362446,Cửa hàng
Cửa Hàng đồ thờ tâm linh Hợp Bảo,"16 Mẹ Suốt, Đồng Hải",17.4641299,106.6263767,Cửa hàng
Cửa Hàng Khuê Hoà,"Unnamed Road, Sơn Thuỷ",17.2393446,106.6960551,Cửa hàng
Cửa hàng rượu gạo độc quyền,"FFPX+JG7, TT. NT Việt Trung",17.4865164,106.4987939,Cửa hàng
Cửa hàng tạp hóa Sử Ngoan,"Q9FJ+XXW, Hương Phượng",17.7749858,106.3824222,Cửa hàng
Cửa Hàng Nguyệt Quang,Sơn Thuỷ,17.2319549,106.6928034,Cửa hàng
Cửa Hàng Tin Học Khang Huy (Laptop Cũ Quảng Bình),"101 Lê Lợi, Đồng Hải",17.4590856,106.6216033,Cửa hàng
Winmart 69 Hùng Vương - Hoàn Lão,"69 Đ. Hùng Vương, TT. Hoàn Lão",17.5831079,106.5354478,Cửa hàng
Cửa Hàng Tạp Hoá Dũng Lê,Phú Hồng,17.4429518,106.6340167,Cửa hàng
Winmart+ 97 Hùng Vương,"97 Hùng Vương, Phường",17.753098,106.420924,Cửa hàng
Winmart 17 Trần Hưng Đạo - Hoàn Lão,"17 Trần Hưng Đạo, Trung Trạch",17.579371,106.535619,Cửa hàng
Cửa hàng tạp hóa - Huda Hoài Phương,Hiền Trung,17.3684448,106.7283075,Cửa hàng
Toàn Cầu Luxury Mobile - Bố Trạch,"121 Đ. Hùng Vương, Trung Trạch",17.5799084,106.5367326,Cửa hàng
Cửa Hàng Gấu Bông Sài Gòn 2,"24 Lý Thường Kiệt, Phường Hải Thịnh",17.4739707,106.6211657,Cửa hàng
Cửa Hàng Hoàng Hà,"ĐT561, Vạn Trạch",17.6276475,106.4441231,Cửa hàng
Cửa hàng tạp hoá Đồng Tâm,"QC7M+2G9, Unnamed, Road",17.7625515,106.4338766,Cửa hàng
Siêu Thị Mẹ và Bé Ken Luxury,Phúc Trạch,17.6467052,106.2766753,Cửa hàng
Cửa hàng thực phẩm sạch An Nông,"63 Lý Thường Kiệt, Đồng Hải",17.4765387,106.6210485,Cửa hàng
"Cửa hàng tạp hoá, Lễ cưới Bé Phong","Ngã 3 Cầu Chánh Hoà, Thôn, Phúc Tự Đông",17.5485328,106.5463421,Cửa hàng
Chung Store,"JF3W+WJ9, Nguyễn Văn Linh, thôn 2",17.6047773,106.4965839,Cửa hàng
Cửa Hàng Đồ Câu Văn Thắng,"387 Phan Đình Phùng, Bắc Lý",17.4822335,106.5791478,Cửa hàng
Bưu Điện Văn Hóa Xã Hóa Trạch,"HG54+XM2, Unnamed Road, Hoà Trạch",17.5598754,106.5066541,Điểm bưu điện - văn hóa xã
Bưu điện văn hóa xã Phong Thủy,"6QVH+CQH, Phong Thuỷ",17.2435596,106.7794935,Điểm bưu điện - văn hóa xã
Riverside Hotel Quảng Bình,"15 Trương Pháp, Bắc Lý",17.479695,106.6247096,Khách sạn
Minh Quang Hotel,"35 Nguyễn Đức Cảnh, Đồng Hải",17.4770391,106.6228224,Khách sạn
Khách sạn Năm Long,"22 Hồ Xuân Hương, Đồng Hải",17.4763927,106.6230802,Khách sạn
Khách Sạn Tường Minh,"20 Lý Thường Kiệt, Phường Hải Thịnh",17.4738388,106.6211971,Khách sạn
Jade Phong Nha Hotel,Thị trấn,17.6120227,106.309215,Khách sạn
Khách sạn Phương Bắc Luxury Quảng bình,"215 Trương Pháp, Bắc Lý",17.4964023,106.6242973,Khách sạn
REX QUANG BINH HOTEL,"09 Bạch Đằng, Đức Ninh Đông",17.4631453,106.6089615,Khách sạn
Khách Sạn Thượng Hải,"17°36'37.2""N 106°18'36., 9, Sơn Trạch",17.6102755,106.3104522,Khách sạn
Amanda Hotel Quảng Bình,"Trần Hưng Đạo, Bảo Ninh",17.4737136,106.6312385,Khách sạn
Mường Thanh Holiday Quảng Bình Hotel,"119 Trương Pháp, Bắc Lý",17.4862292,106.6273211,Khách sạn
Khách sạn Phú Tiến,"GH7M+4HF, Lộc Ninh",17.5128023,106.5839153,Khách sạn
VAGIBI Hotel - Vàng Giữa Biển Hotel,"66 Trần Nhân Tông, Tổ dân phố 4",17.4727618,106.6185081,Khách sạn
Khách sạn Hoà Bình,"52-54 Lý Thường Kiệt, Phường Hải Thành",17.4764255,106.6205026,Khách sạn
Toàn Cầu Hotel Quảng Bình,"Phố đi bộ Regal Legend, Bảo Ninh",17.4575323,106.6447559,Khách sạn
Khách sạn Lavender Quảng Bình,"143 Lê Lợi, Đức Ninh Đông",17.4564227,106.6207442,Khách sạn
Khách sạn Vĩnh Hoàng - VIHOTEL,"125 Trương Pháp, Bắc Lý",17.4874359,106.6272589,Khách sạn
Khách Sạn Tân Hoàng Minh,"132 Đ. Lê Thành Đồng, Bắc Lý",17.4848651,106.6254959,Khách sạn
Discovery Lodge,Phong NHA,17.609966,106.310047,Khách sạn
The Palm Lodge,"Xã, Đường DT20, Tổ dân phố Xuân Tiến, Phong NHA",17.6103476,106.3100206,Khách sạn
Nava Hotel & Resort,"165 Trương Pháp, Bắc Lý",17.4907169,106.626684,Khách sạn
KHÁCH SẠN SƠN ĐOÒNG (cạnh sân bay Đồng Hới),"Khách sạn Sơn Đoòng, 16-6, Lộc Ninh",17.508532,106.5886075,Khách sạn
Khách Sạn Anh Linh 2 Quảng Bình,"55a Trương Pháp, Bắc Lý",17.4816866,106.6251742,Khách sạn
SAM Quảng Bình Hotel,"118A Hữu Nghị, Nam Lý",17.4697658,106.6067323,Khách sạn
Luxe hotel Quảng Bình,"55 Trương Pháp, Bắc Lý",17.4816322,106.6251431,Khách sạn
Regal Collection House,"Đường Võ Nguyên Giáp, Bảo Ninh",17.4572125,106.6451916,Khách sạn
CAGINA Boutique Hostel & Coffee,"124A Đ. Lê Thành Đồng, Bắc Lý",17.484881,106.6249292,Khách sạn
Commander Lodge,Phong NHA,17.6037063,106.2987308,Khách sạn
Heritage By Night Hotel,"ĐT20, Sơn Trạch",17.6103741,106.3092174,Khách sạn
Sun Spa Resort,"FJJM+3FX, Võ Nguyên Giáp, Mỹ Cảnh",17.4802612,106.6338305,Khách sạn
Manli Resort,"379 Trương Pháp, Quang Phú",17.5090452,106.6144987,Khách sạn
Peaceful House Homestay,"Ngõ 99 Đ. Lê Thành Đồng, Bắc Lý",17.4844464,106.6252125,Khách sạn
Khách sạn - Nhà Hàng Cô Cúc,"ĐT20, Phong NHA",17.6084917,106.3150649,Khách sạn
Khách sạn CKC Thiên Đường,"76 Đông Hải, Đồng Hải",17.4790629,106.6241005,Khách sạn
CLOVER HOME,"14 Nguyễn Du, Đồng Hải",17.4745448,106.622851,Khách sạn
Sea Star Resort Quang Binh,Nhân Trạch,17.5297158,106.5969419,Khách sạn
Sonne Hotel,"33 Đường Phạm Văn Đồng, Nam Sách",17.4653918,106.6054591,Khách sạn
Duy Tân Resort Quảng Bình,Bảo Ninh,17.4618638,106.6435951,Khách sạn
Rosa Lie Quảng Bình Hotel,"29 Đường Phạm Văn Đồng, Nam Lý",17.465504,106.6054207,Khách sạn
Phu Cuong Beach Hotel,"381 Trương Pháp, Quang Phú",17.5096125,106.6142509,Khách sạn
Khách sạn Tuấn Anh 2,Quang Phú,17.5101325,106.6125281,Khách sạn
Celina Peninsula Resort- Resort đẹp Quảng Bình,"Võ Nguyên Giáp, Street",17.4604338,106.6446597,Khách sạn
Sky Hotel,"J865+8H2, Phong NHA",17.6107674,106.3089008,Khách sạn
Khách sạn Hoài Thu,"AH1, Thanh Trạch",17.6957159,106.4760242,Khách sạn
Yolo Pool Bar Villas,"ĐT20, Sơn Trạch",17.6049162,106.299288,Khách sạn
View Nhat Le Beach Hotel,"Trương Pháp, Quang Phú",17.5042146,106.6163522,Khách sạn
Carambola Bungalow,"Carambola Road, Phong NHA",17.5989531,106.2911787,Khách sạn
MinMin Hotel & Coffee,"FJ47+RG9, Đức Ninh Đông",17.4570497,106.6138491,Khách sạn
Poseido Hotel Quang Binh,"223 Trương Pháp, Việt Nam",17.4998593,106.6214568,Khách sạn
Duong Riverside homestay,"Tdp Hà Lời, Phong NHA",17.6101428,106.30255,Khách sạn
Diamond Hotel,"32a Phan Chu Trinh, Đồng Hải",17.4783027,106.6233165,Khách sạn
Khách sạn Mường Thanh Luxury Nhật Lệ,"121 Trương Pháp, Bắc Lý",17.4867945,106.6270451,Khách sạn
Tan Truong Son Hotel,"34 Mạc Đĩnh Chi, Hải Đình",17.4603643,106.6245945,Khách sạn
Celia boutique Hotel Phong Nha,"ĐT20, Phong NHA",17.6085725,106.3145303,Khách sạn
Khách sạn Hoàng Đạt,"225 Lý Thánh Tông, Phường Đồng Thuận",17.4969358,106.5922977,Khách sạn
family home stay,Phong NHA,17.6047091,106.2991808,Khách sạn
Song Toan Hotel,"ĐT20, Phong NHA",17.6097797,106.3114438,Khách sạn
Đoàn Gia Resort Phong Nha,"ĐT20, Sơn Trạch",17.610367,106.3083215,Khách sạn
Phong Nha Jasmine Hostel & Rooftop Bar,"8, Phong NHA",17.6101884,106.3107834,Khách sạn
Jungle Boss Homestay,"TDP, Phong NHA",17.595975,106.2916956,Khách sạn
Paradise Hotel phong nha,"Nhà bán vé và hàng lưu niệm., ĐT20, Sơn Trạch",17.6105083,106.3093776,Khách sạn
MB Quảng Bình,"58 Quang Trung, Hải Đình",17.465764,106.623356,Ngân hàng
Ngân hàng Vietcombank - CN Hữu Nghị,"FJH3+4G6, Đồng Phú",17.4777773,106.603772,Ngân hàng
Techcombank Quảng Bình,"của tòa nhà 3 tầng tại, 01 đường Trần Hưng Đạo, Phường Hải Thịnh",17.4711148,106.6218158,Ngân hàng
VPBANK QUẢNG BÌNH,"Số 108 Đường Trần Hưng Đạo, Phường Hải Thịnh",17.4695179,106.6161451,Ngân hàng
Vietcombank Quảng Bình,"1C Trần Hưng Đạo, Phường Hải Thịnh",17.4716313,106.6223373,Ngân hàng
Ngân hàng TMCP Phương Đông (OCB) - CN Quảng Bình,"224 Trần Hưng Đạo, phường Nam Lý, TP Đồng Hới, Tỉnh Quảng Bình phường Nam Lý, Thành phố",17.4689289,106.6104024,Ngân hàng
Ngân hàng TMCP Bắc Á Chi Nhánh Quảng Bình,"287 Trần Hưng Đạo, Nam Lý",17.4674776,106.605835,Ngân hàng
Ngân hàng TMCP Đầu tư & Phát triển Việt Nam (BIDV),"Đường Hữu Nghị, P",17.4703141,106.6083308,Ngân hàng
CN Bắc Quảng Bình - Ngân hàng TMCP Đầu tư & Phát triển Việt Nam (BIDV),"368 đường Quang Trung, Phường",17.7569554,106.4212093,Ngân hàng
Phòng Giao dịch Kiến Giang,"6RW5+XPG, Mỹ Duyệt Thượng",17.2474458,106.809348,Ngân hàng
ACB - CN Quảng Bình,"188 Trần Hưng Đạo, Phường Hải Thịnh",17.4691217,106.6120916,Ngân hàng
BIDV Nguyễn Trãi,"Số 3 Đ.Nguyễn Trãi, Hải Đinh, Đồng Hới",17.466197,106.6253395,Ngân hàng
PGD Hoà Ninh - CN Bắc Quảng Bình - Ngân hàng TMCP Đầu tư & Phát triển Việt Nam (BIDV),"0, Quảng Hòa, Ba Đồn",17.7345281,106.3752493,Ngân hàng
PGD Đồng Hới - CN Quảng Bình - Ngân hàng TMCP Đầu tư & Phát triển Việt Nam (BIDV),"46 Quang Trung, Đồng Hải",17.4643032,106.6237314,Ngân hàng
PGD Đồng Sơn - CN Quảng Bình - Ngân hàng TMCP Đầu tư & Phát triển Việt Nam (BIDV),"129 Lý Thái Tổ, Đồng Sơn",17.4440155,106.5915009,Ngân hàng
ATM Sacombank,KP 1,17.7569375,106.4245625,Ngân hàng
Ngân hàng TMCP Việt Nam Thịnh Vượng - VPBank Đồng Hới,"Số 59 Đường Tố Hữu, Tiểu khu 11",17.4696524,106.6044549,Ngân hàng
MB Ba Đồn,"285 Quang Trung, Phường",17.7566275,106.4265337,Ngân hàng
PGD Bắc Lý - CN Quảng Bình - Ngân hàng TMCP Đầu tư & Phát triển Việt Nam (BIDV),"Tiểu khu 14, Bắc Lý, Đồng Hới",17.4867185,106.6012426,Ngân hàng
HDBank,"352 Trần Hưng Đạo, Nam Sách",17.4670773,106.6057957,Ngân hàng
Sacombank-CN Quảng Bình,"5 Quang Trung, Đồng Hải",17.4611265,106.6253196,Ngân hàng
PGD Lý Hòa - CN Bắc Quảng Bình - Ngân hàng TMCP Đầu tư & Phát triển Việt Nam (BIDV),"QL1A, Phú Trạch",17.6394725,106.5185876,Ngân hàng
Rút tiền đáo hạn thẻ tín dụng - Quảng Bình,"38 Tố Hữu, Nam Sách",17.470416,106.604244,Ngân hàng
PGD Nam Lý - CN Quảng Bình - Ngân hàng TMCP Đầu tư & Phát triển Việt Nam (BIDV),"29 Phan Đình Phùng, Đồng Phú",17.4703035,106.593442,Ngân hàng
Vietinbank Quảng Bình,"50 Lý Thường Kiệt, Đồng Hải",17.4760185,106.6207493,Ngân hàng
PGD Bố Trạch - CN Quảng Bình - Ngân hàng TMCP Đầu tư & Phát triển Việt Nam (BIDV),"Tiểu khu 12, Hoàn Lão, Bố Trạch",17.58136,106.536,Ngân hàng
Sacombank-PGD Đồng Sơn,"81 Lý Thái Tổ, Bắc Nghĩa",17.443107,106.5943332,Ngân hàng
VPBANK BA ĐỒN,"381 Quang Trung, Quảng Thọ",17.7565304,106.4198432,Ngân hàng
Sacombank-PGD Đồng Hới,"252 Trần Hưng Đạo, Nam Sách",17.4685141,106.6090455,Ngân hàng
Agribank,"90 Hùng Vương, Ba Đồn",17.7529118,106.4228879,Ngân hàng
BIDV Ba Đồn,"86 Đường Hùng Vương, Ba Đồn",17.7531529,106.4229494,Ngân hàng
VPBANK BỐ TRẠCH,"366 Đ. Hùng Vương, TT. Hoàn Lão",17.5808441,106.5359785,Ngân hàng
Ngân Hàng Agribank Lệ Thủy,"21 Nguyễn Tất Thành, Liên Thuỷ",17.2229213,106.7935734,Ngân hàng
TPBank Quảng Bình,"257 Trần Hưng Đạo, Nam Sách",17.4678841,106.6065894,Ngân hàng
VietinBank Ba Đồn,"QC4F+R8V, Ba Đồn",17.7570283,106.423294,Ngân hàng
Ngân Hàng Tmcp Đông Á (Donga Bank),"33 Lý Thường Kiệt, Đồng Hải",17.475017,106.6213091,Ngân hàng
ACB - PGD Ba Đồn,"195 Quang Trung, Phường",17.7565037,106.429936,Ngân hàng
Ngân hàng Chính sách xã hội - Chi nhánh Quảng Bình,"105 Bạch Đằng, Thành phố",17.4586945,106.6174941,Ngân hàng
PGD Thanh Hà,"Quốc lộ 1A, Thanh Trạch, Bố Trạch",17.6943083,106.4827685,Ngân hàng
Ngân Hàng Nông Nghiệp & Phát Triển Nông Thôn Việt Nam (Agribank) - Cn Dinh Mười,"9M9F+CFV, QL1A, Gia Ninh",17.3686041,106.673679,Ngân hàng
Sacombank-PGD Bố Trạch,"QL1A, Tiểu khu 2",17.5816677,106.5356534,Ngân hàng
PGD Tuyên Hoá,"Quốc lộ 12A, Tiến Hóa, Tuyên Hoá",17.8005171,106.2314157,Ngân hàng
Ngân Hàng TMCP Bưu Điện Liên Việt - PGD Quảng Ninh,Dinh Mười,17.3656638,106.6761567,Ngân hàng
Vietinbank Quảng Bình - PGD Bố Trạch,"432 Đ. Hùng Vương, TT. Hoàn Lão",17.5779318,106.5371359,Ngân hàng
Vietcombank - Ba Đồn.,"326 Quang Trung, Ba Đồn",17.7569671,106.4246242,Ngân hàng
Sacombank-PGD Ba Đồn,Khu phố 1,17.7568749,106.4246603,Ngân hàng
MSB Ba Đồn,"Khu phố 1, Phường",17.7586657,106.4169425,Ngân hàng
Sacombank-PGD Bắc Lý,"52 Lý Thánh Tông, Lộc Ninh",17.4927216,106.5962637,Ngân hàng
Bidv - PGD Thanh Hà,"QL1A, Thanh Trạch",17.6948799,106.4805695,Ngân hàng
MSB Đồng Hới,"119 Tố Hữu, phường",17.4674033,106.6045219,Ngân hàng
Agribank Mỹ Đức,"6MJV+H8F, Unnamed Rd, Sơn Thuỷ",17.2314446,106.6933089,Ngân hàng
MSB Quảng Bình,"5 Quang Trung, phường",17.4611269,106.6252404,Ngân hàng
Atm Maritime Bank,"9 Quang Trung, Đồng Hải",17.4613152,106.6250832,Ngân hàng
Agribank Chi nhánh huyện Bố Trạch Quảng Bình,"37 Đ. Hùng Vương, TT. Hoàn Lão",17.5846021,106.5348741,Ngân hàng
Ngân Hàng Agribank Quảng Ninh,"8J9P+86F, Xuân Dục",17.3183068,106.6355382,Ngân hàng
MB Smartbank Bố Trạch,"380 Đ. Hùng Vương, TT. Hoàn Lão",17.5801002,106.5362238,Ngân hàng
Ngân Hàng Phát Triển Việt Nam,"2, Trần Hưng Đạo, TP Đồng Hới, Tỉnh Quảng Bình",17.4707307,106.6217885,Ngân hàng
Vietcombank,"Hoàn Lão, Bố Trạch",17.5817606,106.5355431,Ngân hàng
Ngân Hàng Đầu Tư & Phát Triển Việt Nam (Bidv),"CJ4Q+3X7, Đường Hùng Vương, TT. Quán Hàu",17.4051406,106.6399019,Ngân hàng
Quỹ tín dụng nhân dân Vạn Ninh,"7MMH+272, thôn Tây",17.2825081,106.6782319,Ngân hàng
Lantern Vietnamese Restaurant (Nhà hàng Đèn Lồng Việt),Phong NHA,17.6101719,106.3095043,Nhà hàng
PHONG NHA FAMILY RESTAURANT (NHÀ HÀNG GIA ĐÌNH VIỆT NAM),"Thôn 1 Cù Lạc, Phong NHA",17.6134894,106.3161763,Nhà hàng
Friendly garden Restaurant,"ĐT20, Phong NHA",17.6017045,106.2983146,Nhà hàng
Nhà hàng The Villas,"Highway 20, Phong NHA",17.6067625,106.3006518,Nhà hàng
Kicochi House Đồng Hới,"36 Trần Hưng Đạo, Đồng Hải",17.4702083,106.6196742,Nhà hàng
Nhà Hàng Lộc Phát,"Thị Trấn Phong Nha, Phong NHA",17.616703,106.3215637,Nhà hàng
Phong Nha Vegan Restaurant,"Tổ dân, phố Hà Lời, Phong NHA",17.602676,106.2978218,Nhà hàng
Nhà hàng Mộc Hoa Viên,"357 Nhật Lệ, Bảo Ninh",17.4525088,106.6386962,Nhà hàng
Nhà Hàng Nổi Sông Son ( Song Son Floating Restaurant),"ĐT20, Sơn Trạch",17.6052346,106.2991212,Nhà hàng
Nhà hàng Rơm QB,"Đ. La Sơn Phu Tử, Phường Hải Thành",17.4822121,106.6173476,Nhà hàng
Nhà hàng Chang Chang Sun River,"QL1A, Lương Ninh",17.4232174,106.6410028,Nhà hàng
Sabochi Restaurant - Nhà hàng Sâm Bố Chính Quảng Bình,"25 đường 23/8, Hải Đình",17.4608577,106.6170391,Nhà hàng
Nhà Hàng Chang Chang Family,"Đường Phạm Văn Đồng/86 đường 36m, Đức Ninh Đông",17.4605176,106.611102,Nhà hàng
Bamboo Chopsticks Restaurant,"J866+2H9, ĐT20, Phong NHA",17.6099763,106.3103733,Nhà hàng
Nhà Hàng Chang Chang Quán,"198 Trần Hưng Đạo, Phường Hải Thịnh",17.4690516,106.6116163,Nhà hàng
Nhà hàng Đông nam Pearl,TT. Hoàn Lão,17.5841311,106.5330384,Nhà hàng
Nhà hàng Hồng Hà Đá Nhảy,"QL1A, Đá Nhảy",17.6622728,106.5114943,Nhà hàng
Nhà Hàng Cơm Niêu Thuận Long,"20A Hoàng Hoa Thám, Đồng Hải",17.4762119,106.6200701,Nhà hàng
Nhà hàng Anh Vũ,"53 Nhật Lệ, Bảo Ninh",17.4716975,106.6306096,Nhà hàng
Cô Tuyết,"đường 20, tổ dân phố Xuân Tiến, Phong NHA",17.6102063,106.3092904,Nhà hàng
The Rice House,"ĐT20, Phong NHA",17.6096239,106.3118618,Nhà hàng
Nhà hàng 69,"FJ3Q+F5P, Hà Thôn",17.4537218,106.63794,Nhà hàng
Nhà hàng sinh thái Hoàng Châu,"297 Phan Đình Phùng, Đồng Phú",17.4777488,106.5814234,Nhà hàng
Night Street Restaurant Phong Nha,"Xã, Đường 20, Phong NHA",17.6024677,106.2977321,Nhà hàng
Nhà hàng Phố Giáo,"Lý Thánh Tông, Đồng Phú",17.4885593,106.6002103,Nhà hàng
Nhà hàng Quê Hương,"02 Đường Trần Nguyên Hãn, Phường Hải Thịnh",17.4754794,106.6166935,Nhà hàng
Nhà Hàng Xuân Đặng,"GJ39+FHX, Trương Pháp, Quang Phú",17.5037314,106.6189774,Nhà hàng
Nhà Hàng Phú Cường,"GJ58+965, Trương Pháp, Quang Phú",17.5083988,106.6156219,Nhà hàng
Kim Tuyến restaurant,"FJ69+3FP, Đồng Hải",17.4602197,106.6186946,Nhà hàng
Nha Hàng Sóng Thần,"Hương Giang, Hải Đình",17.4604959,106.626779,Nhà hàng
Nhà hàng Khánh Thuỷ,"QL15, thôn Chày",17.5882582,106.2587685,Nhà hàng
NHÀ HÀNG THU HUẾ,Sơn Trạch,17.6106316,106.3059431,Nhà hàng
Nhà hàng Phong Nha - Quán cô Phượng (Cơ sở I),"Thôn Hà Lời, Sơn Trạch",17.6107944,106.3045264,Nhà hàng
Nhà hàng tiệc cưới Tân Trường Xanh,"57 Nguyễn Công Trứ, Nam Lý",17.4637726,106.5990043,Nhà hàng
Lá Cọ Beach - Nhà Hàng Hải Sản Đồng Hới Quảng Bình,"185 Trương Pháp, Bắc Lý",17.4929836,106.6258957,Nhà hàng
Nhà hàng Kiều Trinh QB,"Đường Phạm Văn Đồng, Nam Lý",17.46503,106.6056273,Nhà hàng
Nhà Hàng Ẩm Thực 73,"786 Hồ Chí Minh, Phúc Trạch",17.648157,106.2672517,Nhà hàng
NHÀ HÀNG HIẾU BÉO,"Lối 135 Hùng Vương rẻ vào Nguyễn Bỉnh Khiêm, Phường Ba Đồn, Thị xã",17.7531759,106.4192603,Nhà hàng
Nhà hàng nổi Hải Dương đổi thành Quán Tám Hải Dương,"FJQG+8X8, Trương Pháp, Bắc Lý",17.4882977,106.6274616,Nhà hàng
Nhà Hàng Hải Yến,"Trương Pháp, Quang Phú",17.5136568,106.6117714,Nhà hàng
Nhà Hàng Vững Huế,Phong NHA,17.6105826,106.3058544,Nhà hàng
Son Doong Restaurant,"J864+Q8C, Phong NHA",17.6119483,106.3057518,Nhà hàng
Nhà Hàng Hương Thủy,"297 Lý Thường Kiệt, Phường Hải Thành",17.4824421,106.6128357,Nhà hàng
Nhà Hàng Linh Giang Ba Đồn,"PCVF+X7F Bến Du Thuyền, Hùng Vương, Khu đô thị Nam",17.7449472,106.4231797,Nhà hàng
Nhà Hàng New Sakê,"121 Nhật Lệ, Bảo Ninh",17.467679,106.6321418,Nhà hàng
Nhà hàng Ẩm Thực Việt Quảng Bình,"Chi Lăng, Nam Sách",17.4687093,106.6059823,Nhà hàng
Nhà Hàng Phương Nam II,"Hang Tối Chày Lập, Phúc Trạch",17.5779094,106.2542572,Nhà hàng
Nhà Hàng Gà Đồi,"134 Lý Thường Kiệt, Phường Hải Thành",17.4811466,106.6167541,Nhà hàng
Tu Quy Restaurant,"63 Trương Pháp, Bắc Lý",17.4818681,106.6251817,Nhà hàng
Nhà hàng Việt Hồng,"QL1A/416 Đ. Hùng Vương, tk2",17.5786736,106.5368215,Nhà hàng
Lá Cọ La Maison Restaurant - Nhà Hàng Quảng Bình,"82 Đường Phạm Văn Đồng, Đức Ninh Đông",17.4609845,106.6104293,Nhà hàng
Nhà Hàng Minh Hà,"45 Trương Pháp, Bắc Lý",17.4810598,106.6249391,Nhà hàng
Nhà Hàng Trung Tâm,Bắc Lý,17.5007354,106.6213059,Nhà hàng
Nhà Hàng Thanh Mai,"Trương Pháp, Bắc Lý",17.4812824,106.6249702,Nhà hàng
Nhà Hàng Homestay Quốc Dũng,"Trương Pháp, Quang Phú",17.5125737,106.6118163,Nhà hàng
Nhà Hàng Hùng Cường,"JGGQ+65F, 16, Đức Trạch",17.6254983,106.5379573,Nhà hàng
Nhà hàng Thỏ Rừng,"38 Long Đại, Bắc Lý",17.4869749,106.6253353,Nhà hàng
Nhà hàng 1984,"10 Đ. Mạc Kính Điển, Phường Hải Thành",17.4815265,106.6104266,Nhà hàng
Nhà hàng Amor Palace,"101 Hữu Nghị, Đồng Phú",17.4770984,106.6044338,Nhà hàng
Nhà khách ĐH Quảng Bình,"FJJ3+VR3, Hữu Nghị, Đồng Phú",17.482139,106.6044458,Nhà khách
NHÀ KHÁCH THANH NIÊN TỈNH QUẢNG BÌNH,"42 Trần Quang Khải, Phường Hải Thành",17.479131,106.6155025,Nhà khách
Nhà khách 3-59 hoàng kim BĐBP Quảng Bình,Quang Phú,17.5039617,106.6171332,Nhà khách
Nhà khách tỉnh Khăm muộn,"GJ48+H66, Trương Pháp, Quang Phú",17.5064163,106.6155192,Nhà khách
Nhà nghỉ Đức Thịnh,"7R42+46, Thanh Thuỷ",17.2555212,106.8006059,Nhà khách
Tin học - Viễn thông Đặng Trình,11 Lâm úy,17.7555155,106.4199738,Nhà lắp đặt thiết bị thông tin
Công Nghệ Số Ngọc Cường,"07 Đ. Hùng Vương, TT. Hoàn Lão",17.5871961,106.533827,Nhà lắp đặt thiết bị thông tin
Camera Thiên Phú Ba Đồn - Lắp đặt Camera Quảng Bình Uy tín,"Sau ngân hàng BIDV Bắc, QL12A, Ba Đồn",17.7572426,106.4212469,Nhà lắp đặt thiết bị thông tin
Thiết bị nhà thông minh - Đại lý cấp 1 Rạng Đông tại Quảng Bình,Đức Môn,17.4369634,106.6111687,Nhà lắp đặt thiết bị thông tin
Sửa Chữa Điện Lạnh - Điện Máy Đồng Hới,"19 Hồ Xuân Hương, Đồng Hải",17.4762653,106.6229691,Nhà lắp đặt thiết bị thông tin
CÔNG TY TNHH KỸ THUẬT VÀ PHÁT TRIỂN CÔNG NGHỆ MINH AN,"15 Nguyễn Hữu Cảnh, Đồng Hải",17.4621088,106.6237152,Nhà lắp đặt thiết bị thông tin
sửa chữa điện nước dân dụng Hải Thành,"106 Đ. Lê Thành Đồng, Bắc Lý",17.4849656,106.6237177,Nhà lắp đặt thiết bị thông tin
Co.opmart Quảng Bình,"7 23 Tháng 8, Phường Hải Thịnh",17.4615283,106.6178526,Siêu thị
Siêu thị Thế Anh,"230 Lý Thường Kiệt, Phường Hải Thành",17.4819737,106.6133747,Siêu thị
WinMart Vincom Quảng Bình,"TTTM Vincom Plaza, Quách Xuân Kỳ Lâm Úy, Hải Đình Hải Đình",17.46533,106.62654,Siêu thị
Siêu Thị Thái Hậu,"353 Quang Trung, Ba Đồn",17.756575,106.4223849,Siêu thị
Siêu thị Hùng Hồng - Hung Hong Plaza,"67 Hùng Vương, Ba Đồn",17.7533195,106.4259593,Siêu thị
Bình Minh Mart,"Unnamed Road, Quyết Thắng",17.6969467,106.4832617,Siêu thị
Trung tâm mua sắm tự chọn GOLDMART,"8 Hữu Nghị, Đồng Phú",17.4838681,106.6037406,Siêu thị
Trung Tâm Thương Mại Thiện Nhân - Ba Đồn,"60 Hùng Vương, Ba Đồn",17.7534138,106.4252435,Siêu thị
VinMart+,"31 Hoàng Diệu, Nam Lý",17.4675958,106.5977734,Siêu thị
D.MART (SIÊU THỊ),"4 Cạnh chợ, Khương Hà",17.6248635,106.3607782,Siêu thị
HỆ THỐNG SIÊU THỊ HẢI SẢN MAI THỊNH,"358 Trần Hưng Đạo, Nam Sách",17.4669651,106.6054529,Siêu thị
Siêu Thị Đặc Sản Phong Nha,Sơn Trạch,17.6098594,106.3109344,Siêu thị
HihiHehe Minimart24h - Đồng Hới (siêu thị 24h),"26 Hồ Xuân Hương, Đồng Hải",17.4764495,106.623129,Siêu thị
Siêu thị Tuan Viet Gourmet Market,"1d Mẹ Suốt, Hải Đình",17.4632022,106.6247654,Siêu thị
Siêu Thị Đặc Sản Miền Trung 24H,"GHQ3+XHR, Lý Trạch",17.5399843,106.5539011,Siêu thị
CTY TNHH CỘNG NGHỆ QUỐC TẾ ADT,"296 Lý Thường Kiệt, Phường Hải Thành",17.4828407,106.6099586,Siêu thị
Vape Pod Thuốc lá điện tử giá rẻ quảng bình,"FJF9+2W4, Phường Hải Thịnh",17.472613,106.619826,Siêu thị
Siêu thị Mẹ Yêu Con,Ngã ba Nam Gianh,17.7026072,106.4406161,Siêu thị
Siêu Thị Mẹ Bầu & Em Bé Con Cưng,"32 Quang Trung, phường",17.4628251,106.6239937,Siêu thị
Trung sơn mart,"84 Hoàng Diệu, TT. Hoàn Lão",17.5862505,106.5247267,Siêu thị
Winmat+,"55 Đ. Lê Thành Đồng, Bắc Lý",17.4842456,106.6209209,Siêu thị
"Siêu thị Điện Máy Mediamart 54 Lý Thường Kiệt, Đồng Hới, Quảng Bình","54 Lý Thường Kiệt, Đồng Hải",17.4767536,106.6204936,Siêu thị
Siêu Thị Mẹ Bầu & Em Bé Con Cưng,"01 Hàm Nghi, Liên Thuỷ",17.2216203,106.7932046,Siêu thị
"Siêu thị Điện máy XANH Kiến Giang, Quảng Bình","27 Nguyễn Tất Thành, Liên Thuỷ",17.2236512,106.7939933,Siêu thị
Siêu thị điện máy Mediamart Ba Đồn,"19 Quang Trung, Quảng Thọ",17.751737,106.4406512,Siêu thị
Siêu Thị Mẹ Bầu & Em Bé Con Cưng,"309 Trần Hưng Đạo, Nam Sách",17.4671416,106.6047801,Siêu thị
Siêu Thị Mẹ Bầu & Em Bé Con Cưng,"Thôn QL1A, Xã Hải Phú",17.6469209,106.516907,Siêu thị
Siêu thị Điện máy XANH,"75 Lý Thường Kiệt, P",17.477007,106.6209224,Siêu thị
Siêu thị điện máy Mediamart Hoàn Lão,"09 Đ. Hùng Vương, TT. Hoàn Lão",17.5871028,106.5338404,Siêu thị
Siêu thị Điện máy XANH,"141 Đường Hùng Vương, Gia Ninh",17.4042658,106.639378,Siêu thị
Siêu Thị MiNi Mart Hoàng Hà,"P9JJ+MJ8, Nhân Hòa",17.7316857,106.3815546,Siêu thị
Siêu thị Điện máy XANH,"226 Trần Hưng Đạo, Nam Sách",17.468656,106.610239,Siêu thị
"Siêu thị Điện máy XANH Gia Ninh, Quảng Ninh","QL1A, Thôn, Dinh Mười",17.3659524,106.6758214,Siêu thị
Viettel Store,"59 Hùng Vương, Ba Đồn",17.7535001,106.4263486,Siêu thị
Siêu thị ĐIỆN MÁY MEDIAMART Lệ Thủy,"6QFV+7QF, TT. Kiến Giang",17.2231974,106.7944301,Siêu thị
Siêu thị Mẹ bầu & Em bé Con Cưng,"Lý Thường Kiệt/1 Khu phố 1, phường",17.7525715,106.4243189,Siêu thị
Siêu thị Thế Giới Di Động,"127 Trần Hưng Đạo, Phường Hải Thịnh",17.4694041,106.6134852,Siêu thị
Siêu thị Mini Bảo Ngọc,"8M55+V9, Đại Hữu",17.3096667,106.6583838,Siêu thị
Siêu thị Điện máy HC - Quảng Bình,"50 Quang Trung, Đồng Hải",17.4647231,106.6235935,Siêu thị
Siêu Thị T-Mart,"60 Hùng Vương, Ba Đồn",17.7536002,106.4252841,Siêu thị
Siêu thị Điện máy XANH,Thôn Thanh Khê,17.6952169,106.4779335,Siêu thị
Siêu thị điện máy nội thất Chợ Lớn,"559B Lý Thường Kiệt, Đồng Phú",17.4848796,106.6036659,Siêu thị
Siêu Thị Hiếu Hằng Plaza,"27 Nguyễn Hữu Cảnh, Đồng Hải",17.4622018,106.6234141,Siêu thị
Siêu thị Điện máy XANH Hùng Vương,"55 Đ. Hùng Vương, TT. Hoàn Lão",17.5835084,106.5353013,Siêu thị
Siêu thị Điện máy XANH,"9 Hùng Vương, Phường",17.7555794,106.432206,Siêu thị
Siêu thị Trường Xuân,"Công ty TMDV Trường Xuân, 601 Lý Thường Kiệt, Đồng Phú",17.4868399,106.6017521,Siêu thị
NIGHTLIFE mart 24h,"79 Nhật Lệ, Bảo Ninh",17.4705994,106.6309174,Siêu thị
Siêu Thị Điện Thoại Toàn Cầu,"18 Hùng Vương, Ba Đồn",17.7542919,106.427861,Siêu thị
SAM PLAZA,"118A Hữu Nghị, Nam Lý",17.4700895,106.60591,Siêu thị
Siêu Thị Thịnh Việt 2,"ĐT2B, Hạ Trạch",17.6813375,106.4256426,Siêu thị
Bách Hóa Xanh Hai Bà Trưng,"106 Đường Hai Bà Trưng, Phường Hải Thịnh",17.4714042,106.6171243,Siêu thị
Siêu thị đồng giá LOOK LOOK 19K Quảng Bình,"60 Hùng Vương, Ba Đồn",17.7535898,106.4252876,Siêu thị
Siêu thị Điện máy XANH,"6MPW+35J, Sơn Thuỷ",17.23475,106.694944,Siêu thị
Bách Hoá Xanh,Thôn Thanh Tân xã,17.7310184,106.3759075,Siêu thị
Điện máy Dũng loan 03,"Chợ Ba Đồn, Khu Phố 1, P. Ba Đồn, thị xã",17.7525895,106.4214317,Siêu thị
Siêu thị gia dụng Minh Tầm,"39 Đ. Lâm Úy, Quảng Long",17.7595804,106.4208396,Siêu thị
Siêu thị Thịnh Việt 1,"PC5J+H3G, thôn 5",17.7089129,106.4302046,Siêu thị
Siêu thị Quạt điện Bích Thắng,"16A Mẹ Suốt, Đồng Hải",17.463777,106.6253277,Siêu thị
Thế Giới Sữa,Thanh Tân,17.7307575,106.3760543,Siêu thị
Cửa hàng Xăng dầu Petrolimex Số 01,"19 Lý Thường Kiệt, Đồng Hải",17.4723257,106.6220364,Trạm xăng
Cửa hàng Xăng dầu Petrolimex Số 14,"QCQM+3P4, Quảng Xuân",17.7876402,106.4343316,Trạm xăng
Cửa hàng Xăng dầu Petrolimex Số 12,"RCGM+475, Quảng Hưng",17.8252545,106.4332489,Trạm xăng
Cửa hàng Xăng dầu Petrolimex Số 23,"GH94+M57, QL1, Lý Trạch",17.5191702,106.5555784,Trạm xăng
Cửa hàng xăng dầu Phong Nha,"Thôn 1 Cù Lạc, Sơn Trạch",17.6124155,106.316723,Trạm xăng
Petrolimex - Cửa Hàng 19,"JGCH+7C5, thôn 4",17.6190695,106.5292148,Trạm xăng
Cửa hàng Xăng dầu Petrolimex Số 07,"GH9C+RWG, Lý Trạch",17.5195603,106.5723004,Trạm xăng
Cửa hàng Xăng dầu Petrolimex Số 05,"599 Lý Thường Kiệt, Đồng Phú",17.4867372,106.6018177,Trạm xăng
Cửa hàng Xăng Dầu Petrolimex Số 27,"Thôn Mốc Thượng 2, Hồng Thuỷ",17.289472,106.7524707,Trạm xăng
Cửa hàng Xăng dầu Petrolimex Số 25,"8MRW+XQV, QL1A, Gia Ninh",17.3424774,106.6969148,Trạm xăng
Cửa hàng Xăng dầu Petrolimex Số 26,"Thạch Thượng 2, Hồng Thuỷ",17.2956396,106.744962,Trạm xăng
Cửa hàng Xăng dầu Petrolimex Số 15,"QC3R+5XC, QL1A, Quảng Thọ",17.7529351,106.4423906,Trạm xăng
Cửa hàng Xăng dầu Petrolimex Số 20,"HGJP+J78, TT. Hoàn Lão",17.5815213,106.5356713,Trạm xăng
Cửa hàng Xăng dầu Petrolimex Số 17,"MFWF+F3X, Bắc Trạch",17.6962655,106.4727645,Trạm xăng
Petrolimex,"Thôn Bốn, Phúc Trạch, Bố Trạch",17.6478839,106.2678098,Trạm xăng
Cửa hàng Xăng dầu Petrolimex Số 21,"JCGW+P5F, ĐT561, Vạn Trạch",17.6268271,106.4454354,Trạm xăng
Cửa hàng Xăng dầu Petrolimex Số 28,"7Q5V+HXG, QL1A, Thanh Thuỷ",17.2589429,106.7949656,Trạm xăng
Cửa hàng Xăng dầu Petrolimex Số 04,"Thôn 4, Nam Lý, Đồng Hới",17.4663847,106.5991022,Trạm xăng
Cửa hàng Xăng dầu Petrolimex Số 48,"Thanh Sơn, Quảng Thanh, Quảng Trạch",17.7674477,106.3660733,Trạm xăng
Cửa hàng Xăng dầu Petrolimex - Trường Thọ QB,"Unnamed Rd, Thanh Thuỷ",17.2780578,106.7963167,Trạm xăng
Cửa hàng Xăng dầu Petrolimex Số 35,"CJMP+64V, Quang Trung, Lương Ninh",17.433103,106.6353103,Trạm xăng
Cửa hàng Xăng dầu Petrolimex Số 06,"GH6P+78R, Lý Thánh Tông, Lộc Ninh",17.5107394,106.5857787,Trạm xăng
Cửa hàng Xăng dầu Petrolimex Số 08,"78 Lý Thái Tổ, Bắc Nghĩa",17.4419776,106.5969676,Trạm xăng
Cửa hàng Xăng dầu Petrolimex Số 51,"7QVG+4HG, Hồng Thuỷ",17.2928091,106.7764643,Trạm xăng
Cửa hàng Xăng dầu Petrolimex Số 02,"Phú Hải, Đồng Hới",17.4481531,106.6314488,Trạm xăng
PVOIL CHXD Đức Ninh Đông,"86 Đường Phạm Văn Đồng, Nam Sách",17.4605962,106.6111553,Trạm xăng
Xăng dầu quân đội,"FH66+3RR, Đồng Sơn",17.4602486,106.5620231,Trạm xăng
Cửa hàng xăng dầu Đức Lê,"6F73+28, Trường Sơn",17.2127093,106.4532679,Trạm xăng
Cửa hàng Xăng dầu Petrolimex Số 24,"CJJG+9XJ, Lương Ninh",17.430951,106.6273788,Trạm xăng
Của hàng Xăng dầu Petrolimex Số 29,"6RX5+4QF, QL1, Mỹ Duyệt Thượng",17.2478193,106.8094299,Trạm xăng
Cửa hàng Xăng dầu Petrolimex Số 33,"6Q8R+835, Xuân Thuỷ",17.2158381,106.7902028,Trạm xăng
Cửa hàng xăng dầu Khánh Hoài,"9P3R+XP9, Cua Thôn",17.3549103,106.7418582,Trạm xăng
Petrolimex CHXD 52,"9J8P+4HG, Quyết Tiến",17.3652308,106.6364583,Trạm xăng
Trạm Xăng Thanh Hà,Quảng Thanh,17.7640625,106.3770625,Trạm xăng
Cửa hàng Xăng dầu Petrolimex Số 39,"Q7QC+X2H, Tiến Hoá",17.7899291,106.2701055,Trạm xăng
Cửa hàng Xăng dầu An Phát 03,"9MP3+2RH, thôn Tây",17.3850631,106.6546,Trạm xăng
PVOIL CHXD THÀNH PHỐ ĐỒNG HỚI,"127 Phan Đình Phùng, Đồng Phú",17.4741808,106.5898007,Trạm xăng
Cửa hàng xăng dầu Bảo Ninh,"Thôn Trần Phú, Trung Bính",17.463807,106.6358875,Trạm xăng
Trạm xăng dầu Phú Ninh,"FHG2+5P4, Đức Điền",17.4753511,106.5517861,Trạm xăng
Cửa hàng Xăng dầu Petrolimex Số 38,"6MMW+257, Hồ Chí Minh, Sơn Thuỷ",17.2325442,106.6954009,Trạm xăng
Trạm xăng Quán Hàu,"QL1A, TT. Quán Hàu",17.4107046,106.6429799,Trạm xăng
Cây xăng Quy Hương,Khu phố 3,17.7569169,106.4253562,Trạm xăng
PVOIL CHXD BẮC LÝ,"trái tuyến, Km 659+600, QL1A Đường tránh Tp Đồng Hới",17.4759425,106.5751076,Trạm xăng
Trạm Xăng dầu Minh Khiêm số 3,"R9MF+PFC, Unnamed Road, xóm 7",17.8343647,106.3736087,Trạm xăng
Xăng Dầu Vũ Long,"Thôn 1, Thanh Bình",17.6322011,106.3600528,Trạm xăng
CHXD Khu Vực Cộn- Hải Vân 01,"194 Lý Thái Tổ, Bắc Nghĩa",17.4443517,106.5911338,Trạm xăng
Cữa Hàng Xăng Dầu Hải Ninh,"9PC6+FR, Hải Ninh",17.3707054,106.7115815,Trạm xăng
TRUNG TÂM GAS - DMN PETROLIMEX,"FHCW+GMJ, Nam Lý",17.4713482,106.5966472,Trạm xăng
Trạm Xăng Dầu Long Hiếu,"6QM9+MH7,đội 3 thôn Tuy Lộc",17.2341826,106.7691067,Trạm xăng
Cửa hàng Xăng dầu Petrolimex Số 46,"8MXC+4WV, Quảng Xá",17.3478636,106.6722882,Trạm xăng
Trạm xăng Thanh Tâm,"FJQ2+584, Đồng Phú",17.4879223,106.6008994,Trạm xăng
Cửa Hàng Xăng Dầu Lê Ninh,"6QGW+HVH, Nguyễn Tất Thành, Liên Thuỷ",17.2264489,106.7972335,Trạm xăng
DNXD Khánh Linh,"QC59+72M, Quảng Long",17.7582278,106.417545,Trạm xăng
CỬA HÀNG XĂNG DẦU HỒNG VÂN SỐ 7,"PCVP+WC5, Lý Thường Kiệt, Quảng Thuận",17.7447593,106.4361105,Trạm xăng
Cửa hàng Xăng dầu Petrolimex Số 37,"7M86+6WV, Hồ Chí Minh, Vạn Ninh",17.2656094,106.6623036,Trạm xăng
Cty TNHH Minh Hải,"HGPM+XF8, AH1, TT. Hoàn Lão",17.587412,106.5337045,Trạm xăng
Trạm xăng dầu PV Oil,"HGFG+939, Nguyễn Trãi, TT. Hoàn Lão",17.573418,106.5252256,Trạm xăng
Cửa hàng Xăng dầu Petrolimex Số 22,"FGH7+32R, TT. NT Việt Trung",17.4777221,106.5125199,Trạm xăng
Cửa Hàng Xăng Dầu Hiếu Thành,Thạch Bàn,17.1865271,106.7623055,Trạm xăng
Cây Xăng Lệ Ninh,"6MMQ+8V3, TT. NT Lệ Ninh",17.234419,106.689878,Trạm xăng
Cửa Hàng xăng dầu Hoàng Long 2,An Thuỷ,17.2245482,106.7741872,dầu
Cửa hàng Xăng dầu Petrolimex Số 36,"8J9V+P85, Xuân Dục",17.3192631,106.6433491,dầu
Xăng dầu Tam Hương,"5PXF+9C2, ĐT565, Tám Hương",17.1983294,106.7236116,dầu
Cửa hàng Xăng dầu Petrolimex Số 34,"70 Hùng Vương, Liên Thuỷ",17.2244472,106.789818,dầu
Xăng Dầu PETROLYMEX Hải Nam 24/24,"7M85+QG7, ĐT10, Vạn Ninh",17.2669246,106.6588063,dầu
Cửa Hàng Xăng Dầu Linh Duy,thôn Tây,17.2824419,106.6763421,dầu
Công Ty TNHH TM TH xăng Dầu Việt Trung,"HCHP+8VH, Phú Định",17.5783008,106.437243,dầu
Cửa hàng xăng dầu An Phát 04,"9JP6+965, Hồ Chí Minh, Vĩnh Ninh",17.385866,106.610671,dầu
Xăng Dầu Vạn Ninh,"7M86+6WR, Vạn Ninh",17.2656202,106.6622799,dầu
Cửa Hàng Xăng Dầu PV Số 1 Bố Trạch Quảng Bình,"HG7V+754, QL1A, Đại Trạch",17.5631449,106.5429589,dầu
Xăng Dầu Minh Khiêm,"PCHQ+QWM, thị xã",17.7294546,106.4397478,dầu
Xăng dầu Quân đội - Trạm Xăng Số 20,"M66H+8F2, Hồ Chí Minh, Xuân Trạch",17.6607657,106.2286298,dầu
Cửa hàng xăng dầu Tiên Phong,"QL12A, Phường",17.7609398,106.3955171,dầu
Cửa hàng Xăng dầu Petrolimex Số 40,"Liên Sơn, Mai Hóa, Tuyên Hóa",17.8247053,106.1788701,dầu
Cửa Hàng Xăng Dầu Hưng Phát Số 5,"FJ74+FXJ, Đường Phạm Văn Đồng, Nam Sách",17.4637133,106.607392,dầu
Cửa hàng Xăng dầu Văn Trường,"4RQ5+47W, Cầu, Ba Canh",17.1378588,106.8082065,dầu
Tuan Viet Center,"01A Mẹ Suốt, Đồng Hải",17.4630666,106.624546,Trung tâm thương mại
Vincom Plaza Đồng Hới,"Quách Xuân Kỳ, P",17.4654359,106.6266764,Trung tâm thương mại
City Game Vincom Quảng Bình,"15 Lê Trực, Hải Đình",17.4652831,106.6262112,Trung tâm thương mại
SIÊU THỊ D.MART,Hưng Trạch,17.6249949,106.3602881,Trung tâm thương mại
Tổ hợp Nhà phố Thương mại và Căn hộ Khách sạn Royal,"FJ6G+QJR, Đồng Hải",17.461994,106.6265071,Trung tâm thương mại
Trung Tâm Thương Mại Tổng Hợp Vật Liệu Xây Dựng,"177 Lý Thường Kiệt, Phường Hải Thành",17.4815631,106.6166529,Trung tâm thương mại
Công ty TNHH Thương Mại Lý Lời,"QC2F+VP4, Lý Thường Kiệt, Ba Đồn",17.7521759,106.4243468,Trung tâm thương mại
Trung Tâm Thương Mại Hiệp Hợp,"6QFV+GM9, Liên Thuỷ",17.2233011,106.79453,Trung tâm thương mại
Trung Tâm Dịch Vụ Bán Đấu Giá Tài Sản,"183 Hữu Nghị, Nam Sách",17.470691,106.6069565,Trung tâm thương mại
Công Ty TNHH Thương Mại Quốc Tế Trung Tín,"99 Trần Hưng Đạo, Phường Hải Thịnh",17.4696197,106.6147081,Trung tâm thương mại
CÔNG TY TNHH THƯƠNG MẠI DỊCH VỤ HẢI ANH SINH,"5/29 Đào Tấn, Đồng Phú",17.4809252,106.6021576,Trung tâm thương mại
Công Ty TNHH Thương Mại Ngọc Phương,Đồng Phú,17.4685853,106.589831,Trung tâm thương mại
Nhà Sách FAHASA Quảng Bình,"Lê Lợi, Khu đô thị Bắc",17.4618282,106.6182648,Trung tâm thương mại
Regal Legend Quảng Bình,"FJ4W+X8V, Võ Nguyên Giáp, Bảo Ninh",17.4574738,106.6457929,Trung tâm thương mại
"Cửa Hàng Trang Sức PNJ 404 Hùng Vương, Hoàn Lão, Quảng Bình","404 Đ. Hùng Vương, Trung Trạch",17.5791712,106.5366506,Trung tâm thương mại
Điện máy XANH,"22 Quang Trung, Đồng Hải",17.4612004,106.624678,Trung tâm thương mại
Jollibee Vincom Quảng Bình,"Quách Xuân Kỳ, Đồng Hải",17.4655177,106.6261959,Trung tâm thương mại
Square Coffee,"Mẹ Suốt, Đồng Hải",17.463365,106.6248102,Trung tâm thương mại
Sen Seoul Spa Massage Nail,"TDP Xuân Tiến, Phong NHA",17.61002,106.3115943,Trung tâm thương mại
Bệnh viện Đa khoa TTH Quảng Bình,"99 Điện Biên Phủ, Phú Hải",17.4466321,106.6278774,Trung tâm thương mại
Sen Spa Massage.,"03 Lê Lợi, Đồng Hải",17.4633523,106.6236171,Trung tâm thương mại
Khu vui chơi trẻ em TV Kidz - Tuấn Việt,"Tuan Viet Center, 01 Mẹ Suốt, Đồng Hải",17.4632039,106.6247664,Trung tâm thương mại
Viện Thẩm Mỹ Mega Korea Quảng Bình,"28 Trần Hưng Đạo, Đồng Hải",17.4701482,106.6199735,Trung tâm thương mại
Belluni Vincom Quảng Bình,Đồng Hải,17.4652908,106.6262289,Trung tâm thương mại
Ninomaxx Concept Vincom Đồng Hới,"Gian hàng L1-06, Tầng 1, TTTM Vincom Quảng Bình Khu nhà phố thương mại, đường, Quách Xuân Kỳ, Đồng Hải",17.4655675,106.626255,Trung tâm thương mại
Cỏ Mềm HomeLab,"160B Trần Hưng Đạo, p",17.4690564,106.6128999,Trung tâm thương mại
Quán Cà phê Coco's,"57 Nguyễn Hữu Cảnh, Phường Hải Thịnh",17.4660745,106.6176762,Trung tâm thương mại
CỬA HÀNG ĐẶC SẢN MIỀN TRUNG XỨ QUẢNG,"185 Trương Pháp, Bắc Lý",17.4931269,106.6258362,Trung tâm thương mại
Shop Good's,"110 Trần Hưng Đạo, Phường Hải Thịnh",17.4695788,106.6161068,Trung tâm thương mại
Hang Chau Shop,"475 Lý Thường Kiệt, Thành phố",17.4840662,106.6065613,Trung tâm thương mại
Công ty TNHH Thương Mại Dịch Vụ Gianh Thuý,"217 đường Trần Hưng Đạo, Nam Sách",17.4682779,106.6077262,Trung tâm thương mại
Trung Tâm Khuyến Công Và Xúc Tiến Thương Mại,"11, Quang Trung, Thành Phố Đồng Hới, Tỉnh Quảng Bình, Đồng Hải",17.4626445,106.624823,Trung tâm thương mại
Chợ Cổng Quảng Tiến,"R9CG+CR3, Văn Chung",17.8210599,106.377107,Trung tâm thương mại
Trung Tâm Đăng Kiểm Xe Cơ Giới 73-04D,thôn 2,17.5952739,106.5397299,Trung tâm thương mại
Trung tâm thương mại và văn phòng cho thuê Linh Thành Group,"FJ88+MC8, Phường Hải Thịnh",17.4666671,106.6160717,Trung tâm thương mại
Siêu thị mini Thiên Thần,"336 Nguyễn Chí Thanh, Ba Đồn",17.7303365,106.374362,Trung tâm thương mại
Hair SaLon Khánh Vân,"J868+8MG, Cù Lạc 1",17.6106944,106.3167961,Trung tâm thương mại
Trung tâm Khuyến công và xúc tiến thương mại - Sở Công thương Quảng Bình,"59 Trần Quang Khải, Phường Hải Thành",17.4781578,106.6175023,Trung tâm thương mại
