place_id,name,address,lat,lng,matched_keyword
ChIJv3TUR9dXRzERBR_s6BiQN9s,Bảo tàng Tỉnh Quảng Trị,"30 Quang Trung, Đồng Hải",17.4682515,106.6234651,Bảo tàng
ChIJFQbJdSCxQDER9NoR7-Y-Qgg,NGHĨA TRANG HỌ NGUYỄN QUANG,"5R55+Q4G, Văn Thủy",17.1594442,106.8078353,Bảo tàng
ChIJ9UtOA59XRzER3WECM4bYRzw,Tháp Chuông nhà thờ Tam Tòa (cũ),"FJGF+275, Đồng An",17.4750004,106.6232277,Bảo tàng
ChIJn4mleyqUODERSdNY2iMYq48,Miếu Bà - Đền Tam Thượng,"Q7Q2+2MW, Tiến Hoá",17.7876044,106.2516986,Bảo tàng
ChIJoSNXLUlXRzER_VdvrZKZMjQ,"Quán Trà - Cà phê ""théKafé""",TDP 8,17.4898363,106.5860117,Bảo tàng
ChIJm8gFyxC7ODERevyfY0p6tzY,Tượng đài Thanh Niên Xung Phong,"J858+7P7, Sơn Trạch",17.6081512,106.3167917,Bảo tàng
ChIJSc-_YMdXRzERYlhJSvc3rM8,Thành cổ Đồng Hới.,"FJ9F+4PP, Lê Duẩn, Đồng Hải",17.4678323,106.6243412,Bảo tàng
ChIJSzmX3x-ZODERCcRNDtg4j9M,Di tích lịch sử Nguyễn Hàm Ninh,"R998+FHV, Quảng Lưu",17.8187274,106.366426,Bảo tàng
ChIJdcRPneahODERUjRKX7I2Cog,Hải Đăng Cửa Gianh,"PF2R+FCC, Thanh Xuân",17.7011812,106.4910096,Bảo tàng
ChIJlSxPUnuXODERHwoIr0Wl6I8,Lăng Trần Gia,"Q8JG+WV6, Liên Trường",17.782276,106.32711,Bảo tàng
ChIJxaMcmYqsQDERyBtpI8tIWpw,Nhà Văn Hóa Thôn Kim Nại,"7MR2+VC7, Kim Nai",17.2922884,106.6510087,Bảo tàng
ChIJlYpkh51XRzER22o1SRIpMaE,Tượng đài liệt sỹ tỉnh quảng bình,"FJM9+QVM, Phan Huy Chú, Bắc Lý",17.4844595,106.6196714,Bảo tàng
ChIJo-TmYtymODERMoHS8PeDhow,Giếng làng cổ thế kỷ XVI,"JF5H+MJ2, xóm Sỏi",17.6091253,106.4790242,Bảo tàng
ChIJSYMLmK1ZPzER9u-X1Vhv_4I,Đèo Khu Đăng,"4F9R+3W9, QL15, Trường Sơn",17.11767,106.492371,Bảo tàng
ChIJ92JTSf1XRzER9haoZH5Gemc,Khu đất lăng mộ Họ Đinh Minh (chi 2 Đồng Hới),"Đường Cao Lỗ, Đồng Sơn",17.4400531,106.5703956,Bảo tàng
ChIJYe2sQLenODERC9l_cugFQHE,Dòng Tộc Họ Dương,"HGF4+4WC, Thôn dài",17.5728042,106.5072611,Bảo tàng
ChIJh7s1xEStQDERer71DE1Ovec,"Nhà Văn hóa thôn Đại Hữu, xã An Ninh, huyện Quảng Ninh, tỉnh Quảng Bình","8M54+QQ6, An Ninh",17.3094191,106.656978,Bảo tàng
ChIJ780qeJZXRzERmFdPXYoJD50,Tượng đài Fidel Castro,"FJF2+JG7, Unnamed Road",17.4740423,106.6012836,Bảo tàng
ChIJm7hSdji7ODER70XftDAtQ0M,Homtay a sáng,"J73X+JF6, Sơn Trạch",17.6040318,106.2986683,Bảo tàng
ChIJq6qq1ieyQDER93j77wvsBmQ,Vo Nguyen Giap Memorial House,"An Lạc, Lộc Thủy, Lệ Thủy",17.2443195,106.7500644,Bảo tàng
ChIJrQJlYACnODERhwJ9YZ5tZ8o,Bảo tàng mini Sơn Lịch Sử,"948W+9G, TT. Hoàn Lão",17.5758989,106.5305604,Bảo tàng
ChIJVW5RF1KVODERhoxW0wtGLOw,Nhà Văn Hóa Thôn Bắc Hoá,"Mỏ Sét Road,Thôn, Bắc Hóa",17.8162096,106.2106574,Bảo tàng
ChIJvS69RoC6ODERA2OiVUQyw8s,Vườn thực vật Phong Nha,"Việt Nam, ĐT20, Sơn Trạch",17.5522499,106.3014891,Bảo tàng
ChIJ-aIhfg5XRzER835-cmiQ38w,Tự Đường HOÀNG Tộc,"FHWR+Q8X, Lộc Ninh",17.4969373,106.5908847,Bảo tàng
ChIJAXPn_C2ZODERg8nDFEKDEpo,Bảo Nhi,"QC5C+R8P, Phan Bội Châu, Tân Xuân",17.7595854,106.4208368,Bảo tàng
ChIJGYEAYU1TRzERikcE9HQOVXE,Di Tích Lịch Sử Bến Phà Quán Hàu,"CJ2R+XW9, Tiểu khu 5",17.4024196,106.6423623,Bảo tàng
ChIJk8v2Sh66ODERIUmUQQ5spQI,Hang Tối,"Hồ Chí Minh Tây, Sơn Trạch",17.5741716,106.2542393,Bảo tàng
ChIJCfUnyrhVRzERAxGZJgWQ8Ls,Bia Di tích LS vụ thảm sát Chợ Gộ,"9JQG+2R6, Unnamed, Road",17.3874845,106.6270348,Bảo tàng
ChIJ1Qr0lk66ODERsFgeYSxKO10,Vườn quốc gia Phong Nha – Kẻ Bàng,"Quảng Bình, Việt Nam",17.477679,106.1340395,Bảo tàng
ChIJcRb141BXRzERbnKWtTroKaY,Thành Đồng Hới di tích lịch sử - kiến trúc nghệ thuật,"FJ8F+H8G, Quang Trung, Đồng Hải",17.4664449,106.6233126,Bảo tàng
ChIJwaiVCgBRRzERBhitL9l_1VU,BẢO TÀNG QUẢNG TRỊ,"380 Quang Trung, Phú Hồng",17.4411898,106.6329059,Bảo tàng
ChIJjRIZ0_xZRzERKIbDxaXGcfU,Sông Dinh,"GHXC+2WW, Unnamed, Road",17.5476192,106.5723436,Bảo tàng
ChIJ-z9YabSxODERqaqFotoFix0,Hang Chỉ Huy - Commander Cave,"ĐT20, Tân Trạch",17.5259463,106.2754873,Bảo tàng
ChIJd85xjeFXRzERGMaF7om7UAE,Tour Du Lịch Phong Nha Kẻ Bàng,"43 Đường Hai Bà Trưng, Phường Hải Thành",17.4779358,106.618445,Bảo tàng
ChIJB1WzlrxXRzERtiBPIrfHfsU,Quảng trường Hồ Chí Minh,Hải Đinh,17.4679906,106.6221448,Bảo tàng
ChIJTUB5NO9TRzERxlSrsWO_f6k,Bàu Rồng,"CJ8R+G9X, Lương Ninh",17.4163722,106.6409845,Bảo tàng
ChIJRevDy35XRzERbDx9gA78Yo8,Cơm Bao Cấp Quảng Bình,"38 Nguyễn Sơn, P",17.4623395,106.6098793,Bảo tàng
ChIJv1wfCBWVODERaxulPleHaxg,Trung Tâm Giải Trí Hê Cao - BILLIARD - COFFEE - Vui Chơi Trẻ Em,"QL12A, Chợ Cuồi",17.7991569,106.2348179,Chòi cao
ChIJx-0nZXChODERW0HQgh2cnR4,Bãi đá nhảy,"MG57+MXP, Bãi Đá Nhảy",17.6592008,106.5149533,Chòi cao
ChIJvTbkCGNXRzERGRGH5TKO5zc,KHU ĐÔ THỊ ĐỒNG CHOI,"CHQJ+R9C, Xóm dân cư Đồng Choi",17.4395702,106.5808931,Chòi cao
ChIJ0eIdNctXRzER6RhGRVoAbQg,"FHMC+3MC Đồng Hới, Quảng Bình","FHMC+CM, Đồng Phú",17.4836355,106.5717346,Chòi cao
ChIJM3iOlEunODERWm7FxtZatfk,"Cơ Sở KD Gà Chọi, Gà Đá - Nhật Cuối",xóm Dài,17.5716721,106.5075368,Chòi cao
ChIJpwDleI-9ODERek71NDSeFnY,Quảng Cáo Hoài Hương,"Ngã 3 Chợ Troóc, Thôn 3",17.6458604,106.2766846,Chòi cao
ChIJ7VZ-YkO3ODERN98kaD5bmzY,Động Thiên Đường Paradise Cave,"Km 16 Đường Hồ Chí Minh, Nhánh Tây",17.5194514,106.2232849,tháp cao
ChIJIQaXAqFXRzERPcnBcZ6B_Hs,Tháp Đồng hồ,"2 Nguyễn Du, Đồng Hải",17.4738322,106.6235952,tháp cao
ChIJrUTfGgm5ODERN7UBVr-dFpU,Dark Cave,Sơn Trạch,17.5741854,106.251424,tháp cao
ChIJT8PoU_ZXRzERrf7-d95Ou-M,Tượng đài Mẹ Suốt,"2 Quách Xuân Kỳ, Đồng Hải",17.4654471,106.6270884,tháp cao
ChIJWzGRkYFYRzERFCnAbHJfNMc,Chợ Hoàn Lão,"QL1A, Trung Trạch",17.5815446,106.5372251,tháp cao
ChIJJwskpVi3ODERrZhqIrlnFPk,Suối Nước Mooc,Phúc Trạch,17.5566597,106.2381149,tháp cao
ChIJI-LkoRfIODERrkzpzgMF7pI,Hang Sơn Đoòng,Tân Trạch,17.4647924,106.2873939,tháp cao
ChIJOWUA1sKpQDER0tAzSgCYJYg,Hang Chà Lòi,Ngân Thuỷ,17.1969393,106.5998512,tháp cao
ChIJ2QUxSzK7ODERhPwG2XJj93A,HaVa Valley - Thung Lũng Ngọc Bich,"Đường Hồ Chí Minh Đông, nhánh Tây",17.5755034,106.2535282,tháp cao
ChIJ5wshAPRWRzER38fyXrgQ0eg,Tháp Nước,"FH7Q+64J, Triệu Quang Phục, Bắc Nghĩa",17.4630973,106.5877676,tháp cao
ChIJEegDkBW3ODERbP1V7p8BXA0,Paradise Cave Restaurant,"Km 16 Đường Hồ Chí Minh Nhánh Tây,, Sơn Trạch",17.5300209,106.2279271,tháp cao
ChIJ36vIegC7ODER1BDZUo_ppzg,Động Phong Nha,"Vườn quốc gia, Phong Nha",17.5816795,106.283462,tháp cao
ChIJP0sDyY2gODERKQ6IzIzzlUY,Bãi biển Đá Nhảy Thanh Trạch,"MG67+8WP, Thanh Trạch",17.6608422,106.5148303,tháp cao
ChIJRbOfWMakODERuhDrCgnSasE,Phong Nha Ồ Ồ Lake,Khương Hà,17.6129215,106.3619702,tháp cao
ChIJcbOQRsmzODERNIR6_qBKZYE,Hang Én,"C7RR+FWR, 565, Tân Trạch",17.4412457,106.2922525,tháp cao
ChIJQTJ1TmypQDERYWq-rZknT7M,Khe Nước Lạnh,"6HJW+FRW, Rào Đá",17.2312375,106.5970892,tháp cao
ChIJ563hvTfHODERyZsV_SeBZKA,Đèo Đá Đẽo,"Cầu Chà Nòi, Hồ Chí Minh, Xuân Trạch",17.641891,106.11203,tháp cao
ChIJGwsfmjKxQDERShck3E0Yz4Q,Chùa Hoằng Phúc,"5RX6+7JM Chợ, Mỹ Thuỷ",17.1991911,106.8137866,tháp cao
ChIJK82Y3KulODERSqDLnvrhtwg,Khu du lịch sinh thái Ozo Park,"H9J5+27C, Thôn đông giang",17.52654,106.2770613,tháp cao
ChIJs8YPa9W7ODERlOtgJXbYvTM,Chày Lập Farmstay,Thôn Chày Lập,17.6034789,106.25479,tháp cao
ChIJo4JfxLSYODER8QUEOOEA09E,Cổng làng Quảng Thuận,"PCPQ+QMC, Lý Thường Kiệt, xóm Me",17.736943,106.439142,Cổng
ChIJQzxlGAZRRzERXY_WH-Zpglo,Cổng chào thành phố Đồng Hới,"CJPM+7QV, Quang Trung, Lương Ninh",17.4357353,106.6344183,Cổng
ChIJiUw_-6OZODERSFFNddBbMcw,Cổng làng Xuân Kiều,"QCJP+6JR, Thôn xuân kiều",17.7813377,106.4371119,Cổng
ChIJUVplNp1XRzERX3axPgDCTC8,Cổng Đông - Thành cổ Đồng Hới,"FJ9F+3PX, Hải Đình",17.4677449,106.6243456,Cổng
ChIJjxdd2peZODEROEkuePWbu6I,Chợ Cổng Quảng Lưu,Tam Đa,17.7968152,106.379755,Cổng
ChIJ_S7-GACXODERiW_1x4E6cIw,Cổng Làng Thôn Biểu Lệ,"P8VR+HMG, Biểu Lệ",17.7439291,106.3417064,Cổng
ChIJv9uELgClODERbcOmRlcxdAo,Di tích 2 cột cổng làm Cự Nẫm,"Bố Trạch, Cự Nẫm",17.630533,106.3819345,Cổng
ChIJs8IsOgCxQDERD4e-OQk28JA,Cổng Chào Làng Lộc Thượng,"6QGG+3M5, Nguyễn Thị Minh Khai, An Thuỷ",17.2251294,106.7767193,Cổng
ChIJs82UEwBTRzERS30FaYXCM64,Cổng làng Hiển Vinh,Hiển Vinh,17.3585302,106.6742443,Cổng
ChIJ-2Zvc0mtQDERkL-Ku5jYreU,Cổng làng Hoành Vinh,"8M69+54H, Hoành Phố",17.3104556,106.6678727,Cổng
ChIJe_sXKACZODERZPFKDXDx6jw,Cổng chào Thị Xã Ba Đồn,"QC54+6P3, Quảng Phong",17.7580191,106.4068067,Cổng
ChIJjZNB-8KZODERlXR6n1O4HvM,Cổng Chiến Khu Trung Thuần,"Q9WJ+72F, Quảng Phong",17.7956841,106.3800393,Cổng
ChIJhyC94JNXRzERAeKvYJj3ia4,Cửa Cổng Đẹp Đồng Hới - Hoàng Vũ,"145 Lý Thường Kiệt, Phường Hải Thành",17.4812665,106.617778,Cổng
ChIJiStEwF5XRzERe5x6cASMHFc,CỔNG TỰ ĐỘNG QUẢNG BÌNH,Lộc Ninh,17.5082976,106.5860026,Cổng
ChIJRRdzV7yZODERssPVcfpxjVw,Cổng thôn Tân Hóa,Tân Tiến,17.7501022,106.3619052,Cổng
ChIJYVkoTgCpQDERyJof9A4YH6E,Cổng Làng bản Còi Đá,"6JQ2+FX4, Rào Đá",17.2386471,106.6024685,Cổng
ChIJSXU2Zt2nODERsLWsMcwe8xY,Cổng chào Thôn Dinh Lễ,"JFC9+32P, xóm Lệ",17.6212639,106.4662374,Cổng
ChIJVd00k8-XODERgClxvEHw8OM,Cổng làng Thượng Thọ,"Q7MR+963, Thôn Thượng Thọ, Cảnh Hoá",17.7833887,106.2905621,Cổng
ChIJjWJRFwCxQDER0HQgvnNa6QM,Cổng chào Làng Đại Phong,"6QGG+MH2, Phong Thuỷ",17.2266473,106.7763812,Cổng
ChIJD2C3AjpXRzERh3kXjT_YDoA,Quảng Bình Quan,"Quảng Bình Quan, Quang Trung, Hải Đình",17.4632849,106.6240187,Cổng
ChIJbWhtPyeaODERW-HQDpdEKcU,Chợ Cổng Quảng Tiến,"R9CG+CR3, Văn Chung",17.8210599,106.377107,Cổng
ChIJs62Xwm1XRzER-2rAQRUkJrg,Cổng chào thành phố Đồng Hới,"GH8J+448, Lộc Ninh",17.5152793,106.5803399,Cổng
ChIJ99McpylXRzER04SISs-uUZ8,Cổng sau - Chợ Ga Đồng Hới,"FJ83+Q6Q, Nam Lý",17.4669508,106.6031159,Cổng
ChIJWQyVFHFXRzEROy961qMNZMw,Lắt đặt cửa cổng tự động Roger Italia,"182 Lý Thường Kiệt, Phường Hải Thành",17.4815832,106.6151593,Cổng
ChIJiRm-PWhXRzERSlewse7GJ34,May 10 Quảng Bình,"FHQJ+VHX, Lộc Ninh",17.4897381,106.5814713,Cổng
ChIJ9YJWjSmzQDER5U8XaMl9Hdk,Cổng chính FLC Quảng Bình,"8PCH+XMP, QL1A, Hồng Thuỷ",17.3224613,106.7292176,Cổng
ChIJZ1mKMQCxQDERMAxp_thLDwo,Cổng làng Phú Xuân,"5QG3+2C5, ĐT16, Phú Thuỷ",17.175003,106.7536133,Cổng
ChIJ8bSBHdeZODERAT74udkm57c,"QB SMART - Lắp đặt Nhà Thông Minh, Cổng Tự Động tại Quảng Bình","269 Trần Hưng Đạo, Quảng Thọ",17.7538477,106.4426566,Cổng
ChIJdQ2zFOejODERyQZXPvxN4hI,Cổng Làng Thọ Hạ,"P985+VVC, Quảng Sơn",17.7171802,106.3596372,Cổng
ChIJm_TrTiaZODERFCPEg-3QDbU,Cổng chào Tân Lộc,"P9X7+HJ8, Tân Tiến",17.7489169,106.3640724,Cổng
ChIJX1cxGnhZRzERQiV6CLoE84Q,Cửa hàng Quang Cảnh,"HGJP+HRX, Cổng chợ",17.5815035,106.5371738,Cổng
ChIJSU9bBhVTRzERUpFl4LMlOfc,8X Billiards Club,"Cổng làng thôn, Trúc Ly",17.3878449,106.6513013,Cổng
ChIJtwLY0jpXRzER657ljUeIdfA,Lắp đặt cổng cửa tự động Roger #1 Italy,"37 Dương Văn An, Đồng Hải",17.4757546,106.6220075,Cổng
ChIJT30F05eZODERU6t4LISDbbI,Cửa hàng tạp hoá Hồng Long,"Q9WH+HJP, chợ cổng",17.7964571,106.379064,Cổng
ChIJ-RczDACfODERIs0WKj_y9bc,Cổng Chào Thanh Bình,"RC4R+X6Q, Quảng Xuân",17.8074529,106.4406204,Cổng
ChIJE74mfwBXRzERwWt334jF-xU,Cổng trường cấp 2 Bắc Nghĩa,"44 Đ. Nguyễn Trọng Nhân, Phương Xuân",17.4440717,106.5965201,Cổng
ChIJH1d9f7ShODERjsJA99Bk-Ps,Quán Cổng Làng,"Thôn, Thanh Xuân",17.698219,106.489216,Cổng
ChIJ0_t2Gk5XRzEROYLN1OD5d3M,Cổng tự động Roger Quảng Bình - Nhà thông minh Homegy Quảng Bình,"455A Lý Thường Kiệt, Đồng Phú",17.4838425,106.6073165,Cổng
ChIJXQtKqsSxQDERbe0P85VMFhQ,Cổng chào xóm Sơn Khoa,"5RR6+WC, Mỹ Thuỷ",17.1922658,106.8111121,Cổng
ChIJ65oEIwCtQDERwTkehW6i_ws,Cổng làng thôn đồn,"7MGM+CQ2, Thôn Đồn",17.276015,106.6843917,Cổng
ChIJ12pDMa-ZODERyDbF-nSPvcc,Phòng Khám Nhi đồng - BS Dũng,Cổng Tây chợ,17.7517333,106.4212277,Cổng
ChIJFwmpanFXRzERTHehnHKwd6s,Phòng vé máy bay Sơn Đoòng,"GH6Q+3QP Cổng sân bay, 16-6 Võ Xuân Cẩn, Lộc Ninh",17.5102104,106.5894319,Cổng
ChIJlVH-d5qxQDERKM4GQ2M_hsw,Trung Tâm Kính Mắt Đồng Hồ Quang Doan,18 Lý Thường Kiệt Đối diện ngay cổng Bệnh Viện,17.2204348,106.7862589,Cổng
ChIJ74nNtuiYODERNMQ0RWDlP1M,Nhà Nghỉ Đồng Quê,"QC56+6M2, P. Quảng Phong, thị xã, Quảng Phong",17.7580164,106.4116468,Cổng
ChIJKZc3EABTRzER4Gl4cCffamc,Mỹ Châu Nails-Tóc,"Cổng làng, Trần Xá",17.3555368,106.6381045,Cổng
ChIJAUhxmetZRzERqjgRYmiSPmg,Quầy thuốc Minh Anh,Trung Trạch,17.581928,106.5370919,Cổng
ChIJvcV8UgBXRzERx1PynaYEHfg,BIA HOI GÔN CỔNG CHÀO,"655 Lý Thánh Tông, Lộc Ninh",17.5150161,106.5809317,Cổng
ChIJNVjtvcKjODERseoc99scaJM,Cổng làng văn hoá Cao cựu,"P9H9+7WC, Cao Cựu",17.7281834,106.3697546,Cổng
ChIJnVx9An1XRzERwpjUYg-yDo0,"Làm cửa sắt, cổng sắt mái tôn v.v","15 Huỳnh Thúc Kháng, Nam Sách",17.4658631,106.6036216,Cổng
ChIJ-eDsavKxQDERBB6vHBJx98k,Điểm bán sim Viettel Thanh Bình,"5QMV+Q4F, Cổng chào, Mai Thượng",17.1844737,106.7927929,Cổng
ChIJL2adlC1RRzER58Rcqb46Kt0,Lăng Thờ Cá Ông,"FJ8M+CFM, Trung Bính",17.466116,106.633658,Cổng
ChIJOUgweACZODERinJ_ap4sCrQ,Cổng chào Thôn Thu Trường,"Q995+J9G, Liên Trường",17.7688616,106.3585698,Cổng
ChIJjYv7VI-ZODERpgNSl7jFW8M,Hoa tươi Ba Đồn - Bb flower,"Cổng Đông chợ Ba Đồn, Khu phố 1, Phường",17.7555407,106.4199755,Cổng
ChIJhZRcVACrQDERP5P5Ghchj7g,Cổng sau trại Buntaphan,"7JQ2+4G7, Trường Xuân",17.2877955,106.6013013,Cổng
ChIJl9OEEkqZODERKGJtRwZeYzM,Cửa hàng Lý Động,"Cổng phía Tây chợ, Ba Đồn",17.7519006,106.4212603,Cổng
ChIJFV4V2-GZODERX1WkADPhS_A,Phòng khám Đông y Đặng Lệ Hằng,Cổng phía Tây chợ,17.7555086,106.4199727,Cổng
ChIJ68c-VSCxQDERgTo6QELibPc,Nội Thất Quang Trung,"Cổng chào thôn, Mai Thượng",17.1844856,106.7923166,Cổng
ChIJCfWX_ZSxODERGyzsnsUh_bk,Bia tưởng niệm Di tích lịch sử Quốc gia đường Hồ Chí Minh,"Cầu Trạ Ang, Hồ Chí Minh Tây, Tân Trạch",17.5191112,106.2722858,Công trình di tích
ChIJXWHMOwy7ODERzcaSQqheUKY,Di Tích Lịch Sử Bến Phà Xuân Sơn,"J874+JVF, Sơn Trạch",17.6140628,106.3071871,Công trình di tích
ChIJbXwXyf6hODER9gfUzVZHw9Y,Tượng đài chiến thắng sông Gianh,"AH1, Ba Đồn",17.7166587,106.4448272,Công trình di tích
ChIJnyZ0-dBZRzER93KoIS4S3Jo,Đồi Cát Nhân Trạch,Nhân Trạch,17.5316495,106.5944609,Công trình di tích
ChIJleNZAwC7ODERZdnTwb4OegU,Tien Son Cave,"H7HH+V9, Phong Nha",17.5796353,106.2784573,Công trình di tích
ChIJUT2iIqK_ODERzBMyOc7u3TY,Lèn Chùa Ecostay,Xuân Trạch,17.6539053,106.2597253,Công trình di tích
ChIJuXn-1SeyQDERkbMFdtQFklQ,Di tích lịch sử cấp quốc gia Chùa An Xá,"6PWW+FX7, Thôn An Xá",17.2461046,106.7474024,Công trình di tích
ChIJsRNTM6OgODERrBWJEwPqQv4,Đình làng Lý Hòa,"JGVF+538, Thượng Hòa, Ngoại Hòa",17.642911,106.522691,Công trình di tích
ChIJhZmesKu7ODERqHtG-SB5YMs,Oxalis Adventure,Phong NHA,17.6005844,106.2950967,Công trình di tích
ChIJk89RUQBXRzERid-U2ojUAU8,Đồi cát Quang Phú,"567 Trương Pháp, Quang Phú",17.5313984,106.5946224,Công trình di tích
ChIJPVdGwLFXRzERk3miTJ7VIww,Mộc Nam Adventure,"57 Trần Nguyên Hãn, Phường Hải Thành",17.4780305,106.6177329,Công trình di tích
ChIJR2z-Y8JWRzERCNxzeSpWyE4,Thánh Đường Giáo Xứ Tam Toà,"Đường Phạm Văn Đồng, Nam Sách",17.4642611,106.607047,Công trình di tích
ChIJz-thEgdXRzERDSydOIqKMpw,Khu Công Nghiệp Tây Bắc Đồng Hới,"FHPG+4VF, Đồng Phú",17.4853125,106.5771719,Công trình di tích
ChIJAVAWMimxODER7xVyWFXNLho,Hang 8 Cô,"G736+238, ĐT20, Tân Trạch",17.5025478,106.2601889,Công trình di tích
ChIJv2EfNQm7ODERiey012zeE68,Xuan Son Boat Station,"J874+3FG, ĐT20, Sơn Trạch",17.6126824,106.3062,Công trình di tích
ChIJlQbipJ1XRzERypKqfjMX_Cs,Thảo Kính Store Quảng Bình,"10 Trần Hưng Đạo, phường Đồng Phú, thành phố",17.470609,106.6212599,Công trình di tích
ChIJty7R9DBXRzERZdVhravGOV0,TOUR DU LỊCH QUẢNG BÌNH,"41 Đường Hai Bà Trưng, Phường Hải Thành",17.4779964,106.6184464,Công trình di tích
ChIJwQIR_G-5ODER3cbUBO3hAkg,Blue Diamond Retreat,Xuân Trạch,17.6396179,106.2181411,Công trình di tích
ChIJO83QE47rODEReNLmi4FZZMU,Tú Làn Cave,"Q3CP+HM9, Minh Hoá",17.7714072,106.086739,Công trình di tích
ChIJ1WGKYtdWRzERb2PqobNKSyI,Sở lao động - thương binh và xã hội tỉnh Quảng Bình,"80-84 Đường Hai Bà Trưng, Phường Hải Thịnh",17.4745209,106.6174989,Công trình di tích
ChIJA4VVszSzQDERrtxmlLtsk_M,Nhà Lưu Niệm Đại Tướng Võ Nguyên Giáp,Lệ thủy,17.2437509,106.7498691,Công trình di tích
ChIJoXjBvFK6ODERkWQy-34_fHU,Jungle Boss Trekking Tours,"Thôn, Cù Lạc 1",17.6157282,106.3239998,Công trình di tích
ChIJYa-t9L1XRzER7udE9pkfo_U,Khu vui chơi trẻ em TV Kidz - Tuấn Việt,"Tuan Viet Center, 01 Mẹ Suốt, Đồng Hải",17.4632039,106.6247664,Công trình vui chơi
ChIJCd-1MMdXRzER49iAd_kB2Xw,Công viên Trẻ Em,"FJGF+68M, Đồng Hải",17.4754926,106.6235888,Công trình vui chơi
ChIJ5V9LDQCxQDERqJQJUxSQ5fw,Khu vui chơi CaLa,"6QFW+XQW, Tổ dân phố",17.2249808,106.7969621,Công trình vui chơi
ChIJgfkqjZlXRzERVznkYbr_CTQ,Trung tâm giáo trí Funny Kids - Vincom Quảng Bình,"Tầng 3, Vincom Plaza Quảng Bình Hải Đình, Đồng Hới",17.4654044,106.6266491,Công trình vui chơi
ChIJg6zTUABZRzERGN_t6LmCYDM,Zipy zone khu vui chơi nhân trạch,"GHRP+QQ4, Nhân Trạch",17.5417748,106.5865294,Công trình vui chơi
ChIJ_6wec8W7ODERN0aAUuEEbFI,Khu Vui Chơi Giải Trí Thiếu Nhi,"J868+9QG, Sơn Trạch",17.6109258,106.3169643,Công trình vui chơi
ChIJA0gnMwBRRzER_0y_pABtHaA,Khu vui chơi linny,"Legend 12, Bảo Ninh",17.4556389,106.6440038,Công trình vui chơi
ChIJZczLamGvQDERRwNjw2rhoQ0,"Bể bơi, Sân bóng, Khu vui chơi giải trí Sơn Lệ","6MQR+67J, Sơn Thuỷ",17.2380847,106.690628,Công trình vui chơi
ChIJK0-AUTVRPzER6u0TSpjrWtY,Khu vui chơi điu đo,"696M+4Q5, Trường Sơn",17.210255,106.3844716,Công trình vui chơi
ChIJAwvwodm7ODERKc1h4YFpGz4,Khu Vui Chơi giải trí Suối Đá,thôn 3,17.6419813,106.2695947,Công trình vui chơi
ChIJbyocUACZODEReC8kfugCXvo,Khu vui chơi trẻ em Nemo Kid,"60a Hùng Vương, Ba Đồn",17.7534261,106.4252763,Công trình vui chơi
ChIJzw-0wstWRzERFgQBxKR6PqE,Everland Quảng Bình,"01 Nguyễn Văn Trỗi, Hải Đình",17.4582097,106.6227158,Công trình vui chơi
ChIJnaRhtZRXRzERkC3BLsBsEx8,Bãi Tắm Trung Tâm Nhật Lệ,"FJVG+3W6 Biển Nhật Lệ, Trương Pháp, Bắc Lý",17.4926639,106.6272655,Công trình vui chơi
ChIJZTIJBuZXRzERkBzGJx447Ds,Khu vui chơi trẻ em HAPPY GAME,"FJ69+M5X, Phường Hải Thịnh",17.4617725,106.6179477,Công trình vui chơi
ChIJe26-ejWXODERNkgu0wfqxoc,Khu Vui Chơi Giải Trí Lèn Trúc,"R787+XGW, Tiến Hoá",17.8174903,106.2638265,Công trình vui chơi
ChIJaxgfM0xRRzERWMe_OZh84tY,Trò chơi xe điện QB Lệ Ri,"Quảng trường biển, Bảo Ninh",17.4744805,106.6354846,Công trình vui chơi
ChIJAxcpqDVXRzERxnNq69BOWms,Nhat Le Park,Đồng Hải,17.476619,106.6238758,Công trình vui chơi
ChIJk4kDFsOkODERXH2cun80_3g,The Duck Stop,"Thôn Khương Hà 3, Hưng Trạch",17.6044369,106.3656824,Công trình vui chơi
ChIJefVxZQBTRzERfWI_4OAgt-0,Cánh đồng điện gió Quảng Bình,"8PR5+GMX, Gia Ninh",17.3413521,106.7092358,Công trình vui chơi
ChIJD-gVSuRRRzER0FvASZwl48o,Regal Legend Quảng Bình,"FJ4W+X8V, Võ Nguyên Giáp, Bảo Ninh",17.4574738,106.6457929,Công trình vui chơi
ChIJMTKYFKtXRzERQnH7lXunF7I,Trung tâm tiêm chủng VNVC Đồng Hới,"Trung tâm mua sắm Hiếu Hằng, 58A Nguyễn Hữu Cảnh, Đồng Hải",17.463525,106.6200194,Công trình vui chơi
ChIJfQOWtl9XRzER7WGN17ZmlfY,Làng Đưng (Dung Village),Hồ Bàu Đưng,17.4636943,106.5693234,Công trình vui chơi
ChIJ72GaAABRRzERZpWAU2IKxZU,Phố đi bộ Regal Lake Walk,"FJ4W+62W, Bảo Ninh",17.4556117,106.645083,Công trình vui chơi
ChIJg6MHNBm1ODERW1kFMAaWkO8,Hố sụt Kong,"C5WJ+5M3, Tân Trạch",17.4453856,106.1816595,Công trình vui chơi
ChIJE4P1wVdWRzERtV6H5rO7-a4,Trạm Cân điện tử 180 tấn Huyền Anh,"Đường tránh Tp Đồng Hới, Đồng Phú",17.470786,106.581073,Công trình vui chơi
ChIJ5TgSX8ClODER7TCtDe-UA7A,Đồi Mây Đắng - Gà Nướng,"Đồi Mây Đắng, Cự Nẫm",17.6107419,106.4087839,Công trình vui chơi
ChIJYxz7at-xQDERusLaxg3DBNY,Khu dự trữ thiên nhiên Động Châu - Khe Nước Trong,Kim Thuỷ,17.1513785,106.7503571,Công trình vui chơi
ChIJN-dttexXRzERZ-6tiRXufRc,THUÊ XE DU LỊCH QUẢNG BÌNH-XE ĐẸP-GIÁ TỐT,"Vườn hoa Nhật Nguyệt, Tạ Quang Bửu, Nam Lý",17.4629019,106.5952033,Công trình vui chơi
ChIJR5VKj8JXRzER5HCfPiqLs-o,Trung Nguyên Legend Café Vincom Quảng Bình,"FJ8G+3GH, Quách Xuân Kỳ, Đồng Hải",17.465189,106.6263639,Công trình vui chơi
ChIJpWjll8SYODERrsA8mHQtOfA,RIO CINEMAS BA ĐỒN,"353 Quang Trung, Ba Đồn",17.7565722,106.4224006,Công trình vui chơi
ChIJy0vdR6lXRzER2nPSvBWUTxM,AQ Luxury Billiards Club,"6 Văn Cao, Đồng Hải",17.4616035,106.6194941,giải trí
ChIJh04LCS2jODERJIEKzu9pXbA,Làng Sen,"Thôn, Sen Nẫm",17.6396909,106.4036792,giải trí
ChIJX81-YABXRzERCs0uDrgYieM,HIỀN KENT Billiards Club,"10 Lý Nam Đế, Phường Hải Thành",17.4787611,106.6160531,giải trí
ChIJcZruWV9WRzER0ycX9jrBzys,Hồ Công Viên Đồng Sơn,"CHWP+W89, Đồng Sơn",17.4472838,106.5858662,giải trí
ChIJbzsCfgBXRzERn7rADG4shXA,BIDA GON 68 BILLIARDS,"12 Tạ Quang Bửu, Nam Lý",17.4640773,106.5969013,giải trí
ChIJX-HDUziVODERdcL5icKIG3s,Trung Tâm Giải Trí & Coffee Lèn Trúc,Lèn Trúc,17.8012271,106.2275966,giải trí
ChIJZawpPNlXRzERKziy0E1FUBc,196 Pool Arena,"131 Lý Nam Đế, Phường Hải Thịnh",17.4709651,106.6154907,giải trí
ChIJLbWTZQBXRzERU-cGHXyM-bY,Hồ câu giải trí Tứ Hùng,Đồng Phú,17.4745409,106.5861502,giải trí
ChIJXx9qjLxXRzEREsWuID9bIws,MATERA BILLIARDS,"FJG6+VJM, Trần Quang Khải, Phường Hải Thành",17.4777936,106.6118284,giải trí
ChIJkaNrlQmlODERa4o0MZg4jsE,Thung Dó Recreation Center,"J98F+5F7, Hưng Trạch",17.6154113,106.3736753,giải trí
ChIJM_7OqVZXRzERbafGOTmuMgA,KARAOKE GIA BẢO 1,"251 Hà Huy Tập, Bắc Nghĩa",17.4521483,106.5867068,giải trí
ChIJ1cVm7EJRRzERWktvWEEUDxM,TOP HITS NIGHTCLUB ĐỒNG HỚI,"06 Võ Hồng Anh, Bảo Ninh",17.4542252,106.6451197,giải trí
ChIJdaeyuHGhODERcYzueJRLE68,Hồ câu giải trí cường alo,"MFMH+22, Thanh Trạch",17.6825191,106.4775375,giải trí
ChIJeYZMo4uhODERC3bKQAG_qpk,Hồ câu cá giải trí Thuỷ Tiên,"MFPJ+8P4, Quyết Thắng",17.6857703,106.481814,giải trí
ChIJccx44shXRzERtG_GXr8dUHI,Billiards 39 Club,"39 Xuân Bồ, Khu 525",17.4699434,106.6053001,giải trí
ChIJu7DpothRPzERssB1WXZxaGM,Suối Chà Cùng,"696M+4Q5, Trường Sơn",17.2103735,106.3839807,giải trí
ChIJ-f9JRi5TRzERC7wxMGXuVMI,Bida caffe 88,"Xóm 1 Thôn hà thiệp, Võ Ninh",17.4033342,106.6530319,giải trí
ChIJCRWAfCpXRzER-ltsEPu1CpE,Hồ Câu Giải Trí Khôi Minh,"Đường Hà Huy Giáp, Đồng Phú",17.4751703,106.5840092,giải trí
ChIJZ8ScLwBXRzERPPy3UsYNg2A,Happy Games,"FJ69+PC4, Phường Hải Thịnh",17.4616245,106.6183892,giải trí
ChIJ9eCnq2dXRzERi1xlLEa7s78,Tẩm Quất massage người mù Hoàn Phương,"Đ. Tô Ngọc Vân, Đồng Phú",17.4655224,106.5886948,giải trí
ChIJqQq-VxhTRzERrH_kCJ3Bogw,T&T BILLIARD CLUB,"Đối diện nhà văn hoá TDP Văn Hùng, TT. Quán Hàu",17.407503,106.6403301,giải trí
ChIJrex9NVmzQDERMg5Op54k1I8,Bida Hưng Hằng,"AH1, Hồng Thuỷ",17.2868803,106.7555438,giải trí
ChIJE67ZeACVODERyOoRZcNj69E,Trung Tâm Giải Trí HÊ LIỄU - BILLIARS - COFFEE - Vui chơi trẻ em,"Q6XM+MV7, QL12A, Tiến Hoá",17.7991579,106.2347672,giải trí
ChIJqYPs7oe9ODER2BB5cElAm-c,Karaoke Lợi Thao,"Sân Vận Động, Thôn Ba",17.6477764,106.274659,giải trí
ChIJkfhoVdVXRzERnFgygSvwl1w,Bo Trach Quang Binh,"FGMM+XX6, QL16, TT. NT Việt Trung",17.4849057,106.5348935,giải trí
ChIJp22VLTChODERVd2fp21_9Yw,KARAOKE MYNA,"Đồng Láng, Hải Trạch",17.6431469,106.5189677,giải trí
ChIJ76oLJwCtQDERYkcCdeZ-k3Y,Quán bida 22 Billiards Club,Gia Ninh,17.321768,106.713937,giải trí
ChIJlfN97j-xQDERp_sIvAR-jRk,Bida Minh Hùng,"43 Quang Trung, TT. Kiến Giang",17.2259592,106.7869624,giải trí
ChIJX73U_shVRzER58avqx2SHYM,Billiards club Hoàng Long,"4B Chợ Gộ, Quảng Ninh, Quảng Trị",17.3850532,106.6147343,giải trí
ChIJtVdrBpZXRzER7uhqMqROK9k,Karaoke Gia Bảo 2,"171 Lý Thái Tổ, Đồng Sơn",17.4445821,106.5881148,giải trí
ChIJ_eNEbbJXRzER4etuV4FvjiM,33win studio,"77 Đặng Thái Thân, Đồng Phú",17.4747838,106.5954925,giải trí
ChIJRYjTbBNTRzER7VzxG0mjNG4,Karaoke Thỏ Ngọc,"27 Lê Duẩn, TT. Quán Hàu",17.4041394,106.6382479,giải trí
ChIJKauLcxmZODERKcJqCYsWASs,Hồ câu lure quảng xuân,"QL1A, Quảng Xuân",17.7887314,106.4316647,giải trí
ChIJe_75cwBXRzEREnQJN0krbM4,196 Billiards Club - Cơ Sở 2,"215 Hà Huy Tập, Bắc Nghĩa",17.4552048,106.5864275,giải trí
ChIJufxwYe9WRzERFSVRNx8kPPE,Karaoke Vang Vang,"33 Hoàng Diệu, Nam Lý",17.4676716,106.5977168,giải trí
ChIJJfqFJgBTRzERgTsTNhr7haw,KARAOKE Thảo Trâm,"31 Lê Duẩn, TT. Quán Hàu",17.4046408,106.6379482,giải trí
ChIJC4PFDwCXODER6X5LpeJu_5Y,Bida O Thú,"Q7QQ+G3R, QL12A, Cảnh Hoá",17.788859,106.28768,giải trí
ChIJ2_hJLQBRRzEROrxsM8zoUQM,RIO Billiards,"275 Quang Trung, Phú Hồng",17.4419263,106.6334081,giải trí
ChIJS7CaFsipODER1K7cypD3oQQ,Karaoke Anh & Em,"FGG6+HWQ, Đường Không Tên, TT. NT Việt Trung",17.4764612,106.5123718,giải trí
ChIJH_Klw5NXRzERQEYC1oG4a-Y,jobet store,"98 Lý Thái Tổ, Bắc Nghĩa",17.4428114,106.5957645,giải trí
ChIJcWGiFADrODERgSiW8kzuKV0,Quán BiDa Nghị Nguyễn,Cồn Cam,17.8186853,106.1261678,giải trí
ChIJKZdvbaJXRzERgkabbQwkTgU,jobet so,"126 Lý Thường Kiệt, Phường Hải Thành",17.480991,106.6173355,giải trí
ChIJBfWkno5ZRzERhEnZ6JAO7Ws,TM Billiards,"GHVG+5GX, Thôn 1",17.544089,106.5756189,giải trí
ChIJV27Vp0OpODERV7aBjSj_ho4,Hồ Câu Ông Thí,"Thôn, Quyết Thắng",17.4884391,106.526034,giải trí
ChIJw0kgtyuZODERBAVfZjt-SOE,Phong Thuận Billards club,Quảng Hải,17.7501156,106.3891915,giải trí
ChIJbayneti9ODERMC8cj_xxKjM,Nhà nghĩa bình,Thôn 1,17.6486742,106.2715023,giải trí
ChIJ-5xnfvZXRzERyQLdbiNGzi8,Karaoke Cây Dừa,"12 Phan Đăng Lưu, Đồng Sơn",17.4448401,106.5795427,giải trí
ChIJt_0TFi6ZODERweyXG2AutjE,Karaoke xuyên ngày đêm,TDP3- Quảng Phong,17.7555227,106.3996611,giải trí
ChIJofjrtSZXRzERoQv1ccm1nuY,Trung Tâm Giải Trí Karaoke 336,"336, Lý Thường Kiệt, TP Đồng Hới, Tỉnh Quảng Bình",17.482615,106.6117449,giải trí
ChIJD8xYj9JWRzERVmm-cG_bpP8,Công Viên Đồng Hải,"2 Quách Xuân Kỳ, Đồng Hải",17.4659535,106.6268278,Công viên
ChIJZ1YIAtZWRzERpbho2GUOUyc,Vườn Hoa Lê Quý Đôn,"35 Nguyễn Đức Cảnh, Đồng Hải",17.4772947,106.6228117,Công viên
ChIJaXY_79xWRzERCv9ZmnR4nOE,Công Viên Cá Heo TNN,"FJ95+GPW, Nam Sách",17.4688688,106.6093332,Công viên
ChIJJRU9v32nODERW-l-vp67Ttc,Công Viên Thị Trấn Hoàn Lão,"30 Quách Xuân Kỳ, TT. Hoàn Lão",17.5839555,106.5330827,Công viên
ChIJf78TL91XRzER5aRIeZcCI_8,Công Viên Thôn Đức Hoa,"CJQ5+JR7, Đức Phong",17.439033,106.6095539,Công viên
ChIJN_tpah1XRzER1lwdBDqbZmU,Công Viên Cầu Rào,"FJ85+H6H, Duy Tân, Phường Hải Thịnh",17.4664366,106.6081095,Công viên
ChIJ42n6YFRXRzERoJQePzHpduI,Công Viên Thôn Đức Thủy,"CJR7+8P7, Thôn Đức Thủy",17.4397782,106.614641,Công viên
ChIJAQAAJdRWRzERDeTzp6Mcfa0,Công viên TP.Đồng Hới,"FJFF+9GM, Đồng Hải",17.4734628,106.6237885,Công viên
ChIJcyFDRumZODERIOkSB02adPc,Công viên Bờ Kè Quảng Phong,"QC38+5CF, Ba Đồn",17.7529359,106.4160451,Công viên
ChIJmdVUHYlXRzERoFAxmCGvc3g,Công viên Bắc Trần Quang Khải,"FJH6+6MV, Trần Quang Khải, Phường Hải Thành",17.4784405,106.611415,Công viên
ChIJw_Hldm9VRzERPRni4FWHGCI,Nhà văn hoá thôn Vĩnh Tuy 1,"9JR9+9M8, Vĩnh Tuy",17.3909224,106.6192065,Công viên
ChIJ2_n8ad2xQDERZJ5xr5Dm5Po,Công viên Kiến Giang,"6QFV+VW7, TT. Kiến Giang",17.2246721,106.7948024,Công viên
ChIJL2ackDCZODERNbW2jZ9RPmE,Công viên Ba Đồn,"QC2C+W2H, Lê Quý Đôn, Ba Đồn",17.7523198,106.4201077,Công viên
ChIJ18MTDjixQDEROWHftmSd_lM,Công viên xã Mai Thủy,"5QRP+X5F, Chợ Động",17.1924394,106.7854172,Công viên
ChIJvaZe_0GxQDERmsOl1YHSm-A,AN LẠC VIÊN ĐẶNG VĂN TỘC,Văn Thủy,17.162339,106.807454,Công viên
ChIJZd-Q5-JXRzERWlU2uTdJC_k,Công viên Bắc Lê Lợi,"FJ69+5X6, Đồng Hải",17.4604154,106.6198935,Công viên
ChIJWUJtj7ygODERDfu4L8cC4to,Công Viên Lý Hòa,"JGRC+J6Q, Nội Hải",17.641597,106.5206111,Công viên
ChIJ950ZlkRXRzERyy9uwviyHCA,Công viên Cây Bồ Đề (Mini Park),"38 Ngô Quyền, Phường Hải Thịnh",17.4746615,106.6187233,Công viên
ChIJD72cOm5XRzEREDcwt46bFvA,Bãi tắm Tân Phú,"381 Trương Pháp, Quang Phú",17.5113865,106.614464,Công viên
ChIJlU71SvFXRzEROllBrt90vl4,Khu đô thị Tân Phú Quang Phú,"405 Trương Pháp, Quang Phú",17.509869,106.6123433,Công viên
ChIJd3E1cwBXRzERkcT8lOf5t8Q,Công viên,"FJM9+J55, trần quý kiên/38 Phùng Hưng, Phường Hải Thành",17.4817599,106.6170431,Công viên
ChIJnRk6qzBZRzERh2vb215Slz4,Công viên Cây Đa làng Lý Trạch,"GHQF+6M7 eco guava garden, Thôn 2",17.5376135,106.5745971,Công viên
ChIJUZiIzL6ZODERAN8iKyS3OhA,Nhà văn hóa Thôn tân hóa,"Thôn tân hóa, xã quảng tân, thị xã, Tân Tiến",17.7492662,106.3621164,Công viên
ChIJGVyUcc--ODERgNQwtaFLYM0,Bia Di tích sân bay dã chiến Khe Gát,"M659+QHM, Xuân Trạch",17.6594678,106.218927,Công viên
ChIJD-jaPXxXRzERXC0P9QWhPws,Trung tâm văn hoá thể thao Quang Phú,"GJ66+92M, Nguyễn Hữu Hào, Quang Phú",17.5109575,106.6100429,Công viên
ChIJLy3SpJGlODER1czqFnxDdrk,Mộng cảnh hills,"JC4P+C36, Unnamed Road",17.6060322,106.4351328,Công viên
ChIJBXx72NqlODER1UJ2lon2QZ0,Phong Nha riverside field town,"J9F2+8Q, Hưng Trạch",17.6232831,106.3519277,Công viên
ChIJnUq8ImGrQDERJxVrPaGupIM,Hồ Long Đại,"8JMC+5X8, Hiền Ninh",17.3329129,106.6224413,Công viên
ChIJR5aqV3BRRzERC8qKNYoXfLY,Angel Park,"FJ4W+F2R, Võ Nguyên Giáp, Bảo Ninh",17.4558839,106.6455323,Công viên
ChIJq2qEKwCZODER6HIPMBAiwlc,LAHA FARM VIETNAM.,"58 LAHA QUANG VAN, La Hà",17.7320852,106.4102603,Công viên
ChIJkULguAhRRzER4otfdECtGpY,Nón Lá Mẹ Suốt,"FJ4W+X8V, Võ Nguyên Giáp, Bảo Ninh",17.4580456,106.6444911,Công viên
ChIJHW1HfFWhODEROawRQ_KurNQ,Hệ sinh thái nước mặn,"PF73+CF2, Xuân Lộc",17.713503,106.4536431,Công viên
ChIJPRZVGABXRzERHEtbDG6fQFI,Công viên,"FJMC+J4Q, Bắc Lý",17.4840964,106.6203622,Công viên
ChIJ9UryegBRRzERH2nmUpxlxJY,Quảng trường biển Legend Sea Walk,"FJ5W+PRH, Bảo Xuân",17.4588507,106.6476851,Công viên
ChIJAbleE51ZRzERslAZyB9aSWQ,Nhân Trạch sand hills,"GHJR+QW8, Unnamed, Road",17.5319205,106.5923314,Công viên
ChIJ0aCtF--7ODERxHZQQvd7v5I,Suối Hà Lời,"H8X3+47, Sơn Trạch",17.5978165,106.3031658,Công viên
ChIJ6TubVv5TRzERna8HU4xT-_Q,Quảng trường huyện Quảng Ninh,"2 Nguyễn Trãi, TT. Quán Hàu",17.4043977,106.6418386,Công viên
ChIJ-Y52BgBRRzER1ECWF4WLo5Y,Sân cộng đồng Mỹ Cảnh,"FJGM+82Q, Mỹ Cảnh",17.475833,106.6325777,Công viên
ChIJBSMJb-2xQDERqH54zwuj9rY,Lòi Thần,"5PQW+VW, Phú Hòa Nam",17.1896377,106.7472651,Công viên
ChIJK6FfeeuZODERSiskHr23K_Y,Vườn hoa Hướng Dương,"Q9MX+PFF, Pháp Kệ",17.7843145,106.3986699,Công viên
ChIJr8BZGwCtQDER5tGc0ME6sW0,Cây duối cổ thụ,"8JCM+77, Xuân Dục",17.3206788,106.633168,Công viên
ChIJj66jHatXRzERSegf3HcVFJs,Công viên phường Đức Ninh Đông,"FJ59+4HM, Đức Ninh Đông",17.4578432,106.6189087,Công viên
ChIJ5W-1qwRXRzER-gX16U57TMU,Sân thể thao Đồng Choi,"CHQJ+QV6, Nguyễn Lương Bằng, Nghĩa Ninh",17.4394199,106.5821534,Công viên
ChIJJ1UD2-dWRzERJd4LHkeeHwI,Công Viên Thiếu Niên,"FJ93+6CC, Võ Thị Sáu, Nam Sách",17.4680592,106.6035299,Công viên
ChIJvaoWDABXRzERXzejkL4auMo,Công viên thôn Đức Sơn,Đức Ninh,17.4444379,106.6068146,Công viên
ChIJO_xhDxhXRzER0-EJzNVIGPY,Vườn Hoa Khe Chè,"GH65+J8W, Lý Trạch",17.5116215,106.5583243,Công viên
ChIJGQVOXSu7ODEReLh0HE9MsF4,Khu quy hoạch dân cư mới Cu Lac riverside,"J89M+CW, Sơn Trạch",17.6185998,106.3347968,Công viên
ChIJXdVd_ilXRzERZnapZHiiZrE,Công viên Nghĩa Trang Liệt Sỹ Đức Ninh,"CJR4+3PG, Đức Phong",17.4401861,106.6068182,Công viên
ChIJ3WR6oA1ZRzERmjDQBOeygF8,Vườn Hoa Phúc Lộc2,"GHRH+9PJ, Thôn 2",17.5409522,106.5792801,Công viên
ChIJJ1_zGPWlODERAsnQtiBtXJo,Greenfield Ecostay,Hưng Trạch,17.6220277,106.3528582,Công viên
ChIJqTaYs9uxQDERn8DiBAj9vKw,Trang trại Cuối Bình,"5RG6+CF, Mỹ Thuỷ",17.1760713,106.811213,Công viên
ChIJEy4E_JFRRzERjs8o9qQkxyw,Quảng trường nhạc nước Son Doong Mystery Light & Water Show,"FJ5V+8W8, Võ Nguyên Giáp, Bảo Ninh",17.4582965,106.6448315,Đài phun nước
ChIJFSZLG9izQDERgZAMvlsU80k,Đài tưởng niệm liệt sĩ,"6QP5+WGX, An Xá",17.2371146,106.7589731,Đài tưởng niệm
ChIJ46YqurWhODERMuh2ri4lFMo,Đài Tưởng Niệm,"JGRC+M26, Nội Hải",17.6419459,106.5202262,Đài tưởng niệm
ChIJM4uWK1qrQDERMrEluU2Kzhw,Đền Tưởng Niệm Liệt Sĩ Trường Sơn Bến Phà Long Đại,"8JGF+86V, Thôn Long Đại",17.3258649,106.6230426,Đài tưởng niệm
ChIJAbuqRzRXRzER9SU9OTMv8h0,Đài tưởng niệm Trương Pháp,"FJWG+C36, Đông Hải",17.4960499,106.6251394,Đài tưởng niệm
ChIJOfPuzoBTRzERD7dd9YWxr-4,Đài tưởng niệm Liệt Sỹ huyện Quảng Ninh,"CJ4P+4M6, Lê Duẩn, TT. Quán Hàu",17.4052849,106.6366485,Đài tưởng niệm
ChIJNfXLRKe-ODERoTDaw6hGmRQ,Đền thờ Liệt sĩ Khe Gát,"M64J+FMC, Hồ Chí Minh, Xuân Trạch",17.6561976,106.2316256,Đài tưởng niệm
ChIJIyCh752xQDERnYX8sGM9y3I,Đài tưởng niệm liệt sỹ,"6QM6+6H9, An Thuỷ",17.2329184,106.7613769,Đài tưởng niệm
ChIJ25vhNkGhODERFONPa6vKKG4,Khu tưởng niệm Thanh niên xung phong C283,"MFVP+54H Di tích lịch sử TNXP, C283 QL1A, Thanh Trạch",17.6930809,106.4854256,Đài tưởng niệm
ChIJ_b_rcrFXRzERRZirUh3ljL0,Bia tưởng niệm,"Công Viên Đồng Hải, 2 Quách Xuân Kỳ, Đồng Hải",17.4651621,106.6273195,Đài tưởng niệm
ChIJp0it6QekODER2PX0a0DVPRc,Tượng đài chiến thắng Cự Nẫm,"JCJH+2VX, ĐT2B, Cự Nẫm",17.6301013,106.4297238,Đài tưởng niệm
ChIJsx7n8dijODERr0Uq228WKnw,Đài Tưởng Niệm Liệt Sỹ,"PC5H+Q92, thôn 2",17.7094038,106.4283987,Đài tưởng niệm
ChIJkU0BvNqmODERuZqr-fZFwkI,Đài tưởng niệm Liệt sỹ xã Vạn Trạch,"JF7G+WVR, xóm Đông",17.6148684,106.4771382,Đài tưởng niệm
ChIJy0HrHNdXRzERflpcKs4vQMc,Tượng đài Bác Hồ với nhân dân Quảng Bình,"FJ9C+4JJ, Trần Phú, Đồng Hải",17.4678473,106.6215259,Đài tưởng niệm
ChIJoSxmwLygODERjdF4gFDRJ3k,Đài Tưởng Niệm,"Đài Tưởng Niệm, Ngoại Hòa, Hải Trạch, Bố Trạch, Quảng Bình, Việt Nam",17.6422123,106.5217209,Đài tưởng niệm
ChIJfdjHJRZLPzER-VWnmx4sJXk,"Đền tưởng niệm liệt sĩ Trường Sơn đường 20 Quyết Thắng, trọng điểm CÀ RÒONG - ATP","76Q4+P7, Thượng Trạch",17.2888568,106.2059165,Đài tưởng niệm
ChIJRep9RABXRzER-3oiYlUAyN8,Tượng đài liệt sỹ xã Nam Trạch,"GGHQ+XPP, Nam Trạch",17.5299054,106.5398674,Đài tưởng niệm
ChIJt1rzmpBXRzER0aaCltD2zFk,"Nghĩa trang liệt sĩ Đồng Hới, Quảng Bình","FJM9+VX9, Phan Huy Chú, Bắc Lý",17.4846726,106.6199749,Đài tưởng niệm
ChIJzfts9AutQDERpLpEgK5PKp0,Tượng Đài Anh Hùng Liệt Sỹ Xã Hoa Thủy,Hoa Thuỷ,17.2647402,106.705823,Đài tưởng niệm
ChIJX3sQSwBXRzERHLNR6yJToa8,Tâm Gém - Cơm Niêu Quảng Bình,"118 Hữu Nghị, Nam Lý",17.4730514,106.6036634,Lăng tẩm
ChIJfxbvjgZZRzERAmF7LSYmIs8,Cửa hàng Lăng mộ Tâm Phúc,"QL1A, Trung Trạch",17.5731449,106.5392519,Lăng tẩm
ChIJzw35q6lXRzERHyLnxC8Xjps,Di tích lô cốt Quang Phú,"GJ65+MXQ, Nguyễn Hữu Hào, Quang Phú",17.511703,106.6099817,Lô cốt
ChIJeT32Vc1XRzER3HtA7zKCFlo,Lô cốt Pháp xưa,"GJ94+JP6, Quang Phú",17.5190457,106.6067687,Lô cốt
ChIJJXnIMQBRRzERoIW6AC2P_Lg,Đoàn Nghệ Thuật Truyền Thống Quảng Trị,"FJ7Q+4VW, Hà Dương",17.4628639,106.6397054,Nhà hát
ChIJFeGn3QSlODERI3hcqGLOVeA,CM Studio - Nâng tầm giọng hát của bạn,"Thôn 1, Thanh Bình",17.6330926,106.3592217,Nhà hát
ChIJ2xtLMl9XRzERhyzJJBOOZ70,Nhớ Garden - restaurant,"Cầu Nhật Lệ 2/đường Điện Biên Phủ, Bảo Ninh",17.4491913,106.6409938,Nhà hát
ChIJUb_QJC9TRzER6PIGJFAmLKA,Nhà Văn Hóa Thôn Quảng Xá,"8MW9+3Q8, Tân Ninh",17.3451643,106.6694476,Nhà hát
ChIJc96zDfJXRzERpjqbaaeE3zE,Trung Tâm Văn Hóa Tỉnh Quảng Trị,"đường Tôn Thất Thuyết, Phường Hải Thịnh",17.4636296,106.6157478,Nhà hát
ChIJCbNTexCiODER2C6SkPXlJEQ,Đình làng Cao Lao Hạ,"PC5H+M6V, Hạ Trạch",17.7092583,106.4279543,Nhà hát
ChIJ__s_QIqxQDERw5z7E2Fyjic,DỊCH VỤ CHO THUÊ LOA HÁT KARAOKE TẠI NHÀ LỆ THUỶ-QUẢNG BÌNH -NHUẬN PHÁT,"20 Nguyễn Tất Thành, Đông thành",17.2312891,106.8005255,Nhà hát
ChIJMxqB8K2ZODEREuEYprQ9R3A,Sun Palace - Wedding & Event,"432 Quang Trung, thị xã",17.7574637,106.4174025,Nhà hát
ChIJ9SXDg-KhODERCAQvFvGBwNQ,Trung Tâm Xóm Hát,"JGQ2+95F, Ngã Ba Trung Tâm, 1, Đông Duyệt",17.6384364,106.5004101,Nhà hát
ChIJCTIoa7RRRzERYdVErArHRoc,Nhà vườn Thuyền Trưởng (The Captain's Garden House),"Điện Biên Phủ, Hà Thôn",17.4487464,106.64096,Nhà hát
ChIJP1w2bxGlODERo6AKWOZoIFc,Đồi Dẻ Eco,"JC73+942, Cự Nẫm",17.6107606,106.4052448,Nhà hát
ChIJ_5TkZ59TRzERy52uDWvRMDI,Nhà Hàng Karaoke Trầm Hương,"9MP2+XRC, Ngã ba Võ, Võ Ninh",17.3874281,106.6520011,Nhà hát
ChIJKcbvYwu8ODERv2_-BtPMYhQ,Nhà Thờ Giáo Xứ Đồng Troóc,"J7XF+VGH, Thôn Hai",17.6496843,106.2738664,Nhà hát
ChIJr11Jc7hXRzERblJ1KqrdM6I,BlueseaQB,"191 Trương Pháp, Bắc Lý",17.4953023,106.6255055,Nhà hát
ChIJnThxJiZXRzERbEj07BnYtfM,Netin Travel - Tour Du lịch Quảng Bình,"32 Phong Nha, Nam Lý",17.4723282,106.6021962,Nhà hát
ChIJs6ZVOp9XRzERwv3RwGk5mgs,The Ayatt Coffee,"Số 22, 36m Đường Phạm Văn Đồng, Nam Sách",17.4653403,106.6049007,Nhà hát
ChIJNcDl-06hODERQL0cXXOkZa0,LQ MEDIA,Thanh Vinh,17.693673,106.4860789,Nhà hát
ChIJeVKs_s5WRzERo9OI6Ar5FTI,Nhà hàng tiệc cưới Royal,"Đường Nguyễn Hữu Cảnh, Đồng Hải",17.465743,106.6187794,Nhà hát
ChIJE1QIJSC6ODERYZtg2Z8CdT0,Nhà Hàng Phương Nam II,"Hang Tối Chày Lập, Phúc Trạch",17.5779094,106.2542572,Nhà hát
ChIJ6wyZWgCXODERX2iX5qh6M0Q,Showroom audio Phan Hoà,"QL12A, Thôn 5",17.77325,106.3261315,Nhà hát
ChIJW47dhcOVODERccuD2pa9pTY,NHÀ VĂN HOÁ THÔN ĐÔNG HOÀ,"R67F+F2, Đông Hòa",17.8137687,106.2225218,Nhà văn hóa
ChIJVVJZgIVTRzERGlj8SZEIrnM,Nhà Văn Hoá Thôn Hoà Bình,Hỏa Lò,17.3418226,106.6633248,Nhà văn hóa
ChIJ_543IbinODERJyB4xM567TE,Nhà Văn Hóa Thôn Cà,"HF5X+8VF, Hoà Trạch",17.5583206,106.4996188,Nhà văn hóa
ChIJP9vqdwRXRzERTCQie4Y-QRg,Nhà văn hóa tiểu khu 8,"TK8 - Phường Bắc Lý, Đồng Phú",17.4859236,106.5899992,Nhà văn hóa
ChIJIVO-8D5XRzERvVWuS9-CDLY,Nhà văn hoá tổ dân phố Giao Tế,Đức Ninh,17.4451636,106.6140766,Nhà văn hóa
ChIJa1ABbVKwQDERl3RBL8MdveI,Nhà Văn Hóa Thôn Văn Xá,Văn Xá,17.1867782,106.759771,Nhà văn hóa
ChIJvWxOfrGnODER1QPUzzV-wbY,Nhà Văn Hóa Thôn Sỏi,xóm Sỏi,17.6093074,106.4765446,Nhà văn hóa
ChIJ09epDABRRzERv5jWNBZrCU0,Nhà văn hoá thôn Hà Thôn,"475 Nguyễn Thị Định, Bảo Ninh",17.4522014,106.6398907,Nhà văn hóa
ChIJWdYrdYJYRzERIrP8oJiCNZE,Nhà Văn Hóa Trung Tâm Huyện Bố Trạch,"HGMM+9J7, TT. Hoàn Lão",17.5833414,106.5337929,Nhà văn hóa
ChIJa6RetHFXRzERUymPhYRegtY,"Nhà văn hoá Tổ dân phố 6, phường Bắc Lý","Ngõ 337Phan Đình Phùng, Đồng Phú",17.4803082,106.5816046,Nhà văn hóa
ChIJLxWfLtuYODER-52O9Q8vNZ4,Nhà Văn Hóa Khu Phố 3,Ba Đồn,17.7583603,106.4252687,Nhà văn hóa
ChIJp1wxGTZXRzERyHi9tzIsyDU,Nhà Văn Hoá Đức Ninh,"CJV6+6Q3, Trấn Ninh, Đức Ninh",17.4429564,106.6118728,Nhà văn hóa
ChIJXepAQjm7ODERk3J1AauopX0,Nhà Văn Hóa Tổ Dân Phố Gia Tịnh,Gia Tĩnh,17.6232093,106.3325727,Nhà văn hóa
ChIJH5cxBSdXRzERboZGuoWDny0,Nhà văn hoá Tổ dân phố 3 Mỹ Cương,"FH4R+7MC, Nguyễn Kinh Chi, Đức Ninh",17.4559958,106.5917292,Nhà văn hóa
ChIJhXS7ieZXRzER6imKkoqP6Hk,Nhà văn hóa thôn Thuận Hóa,"CHQH+6CM, Vực Quành",17.4380982,106.5785556,Nhà văn hóa
ChIJ4SEWZABXRzER56NFocgaCu4,Nhà văn hóa tổ dân phố 1 đồng phú,"69 Phạm Hồng Thái, Phường Hải Thịnh",17.4667224,106.6181783,Nhà văn hóa
ChIJ3ReO3qKUODERQ_Cu4aNPW7U,Nhà văn hóa thôn Liên Hóa,"Liên Hóa,, Mai Hoá",17.8260766,106.178985,Nhà văn hóa
ChIJpcJDJu1XRzERwTKLKy23srY,Nhà văn hoá Thôn 7,"GH9G+4JG, Lý Trạch",17.5184829,106.5774478,Nhà văn hóa
ChIJ-dMqyLlXRzERdpcaKHuahRk,nhà văn hoá đồng hải,"FJ6C+XCH, 30 tháng 4, Đồng Hải",17.4624,106.6210951,Nhà văn hóa
ChIJl2lvdKulODERQHCdoZlTInw,Nhà văn hoá thôn Khương Hà 1,"J9FF+C82, Hưng Trạch",17.6235032,106.3732566,Nhà văn hóa
ChIJh-cOCvytQDER2TEUuaHXtvs,Nhà Văn Hóa Thôn Bắc,"8JPX+RVH, Cổ Hiền",17.3370591,106.6497433,Nhà văn hóa
ChIJG9UvSMlZRzERZIdD04E0kAc,Nhà văn hoá thôn 6 Lý Trạch,"GHPJ+5FH, Unnamed Road, Lý Trạch",17.535347,106.5812328,Nhà văn hóa
ChIJvbd5yz9XRzER85rjYuzILEI,Nhà văn hoá TDP4 - Phường Đồng Phú,"35 Lý Nam Đế, Phường Hải Thành",17.4765159,106.6158852,Nhà văn hóa
ChIJF3myBQBZRzER0Fu_fTSFAik,Nhà văn hoá thôn 4 lý trạch,"GHQC+9FG, Lý Trạch",17.5379782,106.5707212,Nhà văn hóa
ChIJKZNaFsenODERP4RW6YC3U0g,nhà văn hoá THÔN SEN,"HFXJ+8J, xóm Sen",17.5983125,106.4815625,Nhà văn hóa
ChIJHW_0BPtXRzERgkJdzBD8Epk,Nhà văn hoá thôn tân sơn,"36 Trần Nhật Duật, Đức Ninh",17.4512284,106.6050188,Nhà văn hóa
ChIJK1Mnu5hXRzERaFc_eRnvDAI,Nhà Văn Hóa Tổ Dân Phố 7 Phường Nam Lý,"23 Nguyễn Thiện Thuật, Nam Lý",17.4605603,106.5913249,Nhà văn hóa
ChIJeS-cHgCtQDEReexKEijzHS4,Nhà văn hoá thôn Xuân Sơn,"7M6R+432, Hoa Thuỷ",17.260399,106.6897516,Nhà văn hóa
ChIJG4vURCFZRzERUviWetRJe9Y,Nhà văn hoá thôn lý nhân,"Thôn lý nhân, Đại Trạch",17.5571648,106.555976,Nhà văn hóa
ChIJ39BpDbenODER4XjSwljYzDA,Nhà Văn Hóa Võ Thuận 1,"1, Võ Thuận",17.5778146,106.4902579,Nhà văn hóa
ChIJ-dptIZuzQDERcFre8WKYaHg,Nhà văn hóa Thôn 1 Thanh Tân,"7Q8P+4PV, Thanh Thuỷ",17.2653658,106.7868039,Nhà văn hóa
ChIJyxhkdbujODERb6EzLXgprDE,Nhà văn hoá thôn Mỹ Sơn,"JCW7+XF, Cự Nẫm",17.6475115,106.4138363,Nhà văn hóa
ChIJQzKQPaOVODERgQwVCDXvjek,Nhà văn hoá thôn Tây Trúc,"R65H+38W, xóm Trúc",17.8076096,106.2279297,Nhà văn hóa
ChIJ2fDSCMiZODERW9SHwAl78b4,Nhà văn hoá thôn Tiền Phong,"QCFC+8HV, Ba Đồn",17.7733545,106.421411,Nhà văn hóa
ChIJLTSVNHSlODERhFs3AaCxkQw,Nhà Văn hóa thôn Khương Hà 3,"J988+VWV, Hưng Trạch",17.6172341,106.3672917,Nhà văn hóa
ChIJMXvFRjFXRzERkO4sXz9T3NI,Nhà văn hoá thôn Đức Môn,"CJQ5+2V4, Unnamed, Road",17.4372101,106.6096584,Nhà văn hóa
ChIJRVioYXijODERDlldLgvcQKo,Nhà văn hoá thôn Bắc Sơn,"P9G3+8G3, Bắc Sơn, Quảng Sơn, TX, Ba Đồn",17.7256937,106.3538269,Nhà văn hóa
ChIJB9WBcfyhODERU-6GzWJMgVQ,Nhà Văn Hóa thôn 1,"MFW7+9CW, xóm 1",17.695995,106.4635817,Nhà văn hóa
ChIJo46QrZ2jODER70ryb_2uhSA,Nhà Văn Hoá Xóm 6,"P97J+63V, Quảng Minh",17.7129268,106.3794911,Nhà văn hóa
ChIJMYhqpgFTRzERnB1luo__-i8,Nhà văn hoá thôn Hiển Vinh,"Xóm 3, Hiển Vinh",17.3535846,106.6676099,Nhà văn hóa
ChIJrXKCRdZXRzERWqmck8oUpsI,Nhà văn hóa thôn Đức Phong,"CJV6+5H2, Đức Ninh",17.4428827,106.6113834,Nhà văn hóa
ChIJsVsSGx-nODERS_DAyTa0gj4,Nhà văn hóa thôn Rẫy,"JF2R+7JR, Vạn Trạch",17.6007381,106.4915192,Nhà văn hóa
ChIJVVVVBeWsQDEReKFXDpZ7PZo,Nhà Văn Hóa Thống Nhất,"8M38+286, An Ninh",17.3025468,106.6657575,Nhà văn hóa
ChIJe__v85xTRzERSX0jtWKOtYU,Nhà văn hóa Thôn Trúc Ly,"9JQV+696, Võ Duy Hàm, Võ Ninh",17.3880227,106.6433928,Nhà văn hóa
ChIJMcHxD4xTRzERYdh4QmmPCSA,"Nhà Văn Hóa Thôn Tân Định, xã Hải Ninh","ĐT564B, Hải Ninh",17.3742069,106.7214468,Nhà văn hóa
ChIJs_SwjiyfODERbPt-2lM3CsM,Nhà Văn hóa Thôn Thanh Bình,"Chòm 4 , Thanh Bình, Quảng Xuân",17.8047956,106.4424458,Nhà văn hóa
ChIJ_5fG-p6xQDERF7EAAOxOU4U,Nhà văn hoá thôn Phan Xá,"6Q7V+W23, Đường Lâm úy, Xuân Thuỷ",17.2148219,106.7926264,Nhà văn hóa
ChIJT_lMVI6nODEREBrh0hq45aQ,Nhà văn hóa Thôn Tây,"JF8G+H38, Unnamed Road, Vạn Trạch",17.616424,106.475211,Nhà văn hóa
ChIJh17TeNi9ODERom0WcVSlhdQ,Nhà văn hóa thôn Xuân Thủy,"P8HV+CGV, Thôn Xuân Thủy",17.728603,106.3438053,Nhà văn hóa
ChIJ_eqk69-nODERUu89F2ZUASI,Nhà văn hóa thôn Nam Định,"HCGW+W33, Unnamed Road, Phú Định",17.5772653,106.4451858,Nhà văn hóa
ChIJQUSOuq2pODERYFXb2KpZtRA,Nhà văn hóa thôn Đông Thành,"GG6C+J6, Đông Thành",17.5115987,106.5204965,Nhà văn hóa
ChIJMQDZaEqxQDERqXc0_R9VWi4,Nhà văn hóa thôn Tuy lộc,"6QM8+7HQ, Lộc Thuỷ",17.2332107,106.7664842,Nhà văn hóa
ChIJ04rRcwBXRzERTecoPO1nNBA,Nhà văn hoá tổ dân phố Diêm Trung,"FJ48+384, Đức Ninh Đông",17.4551482,106.6158386,Nhà văn hóa
ChIJg_oAR16bODER49FLPav9AuE,Nhà văn hóa thôn Hà Tiến,"RCM6+54R, Thôn Hà Tiến",17.8329851,106.410271,Nhà văn hóa
ChIJAQAQsXxTRzERHh_cVJhp2M0,Nhà văn hóa thôn Trường Niên,"9JFM+GJ3, Hàm Ninh",17.3737554,106.6340579,Nhà văn hóa
ChIJL0CmcEiXODERNy_eL4XVSzo,Nhà Văn Hóa thôn Xuân Sơn,"Q7GQ+JGV, Văn Hoá",17.7766079,106.2888001,Nhà văn hóa
ChIJUbP4TwCtQDERBq-DLog2TKY,Nhà Văn Hóa thôn Giữa,"7MJM+PC5, Unnamed, Road",17.2820199,106.6833469,Nhà văn hóa
ChIJV9GFx5hXRzERBBJs4j510u0,Nhà văn hoá Thôn 4 - Lộc Ninh,Lộc Ninh,17.4990991,106.5937786,Nhà văn hóa
ChIJS_4Pqf5XRzERMZ0Ze3k3zdk,Nhà Văn Hóa Thôn 11 - Hữu Cung,"GH6P+HGP, Lộc Ninh",17.5115322,106.5864172,Nhà văn hóa
ChIJgSpVlSlRRzERXLO08whSzd4,Nhà Hàng Quảng Trường,"FJFP+PJR, Đường Ven Biển, Bảo Xuân",17.4743278,106.6364647,Quảng trường
ChIJiaspkV6xQDERiRtDPDpUNd8,Quảng Trường,"Liên Thủy, Lệ Thủy",17.2286223,106.7982732,Quảng trường
ChIJe8jm0mRRRzERcFesL_hvpgI,Quảng trường biển Bảo Ninh,"Trần Hưng Đạo, Bảo Xuân",17.4747974,106.6361211,Quảng trường
ChIJD-YJjSlRRzERedsV-dQPi5I,Quảng trường biển Đồng Hới,"Quảng trường biển Đồng Hới, Bảo Ninh, Đồng Hới, Quảng Bình, Việt Nam",17.474439,106.6353934,Quảng trường
ChIJJalKU0mZODER2g1to6AChMM,Chợ Trường Quảng Hoà,"P9MH+5J6, Quảng Hoà, thị xã, Ba Đồn, Thanh Tân",17.7329011,106.379025,Quảng trường
ChIJLwBlDQZRRzERJVC1SfkNQOY,Quảng Trường biển Nhật Lệ,"Trần Hưng Đạo, Bảo Xuân",17.4748191,106.6361422,Quảng trường
ChIJVVmQEwBZRzERzZDaTM2ZSZU,Quảng trường biển Hoàn Lão,"HHM7+8CP, Trung Trạch",17.5833401,106.5635908,Quảng trường
ChIJvabRES6YODER9UKXV4E4SLw,Trường Tiểu học và Trung học cơ sở Quảng Trường,"Q994+GV4, Liên Trường",17.7687618,106.3572024,Quảng trường
ChIJ_____xOXODEROMU9DG42pNQ,Trường THCS Quảng Liên,"Q8W8+9Q8, Liên Trường",17.7959116,106.3169479,Quảng trường
ChIJ1fHKjNBXPzERwJalF29v5dA,Nhà Nghỉ Trường Thành,"6C9X+3VV, Long Sơn",17.2177248,106.4496935,Quảng trường
ChIJ7RghEgBXRzERIOt8u5UD9xM,Cát Quảng Bình - Quảng trường Hồ Chí Minh,"Dương Hùng Vương, Đồng Hải",17.4691137,106.6222065,Quảng trường
ChIJ06dvBCyYODERbXSEDGdLfYU,Trạm Y Tế Xã Quảng Trường,"Q9C3+44C, Liên Trường",17.770307,106.3527632,Quảng trường
ChIJNQMOVACxQDERAfaLFjBYkKQ,"Gara oto Quảng Trường Làm Lốp , Rửa Xe & Thay Dầu",Liên Thuỷ,17.228665,106.7983238,Quảng trường
ChIJVVVVFfGZODERWoG-6mRoJg0,Trường Tiểu Học Quảng Trường,"R977+C28, Chòm 5",17.81355,106.362568,Quảng trường
ChIJLU5cHABZRzERNipIZXWKrxk,Quảng trường biển mini,"HHP7+P6M, Trung Trạch",17.5868325,106.5630325,Quảng trường
ChIJEZg2HRGXODERE6GVwTZ_BYs,Liên Trường,"Liên Trường, Quảng Trạch, Quảng Bình, Việt Nam",17.7805679,106.308419,Quảng trường
ChIJRxSnL1dXRzERIPt-WfSVnts,LOTTE Cinema Đồng Hới - Vincom,"Vincom Plaza, Quách Xuân Kỳ, Đồng Hải",17.4653451,106.6265438,Rạp chiếu phim
ChIJywSlWYRXRzERlAxZOLT-fCE,Vincom Plaza Đồng Hới,"Quách Xuân Kỳ, P",17.4654359,106.6266764,Rạp chiếu phim
ChIJ0xNxZ8OYODERWJU7k4M3i9M,Siêu Thị Thái Hậu,"353 Quang Trung, Ba Đồn",17.756575,106.4223849,Rạp chiếu phim
ChIJszbe6M1WRzERoi_NYA-S5pE,Rạp 15/7,"1 Lê Trực, Đồng Hải",17.4644922,106.6241665,Rạp chiếu phim
ChIJM9FZZycLNTERmXJa8NuGpMk,Cafe Trung Nguyên Legend Quang Binh,"FJ4W+CPW, Võ Nguyên Giáp, Bảo Ninh",17.4561257,106.6468532,Rạp chiếu phim
ChIJETWxwc1WRzERDrF6IyHIB5g,Đồng Hới,"Đồng Hới, Quảng Bình, Việt Nam",17.4659391,106.5983958,Rạp chiếu phim
ChIJpaDbWtFWRzERLylgGdEihSE,Thư viện tỉnh Quảng Trị (trụ sở chính),"Nguyễn Văn Linh, Nam Lý",17.4738525,106.6073042,Thư viện
ChIJs349VLqxQDERWMdP3woYNZI,NPP Đông trùng hạ thảo Dr. Trung,Liên Thuỷ,17.2221818,106.7937137,Thư viện
ChIJ_fvEcJJTRzERB9h4qOKsq8s,Nhà Truyền Thống huyện Quảng Ninh,"CJ3R+8FH, Lê Duẩn, Tiểu khu 5",17.4033122,106.6412457,Thư viện
ChIJq8NzIQBZRzEReHQAma9x4jI,Thôn 4 Hoàn Lão( Trung Trach),"HHR3+V2C Mệ Trúc +7C, Trung Trạch",17.5921967,106.5525145,Thư viện
ChIJK5qg7nNXRzERufSTybsrTe4,Trung tâm học liệu - Đại học Quảng Bình,"FJJ4+JGF, Đồng Phú",17.4815691,106.606305,Thư viện
ChIJtw-esu5WRzERG8A2Y8SaK9c,Nhà hàng tiệc cưới Tân Trường Xanh,"57 Nguyễn Công Trứ, Nam Lý",17.4637726,106.5990043,Triển lãm
ChIJD-P8CwC7ODER8qsxd5NpCc0,Trung Tâm Tiệc Cưới- hội nghị - Nhà hàng CÔ CÚC,"TDP, Cù Lạc 1",17.6133466,106.3163518,Trung tâm hội nghị
ChIJzU6Qz6qjODERNDpfc4kV474,Trung Tâm Hội Nghị Tiệc Cưới Đội 3 Thôn Thọ Hạ,"P968+XRX, Thọ Hạ",17.7122992,106.3662879,Trung tâm hội nghị
ChIJMfdoRABXRzERIqeS81JZqog,Trung tâm tổ chức sự kiện Nhà hàng Nam Thảo,"27 Đ. Nguyen Gia Thieu, Bắc Nghĩa",17.4549643,106.5937326,Trung tâm hội nghị
ChIJlWsNmBdXRzERO7VqkAnKQLQ,Trung tâm Xét nghiệm Medic Quảng Bình,"15 Hữu Nghị, Đồng Phú",17.4836119,106.6041193,Trung tâm hội nghị
ChIJV1lkPuBWRzERjOODyUsojJo,Trung Tâm Huấn Luyện - Thể Thao Công An Tỉnh Quảng Bình,"95, Hữu Nghị, Thành Phố Đồng Hới, Tỉnh Quảng Bình, Đồng Phú",17.4780824,106.604923,Trung tâm hội nghị
ChIJXSGfzUJXRzERTn2YvLPd6Pw,Nhà Hàng Chang Chang Family,"Đường Phạm Văn Đồng/86 đường 36m, Đức Ninh Đông",17.4605176,106.611102,Trung tâm hội nghị
ChIJ58nZjO5WRzERjLiNirD1meQ,Trung Tâm Giới Thiệu Việc Làm Tỉnh Quảng Bình,"FH7W+HWV, Xuân Diệu, Nam Lý",17.4640044,106.5973007,Trung tâm hội nghị
ChIJQT37-9VXRzER3cetD454JzM,Nhà hàng Chạm - Đồng Hới,"126 Hữu Nghị, Nam Lý",17.4693921,106.6081895,Trung tâm hội nghị
ChIJQ2jLxuBWRzERw6xZr-ifESo,Đài Khí Tượng Thủy Văn Quảng Bình,"113 Hữu Nghị, Nam Lý",17.4743833,106.6040973,Tượng đài
ChIJrdQe7MGwODERO3-CLYGsaB0,Di tích lịch sử Đường 20 Quyết Thắng,"G736+HFJ, ĐT20, Tân Trạch",17.503962,106.261134,Tượng đài
ChIJ451r9H1ZRzERpDInqEUCCNE,"Vườn hoa hướng dương Thôn 4, Lý Trạch","GHQC+9FG, Lý Trạch",17.538427,106.5712113,Vườn hoa
ChIJfy6BKCtXRzERYfWnQmHhs68,Vườn hoa Nhật Nguyệt,"Tạ Quang Bửu, Nam Lý",17.4624386,106.5959587,Vườn hoa
ChIJ33FAYCZZRzERyETid8ddbto,VƯỜN HOA HẢI ĐĂNG,thôn 6,17.5304774,106.5843654,Vườn hoa
ChIJ7-O6VM1ZRzERWoHMrAtku3k,vườn hoa THIÊN ÂN,"JG8R+786, Đức Trung",17.6156734,106.5407666,Vườn hoa
ChIJF8lcxz6vQDERDMeExZp6toY,Vườn hoa Sơn Thiên,"Đội 1, Mỹ Đức, Sơn Thuỷ",17.2389487,106.6957769,Vườn hoa
ChIJlSZEvE27QDER-XkhTAPyUjU,Vườn Hoa Tuyết Trinh,Trường Thủy,17.1168783,106.8113223,Vườn hoa
ChIJ3ZBpFS-uQDERv7pyIae4H6o,Cây giống Hoa Cảnh Đức Hưng,Sơn Thuỷ,17.2351795,106.6969788,Vườn hoa
ChIJm4gCYQBXRzERIPbin5_KUWU,Vườn Hoa Tuấn Hồng,"GGHW+F53, Nhân Hồng",17.5286279,106.5454264,Vườn hoa
ChIJWULC0bizQDERoKzGtwjW4KM,Vườn Hoa Thanh Thuỷ Lệ Thuỷ,"7R22+PWC, QL1, Thanh Thuỷ",17.251816,106.802279,Vườn hoa
ChIJTQWWstujODERcxtrEYLyia0,Vườn hoa Hạnh Miền,"D4 Phú Hữu, Bô Trạch",17.6657017,106.3710465,Vườn hoa
ChIJ-XKd5U-nODERCU4_timZga4,Vườn hoa Vạn Trạch (chị Tiên),"JF88+C2C, Làng Dinh Lễ",17.616059,106.4650126,Vườn hoa
ChIJQc10XQ2ZODERPC7RkAjEMak,Vườn hoa Trần Thuý Dương,"PCM7+V5H, La Hà",17.734678,106.412969,Vườn hoa
ChIJXwG4CvefODER_beCBarV3Zg,Khương hoa giấy,"Tổ dân phố nhân thọ, phường",17.7668259,106.4520315,Vườn hoa
ChIJUw4vyG9XRzER8_zemH6Qyg4,Hoa Lan Phan Phan,"161 Phan Đình Phùng, Bắc Lý",17.4753018,106.5885034,Vườn hoa
ChIJBdZGTqqzQDERRYOutBgxMg0,Vườn Mai Huấn,"7Q5V+VGP, QL1A, Thanh Thuỷ",17.2597108,106.7938217,Vườn hoa
ChIJQcccdXCZODER-2gJodaYrR4,Vườn hoa Hưng Loan,"Chu Văn An, Quảng Hưng",17.8025844,106.4204892,Vườn hoa
ChIJr5hyUgBXRzER2be_HxXXrvk,Vườn hoa Thu Hà,"FH38+X37, Đồng Sơn",17.4549113,106.5651807,Vườn hoa
ChIJcYYomE9ZRzER5g5CnsCqKQM,Hai Vo Son Vườn Lan,"GGQV+VVH, Unnamed Road, Nam Trạch",17.5396827,106.5447213,Vườn hoa
ChIJ5_iiETesQDER6E2nk6TqDyc,Vườn cây sưa đỏ Hòa Quyết,"7M78+GH4, Đường (15 cũ), Vạn Ninh",17.2637798,106.6664647,Vườn hoa
ChIJueTm6tNXRzERCn0JvmRMfmw,Hoya Garden,"Nguyễn Văn Siêu, Bắc Nghĩa",17.4565678,106.591917,Vườn hoa
ChIJP3YlkYOwQDERBWqBscjVelg,Vườn Hoa,"Vườn Hoa, Trường Thủy, Lệ Thủy, Quảng Bình, Việt Nam",17.1485646,106.7787562,Vườn hoa
ChIJ69UK0KZZRzERIGPi4njEhK4,Lý Trạch eco guava garden,"GHQF+6M7, Thôn 2",17.5380487,106.574157,Vườn hoa
ChIJP3bOXQCXODERbMj3wil5tpg,Cây thị thôn Bàu Sỏi,Bàu Sỏi,17.7784446,106.2718446,Vườn hoa
ChIJpyXqkVGzQDERAr2DnXtIS2I,Vườn Rau Xanh Hồng Thủy,Hồng Thuỷ,17.2824142,106.7615512,Vườn hoa
ChIJ_xKbB-JXRzERaYkCskt3Vxk,Trang trại thắng mây,Thôn thuận hòa,17.4873658,106.5570909,Vườn hoa
ChIJXXvMrwK7ODER9LMyTnZaIo0,VƯỜN HOA PHONG NHA GARDEN,"J875+J5Q, Sơn Trạch",17.6140792,106.3079697,Vườn hoa
ChIJKXJ_rgmxQDERLHBWRtgVIbk,Khu lăng mộ Họ Nguyễn Văn,"Thôn, Vườn Hoa",17.1473993,106.7780281,Vườn hoa
ChIJeRgFWwCzQDERp0Jpd_b9iwY,Vườn hoa Thuận Yên,"8P8F+FW, Gia Ninh",17.316169,106.724867,Vườn hoa
ChIJt2hddEapODERB5lUKzu-fYU,Hoa Vàng Hill,Thôn Thuận Hoà,17.4701087,106.5324447,Vườn hoa
ChIJ1WjoptaVODERrN2hq_aNUyU,Vườn lan Phúc Lành,Thôn Tây Thủy,17.8084685,106.2398347,Vườn hoa
ChIJDbtYsSxXRzER8uIYoU4gaeQ,Nhà vườn Lộc Ninh,"Đường Nguyễn Hiến Lê, Thôn 10 Hữu Cung, Lộc Ninh",17.5045008,106.5923113,Vườn hoa
ChIJb0NUVPhXRzERQvnxFmYCrq0,Vườn svc Anh Hoàng,"Ngõ 22 Hoàng Quốc Việt, Đồng Sơn",17.4519087,106.5782922,Vườn hoa
ChIJLSzWOuSnODERMTZfaAVbmnQ,La La Farm,Thôn Hòa Đồng,17.5489476,106.5056124,Vườn hoa
ChIJrbyNdf6xQDERWjN9WWC8wJ4,Khu Lăng Mộ nhánh họ Lê Văn,"4QWH+87M, Thôn, Vườn Hoa",17.1458268,106.7781592,Vườn hoa
ChIJK5ys3GZTRzERPGriIZ_M_Nk,Cửa hàng tạp hoá cafe Sân vườn Trần Hoàng,"9J8P+3C5, Quyết Tiến",17.3651016,106.6361124,Vườn hoa
ChIJ3-b758tXRzERYoGnAOH_t7g,Nhà Vườn Ảnh Lý- Bán Sỉ lẻ Hoa cây cảnh,"681 Lý Thường Kiệt, Đồng Phú",17.4880806,106.6005672,Vườn hoa
ChIJNYA1bTuVODERjT0NkhO8vxo,Vườn xanh khangmyminh,Liên Sơn,17.8239444,106.1838484,Vườn hoa
ChIJ16i5AgCZODERy2spKojynMQ,Phước Hoa Flower (Hoa Tươi Quảng Bình),"150 Đ. Đào Duy Từ, Quảng Thuận",17.7497253,106.4290115,Vườn hoa
ChIJUYjHK11XRzER8BgXauf2fGw,Nhà Phúc Hiếu,TDP 7,17.6006116,106.5147797,Vườn hoa
ChIJZwDOwAJXRzERmbN8r5o_ppw,Nhà Văn Hoá Thôn Bắc Phú,"GJC4+99, Quang Phú",17.5209375,106.6059375,Vườn hoa
