name,address,lat,lng,matched_keyword
Trung Tâm Giáo Dục Thường Xuyên Tỉnh,"sau lưng cao đẳng Nghề QB, Đường Phạm Đình Hổ, Tdp1",17.4655194,106.5860944,Trung tâm giáo dục thường xuyên
Trung tâm giáo dục thường xuyên huyện Lệ Thủy,"6RF5+HH5, Liên Thuỷ",17.2238856,106.8089885,Trung tâm giáo dục thường xuyên
Trung tâm GDNN-GDTX huyện Quảng Trạch,"Không có, TDP Tiền Phong",17.7545323,106.4317533,Trung tâm giáo dục thường xuyên
Trung tâm Giáo dục nghề nghiệp - Giáo dục thường xuyên,"QC89+9X, Quảng Long",17.7663351,106.4198731,Trung tâm giáo dục thường xuyên
Trung tâm GDNN – GDTX TP.Đồng Hới,"125 Trần Nhật Duật, Đức Ninh",17.4466392,106.6125029,Trung tâm giáo dục thường xuyên
Trung tâm GDNN - GDTX huyện Quảng Ninh,"9M7G+VC7, Dinh Mười",17.3648072,106.6759456,Trung tâm giáo dục thường xuyên
Trung Tâm Giáo Dục Thường Xuyên Đồng Hới,"Số 82 Nguyễn Hữu Cảnh, Phường Hải Thịnh",17.4686226,106.6146584,Trung tâm giáo dục thường xuyên
Trung tâm GDNN - GDTX thị xã Ba Đồn,"QC3C+P7P, Ba Đồn",17.7541773,106.4207602,Trung tâm giáo dục thường xuyên
Trung tâm GDTX Bố Trạch,"Tiểu khu 2, Hoàn Lảo, TT. Hoàn Lão",17.5858659,106.5260001,Trung tâm giáo dục thường xuyên
Trung tâm GDNN-GDTX Lệ Thủy,"5QWP+5FQ, Mai Thuỷ",17.1955443,106.7863835,Trung tâm giáo dục thường xuyên
"Trung tâm giáo dục nghề nghiệp, GDTX huyện Bố Trạch","144 QL1, Trung Trạch",17.5955659,106.5357327,Trung tâm giáo dục thường xuyên
Trung Tâm Ngoại Ngữ EMAX,"9MFC+3G, Võ Ninh",17.3728011,106.6713256,Trung tâm giáo dục thường xuyên
Sở Giáo dục và Đào tạo Quảng Trị,"187 Hữu Nghị, Nam Sách",17.4705352,106.6075006,Trung tâm giáo dục thường xuyên
Trung tâm ngoại ngữ Quốc Tế Ocean Edu Đồng Hới,"82 Nguyễn Hữu Cảnh, Phường Hải Thịnh",17.4675015,106.6156038,Trung tâm giáo dục thường xuyên
Trường Cao đẳng nghề Quảng Bình,"TDP1 - Phường Bắc Lý (sát, Đường tránh Tp Đồng Hới",17.4660634,106.5871973,Trung tâm giáo dục thường xuyên
TRƯỜNG CAO ĐẲNG KỸ THUẬT CÔNG - NÔNG NGHIỆP,"01 Trần Nhật Duật, Đức Ninh",17.4543346,106.598994,Trung tâm kỹ thuật tổng hợp - hướng nghiệp
Trung tâm du lịch Phong Nha - Kẻ Bàng,"J864+FH6, Phong NHA",17.6120931,106.3062833,Trung tâm kỹ thuật tổng hợp - hướng nghiệp
Trung Tâm Kỹ Thuật Tổng Hợp - Hướng Nghiệp Đồng Hới,"CJW7+P38, Thôn Giao Tế", ,106.6127029,Trung tâm kỹ thuật tổng hợp - hướng nghiệp
Trung Tâm Kỹ Thuật Tổng Hợp - Hướng Nghiệp Quảng Ninh,"8JCR+8XP, Thôn Xuân Dục, Xã Hiền Ninh, Huyện Quảng Ninh",17.3208478,106.642463,Trung tâm kỹ thuật tổng hợp - hướng nghiệp
Trung Tâm Kỹ Thuật Tổng Hợp Hướng Nghiệp Bố Trạch,"HGJM+MFG, QL1A, TT. Hoàn Lão",17.5816901,106.5336942,Trung tâm kỹ thuật tổng hợp - hướng nghiệp
Trường Cao đẳng Luật miền Trung,"FHJC+HF3, Đồng Phú",17.481395,106.5711646,Trường cao đẳng
Trường Cao đẳng Y tế Quảng Bình,"104 Minh Mạng, Đồng Phú",17.4754455,106.5996362,Trường cao đẳng
Trường Cao Đẳng Y Tế Quảng Bình Cơ Sở 2,"FHM9+FMR, Đường tránh Đồng Hới, Đồng Phú",17.4837364,106.5691526,Trường cao đẳng
Trung Tâm Sát Hạch Lái Xe - Cao đẳng nghề,"Đường Phùng Chí Kiên, Tổ Dân Phố 1",17.4667388,106.5857565,Trường cao đẳng
Trường Trung cấp Công nghệ - Du lịch số 10,"193 Hữu Nghị, Nam Sách",17.4697163,106.609367,Trường cao đẳng
Phòng Khám Đa Khoa-Trường Cao Đẳng Y tế Quảng Bình,"46 Hà Văn Quan, Nam Lý",17.4754659,106.5996268,Trường cao đẳng
DU HỌC AAC QUẢNG BÌNH,"FHJC+JH5 Trường Cao đẳng Luật Miền Trung, QL1A, Đồng Phú",17.4815625,106.5714375,Trường cao đẳng
Chi nhánh công ty đào tạo và cung ứng nhân lực THL JOBS Quảng Bình,"Trường cao đẳng luật miền trung, tdp6",17.4823346,106.5707572,Trường cao đẳng
Trường Trung cấp nghề Bắc Miền Trung,"QL1A, Quảng Long",17.7755779,106.4366272,Trường cao đẳng
CÔNG TNHH Châu Hương Mobile,"Hùng Vương, Chợ",17.7522548,106.4213423,Trường cao đẳng
Quán cháo Thái Hương,"FH3X+H2G, Trường Cao đẳng KT Công - Nông Nghiệp, Đức Ninh",17.4539248,106.5975534,Trường cao đẳng
Trường Đại Học Quảng Bình,"312 Lý Thường Kiệt, Đồng Phú",17.4832643,106.6058943,Trường đại học
Nhà thi đấu đa năng Đại học Quảng Bình,"FJJ4+CMH, Đồng Phú",17.4810552,106.6067385,Trường đại học
Quốc học,"FHWV+G3Q, Lý Thường Kiệt, Lộc Ninh",17.4963258,106.5927388,Trường đại học
Trường THCS Vạn Ninh,"7MHM+CCW, Vạn Ninh",17.278612,106.6835701,Trường đại học
Npp tâm an,"FH3M+CG2, Phú Vinh",17.4535167,106.5837522,Trường đại học
Ký túc xá sinh viên Đại Học Quảng Bình,"312 Lý Thường Kiệt, Đồng Phú",17.4827033,106.604909,Trường đại học
Mật ong Cường Mỵ,"Nguyễn Hữu Cảnh, thôn Trường Giang",17.1423041,106.7816079,Trường đại học
HTX DVNN&SXKT TH Thế Vũ,thôn 4,17.6571494,106.2269944,Trường đại học
TRƯỜNG THCS HOÀ TRẠCH,"HG64+MRQ, Hoà Trạch",17.5617247,106.5071125,Trường đại học
Trường trung học cơ sở Quảng Thọ,"QC3R+83C, Quang Trung, Quảng Thọ",17.7533052,106.4401388,Trường đại học
Trường Trung Học Nội Trú Trường Sơn,"6C9X+5C2, Trường Sơn",17.2178909,106.4485194,Trường đại học
Đại Lý Xốp Cắm Hoa Tươi Quảng Bình,"Ngõ 6 Nguyễn Đăng Giai, Đức Ninh",17.4403102,106.6118687,Trường đại học
Trường Tiểu học Tân Ninh,"8MMC+7WR, Tân Ninh",17.3332355,106.6722723,Trường đại học
TRẠM CÂN ĐIỆN TỬ TỐ HƯƠNG,"Hoàn Lão - Phú Định, Tây Trạch",17.5765387,106.4817032,Trường đại học
Trường THPT Dân Tộc Nội Trú,"Tiểu Khu 15, Phường Bắc Lý, Thành Phố Đồng Hới, Tỉnh Quảng Bình, Đồng Phú",17.482506,106.6036217,Trường dân tộc nội trú
Trường THPT Dân tộc nội trú Lệ Thuỷ,Mai Hạ,17.1851537,106.7839901,Trường dân tộc nội trú
Trường Trung Cấp Nghề Bình Minh Quảng Bình,"Hồ Chí Minh, Vĩnh Ninh",17.4150401,106.5969882,Trường dạy nghề
Du Học Nghề Đức Deutsch Connect Center,Lý Trạch,17.5322114,106.55738,Trường dạy nghề
Du Học Nghề HOCO,"32 Quang Trung, Đồng Hải",17.4628537,106.623934,Trường dạy nghề
Trường Trung cấp Nghề Bình Minh Quảng Bình - Cơ sở 2,Quảng Long,17.7816759,106.4131536,Trường dạy nghề
We Can English - Tiếng Anh Giao Tiếp,"401 Hà Huy Tập, Đồng Sơn",17.4462962,106.5873785,Trường dạy nghề
TÂM DUNG HẰNG Beauty Center,"21 Lê Quý Đôn, Đồng Hải",17.4771877,106.6233491,Trường dạy nghề
Trung tâm Dạy nghề và Hỗ trợ Nông dân,"Km3 Đường tránh Đồng Hới, TDP số 6",17.4768626,106.5741521,Trường dạy nghề
Trường Mầm Non Bảo An,"32B Trần Quang Diệu, Đồng Phú",17.4703195,106.5953733,Trường dạy nghề
Học Viện Hồng Tây Academy,"QL12A, Kinh Nhuận",17.7894953,106.2821427,Trường dạy nghề
Academy Học Viện Tóc Bestway,"Nam Lý, Đồng Hới",17.467228,106.5974573,Trường dạy nghề
THỜI TRANG TÓC BINBIN'S,"13A Trần Hưng Đạo, Phường Hải Thịnh",17.4708908,106.620634,Trường dạy nghề
Trường Tiểu Học Hải Đình,"62 Thanh Niên, Đồng Hải",17.4654616,106.6248524,Trường dạy nghề
Trường tiểu học Đồng Mỹ,"17 Dương Văn An, Đồng Hải",17.4727711,106.6224103,Trường dạy nghề
Trường Mẫu Giáo,"J8V4+Q9, Thôn Một",17.6445744,106.3061426,Trường giáo dưỡng
Trung Tâm Bồi Dưỡng Chính Trị TX Ba Đồn,"QC49+8HV, Đào Duy Từ, Ba Đồn",17.7558522,106.4189955,Trường giáo dưỡng
Trường THCS Ba Đồn,"QC6G+P8F, P. Ba Đồn, thị xã",17.761819,106.4257141,Trường giáo dưỡng
Công ty TNHH tư vấn giáo dục quốc tế IECS,"457 Lý Thường Kiệt, Đồng Phú",17.4838472,106.607266,Trường giáo dưỡng
Trường mầm non BIM BIM,Tiểu Khu 5,17.585866,106.526,Trường mầm non
Trường Mầm Non Quang Phú,"48 Đinh Công Tráng, Quang Phú",17.5145969,106.6059191,Trường mầm non
MẦM NON HAPPY KIDS MONTESSORI,"Khu đô thị Dinh Mười 3, thôn, Dinh Mười",17.3682339,106.6801422,Trường mầm non
Mầm non KOHARU,"FJG8+75V, Lý Nam Đế, Phường Hải Thành",17.4757451,106.6154305,Trường mầm non
Trường mầm non Paris School,"Lý Văn Phức, Đồng Phú",17.4797594,106.5986391,Trường mầm non
Trường Mầm non song ngữ An Sinh,"06 Nguyễn Sáng, Phường Hải Thịnh",17.4703414,106.613261,Trường mầm non
Trường mầm non Vĩnh Ninh,"CJ86+MX9, Vĩnh Ninh",17.4165021,106.6124831,Trường mầm non
Trường Mầm Non Đông Sơn,"J9FV+GHV, Đồng Sơn",17.6238596,106.3939251,Trường mầm non
Trường Mầm Non Vạn Trạch,"JF5H+QMH, Vạn Trạch",17.6093695,106.4792597,Trường mầm non
Trường Mầm Non Ba Đồn,"20 Đ. Lâm Úy, Ba Đồn",17.7554104,106.420916,Trường mầm non
TRƯỜNG MẦM NON QUẢNG XUÂN - CƠ SỞ THANH BÌNH,"RC3R+QWX, Quảng Xuân",17.8044735,106.4424503,Trường mầm non
Mầm non tư thục sunny,"12 Đường Hai Bà Trưng, Phường Hải Thành",17.4795815,106.6185663,Trường mầm non
Trường Mầm Non Hàm Ninh CS2,"Võ Duy Hàm, Hàm Ninh",17.3564576,106.6379228,Trường mầm non
Trường mầm non thôn Pháp Kệ,"Q9JW+Q7H, Pháp Kệ",17.7818356,106.3957562,Trường mầm non
Trường Mầm Non Xuân Ninh,"Xuân Dục, Xuân Ninh, Quảng Ninh",17.3173217,106.6357433,Trường mầm non
Trường mần non An Ninh cơ sở 2,"7JRX+HQQ, An Ninh",17.2914556,106.6494379,Trường mầm non
Trường mầm non An Thuỷ - cơ sở Lộc Hạ,"6QJ7+6R, An Thuỷ",17.2296027,106.7655598,Trường mầm non
Trường Mầm Non Lâm Trạch,"M7MH+FG, thôn 2",17.6836587,106.2788223,Trường mầm non
Trường Mầm Non Paris - Cơ sở 2,"FH4W+872, Triệu Quang Phục, Đức Ninh",17.4557722,106.5956511,Trường mầm non
Trường Mầm Non Lý Hòa,"JGRC+RFJ, Hải Trạch",17.6420875,106.5211542,Trường mầm non
Trường mầm non Đồng Sơn,"234 Lý Thái Tổ, Đồng Sơn",17.4450905,106.5877487,Trường mầm non
Trường mầm non Phú Định,"HCMQ+8M6, Phú Định",17.5834669,106.439091,Trường mầm non
Mầm non trung tâm phường Bắc Lý,"FHGV+CWF, Nguyễn Công Hoan, Đồng Phú",17.4760625,106.5948124,Trường mầm non
Trường Mầm non Sơn Thủy,"6PH4+XPM, Hoàng Đàm",17.2299605,106.7067881,Trường mầm non
Trường mầm non Quảng Thuận,"PCHQ+WHW, xóm Nam",17.7298666,106.4389552,Trường mầm non
Trường Mầm non Phú Thủy,"5QQ7+23C, Thạch Bàn",17.1875697,106.7626539,Trường mầm non
Trường mầm non Đồng Phú,"FJ89+GH9, Phường Hải Thịnh",17.4661075,106.6189716,Trường mầm non
Trường mầm non Đồng Mỹ,"FJGF+856, Đồng Hải",17.4757813,106.6227954,Trường mầm non
Trường mầm non Hoa Hồng,"4 Lê Trực, Đồng Hải",17.4650145,106.6250489,Trường mầm non
Trường mầm non Kitty,"FJH8+HQQ, Phường Hải Thành",17.4790314,106.6169914,Trường mầm non
Trường Mầm Non Bắc Lý 2,"17 F325, Đồng Phú",17.4846985,106.5990476,Trường mầm non
Trường Mầm Non Nam Lý,"FJ94+85X, Nguyễn Tri Phương, Nam Sách",17.4683727,106.6054762,Trường mầm non
Trường mầm non Đức Ninh Đông,"FJ29+MHJ, Lê Lợi, Đức Ninh Đông",17.4517112,106.6188866,Trường mầm non
Mầm non Hồng Nhung,"QC3C+WXW, Đ. Phan Long, Ba Đồn",17.7548864,106.4224912,Trường mầm non
Trường Mầm non Sao Mai,"FJ6C+FQR, Đường 30/4, Đồng Hải",17.4612393,106.6218752,Trường mầm non
Trường Mầm Non Tân Thượng,"956P+832, Thượng Trạch",17.3607646,106.1851385,Trường mầm non
Trường Mầm non Hải Thành,"FJJ9+JRG, Đ. Lê Thành Đồng, Bắc Lý",17.4815745,106.619565,Trường mầm non
Trường Mầm Non Phong Nha,"J88G+QG, Cù Lạc 1",17.6170614,106.32616,Trường mầm non
Trường Mầm Non Xã Phú Trạch,"JGQ2+7C5, Unnamed, Road",17.6381453,106.5011073,Trường mầm non
Trường Mầm Non Phú Hải,"CJRJ+9XX, Hoàng Hối Khanh, Phú Hồng",17.4409932,106.6324969,Trường mầm non
Trường Mầm Non Tư Thục Hoa Sen,"66/10 Hữu Nghị, Đồng Phú",17.4796383,106.603332,Trường mầm non
Trường Mầm Non Liên thủy ( Cụm Đông thành ),"6RJ2+HH3, Liên Thuỷ",17.2314737,106.8014025,Trường mầm non
Trường mầm non Xuân Bồ,"6R35+H6C, Uẩn Áo",17.203905,106.8079255,Trường mầm non
Trường mầm non hữu cung,"GH4W+723, Lộc Ninh",17.5057124,106.5951662,Trường mầm non
Trường Mầm non Đức Ninh,"282 Lê Lợi, Đức Ninh",17.4432708,106.6106565,Trường mầm non
Trường Mầm Non Quảng Long,"QC67+5WH, Hùng Vương, Quảng Long",17.7604372,106.4148563,Trường mầm non
Trường mầm non Tân Ninh,Hỏa Lò,17.3414952,106.6653659,Trường mầm non
Trường Mầm Non Xã Bảo Ninh,"392 Nguyễn Thị Định, Bảo Ninh",17.4474937,106.6411764,Trường mầm non
Trường mầm non bình minh,"FGJ5+7P4, TT. NT Việt Trung",17.4806468,106.50932,Trường mầm non
MẦM NON SONG NGỮ ÁNH DƯƠNG,"7Q5V+MMH, QL1A, Thanh Thuỷ",17.259003,106.794455,Trường mầm non
Trường mầm non Thuận Đức,"FH86+G4C, Đồng Sơn",17.4662418,106.5603237,Trường mầm non
Trường Mầm Non Xã Hải Trạch,"JGRC+WM7, Hải Trạch",17.6422357,106.5216808,Trường mầm non
Trường mầm non Lộc Ninh,"FHWW+W3G, Lộc Ninh",17.4973277,106.5951926,Trường mầm non
Trường Mẫu Giáo Sos,"FJG4+HRH, Trần Quang Khải, SOS",17.4764424,106.6071224,Trường mầm non
Trường Mầm non Lương Ninh,"CJ6V+Q57, Văn La",17.4118921,106.6430085,Trường mầm non
Trường mầm non Châu Hoá,"Q6WG+X37, Lâm Lang",17.7975107,106.2241506,Trường mầm non
Trường mầm non thôn 4,"R899+RPR, chòm 4",17.8196245,106.3192775,Trường mầm non
Trường mầm non Quảng Long cs2,"QC9F+6R, Trường Sơn",17.7680558,106.4245253,Trường mầm non
Trường Mầm Non Khương Hà,"J9F9+75H, Hưng Trạch",17.6231965,106.3679877,Trường mầm non
Trường THCS-THPT Chu Văn An,"226 Quang Trung, Phú Hải",17.4497463,106.6295533,Trường phổ thông có nhiều cấp học
Trường THPT Nguyễn Trãi,"Thôn 1 Phúc Đồng, Phúc Trạch",17.6495504,106.2794277,Trường phổ thông có nhiều cấp học
Trường THPT Nguyễn Bỉnh Khiêm,Quảng Phương,17.7939831,106.3988798,Trường phổ thông có nhiều cấp học
Trường THPT Trần Phú,"ĐT2B, Hạ Trạch",17.6998774,106.4399817,Trường phổ thông có nhiều cấp học
Trường THPT Lê Hồng Phong,"P9HH+J5C, Thanh Tân",17.7306551,106.3770398,Trường phổ thông có nhiều cấp học
Trường THPT Chuyên Võ Nguyên Giáp,"FJG4+7RG, Nam Lý",17.4756954,106.6070772,Trường phổ thông có nhiều cấp học
Hệ thống giáo dục Chu Văn An - Quảng Bình,"FJ87+PMV, Phường Hải Thịnh",17.466824,106.6141696,Trường phổ thông có nhiều cấp học
Trường THPT Lê Quý Đôn - Quảng Bình,tiểu khu 2,17.5765314,106.5337067,Trường phổ thông có nhiều cấp học
Trường THPT Bán Công Nam Quảng Trạch,"P9RM+W82, Unnamed, Road",17.7422729,106.3832532,Trường phổ thông có nhiều cấp học
Trường THCS Thuận Đức,Vũ Ngọc Phạ,17.4846074,106.5499077,Trường phổ thông có nhiều cấp học
Trường THPT Hùng Vương - Quảng Bình,"JCGG+8HJ, Cự Nẫm",17.6258303,106.4263927,Trường phổ thông có nhiều cấp học
Trường THPT Phan Đình Phùng,"14 Xuân Diệu, Nam Lý",17.4649371,106.5984261,Trường phổ thông có nhiều cấp học
"Trường THPT Phan Bội Châu,Phong Hóa,Tuyên Hóa,Quảng Bình","R5J9+P45, Phong Hoá",17.8318146,106.1679421,Trường phổ thông có nhiều cấp học
Trường THPT Ngô Quyền - Quảng Bình,"34 Trần Hưng Đạo, Tiểu khu 2",17.5764876,106.5317461,Trường phổ thông có nhiều cấp học
Trường THPT Lê Trực - Quảng Bình,"Q7X3+F6V, Tiến Hoá",17.7987264,106.2530484,Trường phổ thông có nhiều cấp học
THPT Ninh Châu,"9MF8+8QX, thôn Thượng",17.3733788,106.6669955,Trường phổ thông có nhiều cấp học
Trường Tiểu Học Số 1 An Ninh,"7JRW+VGP, An Ninh",17.2922084,106.6463263,Trường phổ thông có nhiều cấp học
Trường THPT Lương Thế Vinh - Quảng Bình,"16 Hùng Vương, Ba Đồn",17.7548903,106.4284772,Trường phổ thông có nhiều cấp học
Trường THCS số 2 Bắc Lý,"FHMW+9RQ, Đồng Phú",17.4834485,106.5970558,Trường phổ thông có nhiều cấp học
Trường THCS số 1 Đồng Sơn,"Trường THCS số 1 Đồng Sơn, Lê Hồng Phong, Đồng Sơn",17.4486612,106.5856674,Trường phổ thông có nhiều cấp học
Trường THCS số 1 Bắc Lý,"81 Phan Đình Phùng, Đồng Phú",17.4716462,106.5915424,Trường phổ thông có nhiều cấp học
Trường THCS Đồng Phú,"52 Đường Hai Bà Trưng, Phường Hải Thịnh",17.4750378,106.6175451,Trường phổ thông có nhiều cấp học
Trường Tiểu học Đồng Phú,"FJF8+PQH, Đường Hai Bà Trưng, Phường Hải Thịnh",17.4743123,106.6169807,Trường phổ thông có nhiều cấp học
Trường Tiểu học Đức Ninh,"267 Lê Lợi, Đức Ninh",17.4454422,106.612467,Trường tiểu học
Trường Tiểu học số 3 Nam Lý,"Đường Tạ Quang Bửu, Nam Lý",17.4648884,106.5968044,Trường tiểu học
Trường tiểu học Bắc Nghĩa,"Tiểu khu 1, Chu Văn An, Bắc Nghĩa",17.4463106,106.5930987,Trường tiểu học
Trường Tiểu Học Sơn Thủy,"6PG2+R5F, Sơn Thuỷ",17.227084,106.7005138,Trường tiểu học
Trường tiểu học Đức Ninh Đông,"FJ29+XQQ, Lê Lợi, Đức Ninh Đông",17.45246,106.6195529,Trường tiểu học
Trường Tiểu Học Lệ Ninh,"6MHM+2HP, TT. NT Lệ Ninh",17.2275571,106.6839408,Trường tiểu học
Trường Tiểu học số 1 Thanh Trạch,Thanh Trạch,17.692713,106.4841751,Trường tiểu học
Trường Tiểu Học Quảng Long,"QC67+JP3, Hùng Vương, Ba Đồn",17.7615107,106.414302,Trường tiểu học
Trường tiểu học số 1 Nam Lý,"FHFX+3JQ, Nam Lý",17.4727076,106.5991093,Trường tiểu học
Trường Tiểu học số 2 Thanh Trạch,"MFXP+VF8, Thanh Gianh",17.6996604,106.4861855,Trường tiểu học
Trường Tiểu học Chu Văn An,"FJ87+M93, Trần Hưng Đạo, Phường Hải Thịnh",17.4666384,106.6134095,Trường tiểu học
Trường tiểu học số 1 Đồng Sơn,"Tiểu khu 2, Lý Thái Tổ, Đồng Sơn",17.4451428,106.5859276,Trường tiểu học
Trường tiểu học Quang Phú,"GJ75+8P7, Thôn Tân Phú",17.5132944,106.6092973,Trường tiểu học
Trường tiểu học Vạn Ninh,"7M77+6RJ, Vạn Ninh",17.2630795,106.6645053,Trường tiểu học
Trường Tiểu học số 1 Võ Ninh,"9MM4+PR8, QL1A, Võ Ninh",17.3842779,106.6570836,Trường tiểu học
Trường tiểu học số 2 Bắc Lý,"79 Phan Đình Phùng, Đồng Phú",17.4718549,106.5919547,Trường tiểu học
Trường Tiểu học số 1 Bắc Lý,"FHMW+972, Đồng Phú",17.48339,106.5956449,Trường tiểu học
Trường Tiểu Học Số 2 Ba Đồn,"125 Chu Văn An, thị xã",17.7575711,106.4239275,Trường tiểu học
Trường Tiểu Học Thanh Thủy,"7Q6R+FPC, Thôn Thanh Mỹ",17.2611833,106.7917647,Trường tiểu học
Trường Tiểu Học Số 1 Hồng Thủy,"7QP5+6FQ, QL1A, Hồng Thuỷ",17.2855786,106.7587417,Trường tiểu học
Trường Tiểu học Mai Thuỷ,"5QPJ+2RV, Xuân Mai",17.1851058,106.782045,Trường tiểu học
Trường Tiểu Học Cơ Sở Hoà Trạch,"HG75+M94, Hoà Trạch",17.5641539,106.508386,Trường tiểu học
Trường Tiểu học Trung Trạch,"HGQP+94X, Trung Trạch",17.588499,106.5353589,Trường tiểu học
Trường Tiểu học Hải Thành,"80 Đ. Lê Thành Đồng, Bắc Lý",17.4843966,106.6213448,Trường tiểu học
Trường Tiểu Học Hiền Ninh,Hiền Ninh,17.3313062,106.6523773,Trường tiểu học
Trường Tiểu Học Phú Trạch,"JGJ4+752, Phú Trạch",17.6306308,106.50538,Trường tiểu học
Trường tiểu học Lý Trạch,"GHRF+88R, Thôn 2",17.5408933,106.5732625,Trường tiểu học
Trường Tiểu học số 2 Nam Lý,"FJ73+JCC, Nam Sách",17.4640529,106.6034998,Trường tiểu học
Trường Tiểu học Quảng Phương A,"Q9MW+Q75, Pháp Kệ",17.7843956,106.3957214,Trường tiểu học
Trường tiểu học Quảng Thuận,"PCQQ+286, Tổ dân phố Hội, phường Quảng Thuận, Quảng Thuận",17.7375065,106.4384831,Trường tiểu học
Trường Tiểu Học Số 1 Gia Ninh,"8PM3+F3R, QL1A, Gia Ninh",17.3337364,106.7026305,Trường tiểu học
Trường Tiểu học Số 1 Ba Đồn,"QC3H+F4M, Hùng Vương, Ba Đồn",17.7537054,106.4277966,Trường tiểu học
Trường Tiểu Học Phú Định,"Phú Định, Bố Trạch",17.5834856,106.4361702,Trường tiểu học
Trường Tiểu Học Quảng Phong,"QC32+R23, Lũ Phong",17.7545132,106.4000328,Trường tiểu học
Trường tiểu học Nhân Trạch,"GHVP+6J, Nhân Trạch",17.5431194,106.5865405,Trường tiểu học
Trường Tiểu học Số 2 Hoàn Lão,"HGMP+9F2, TT. Hoàn Lão",17.5833879,106.5361267,Trường tiểu học
Trường Tiểu học Số 2 Bảo Ninh,"FJ9M+WMF, Sa Động",17.4698084,106.6341614,Trường tiểu học
Trường tiểu học Phú Hải,"287A Quang Trung, Phú Hồng",17.4407831,106.6341393,Trường tiểu học
Trường Tiểu Học Hoa Thuỷ,"7P84+2FW, Hồ Chí Minh, Hoa Thuỷ",17.2651193,106.7062065,Trường tiểu học
Trường TH&THCS số 1 Trường Thủy,"Nguyễn Hữu Cảnh, Trường Thủy",17.1456234,106.7874376,Trường tiểu học
Trường tiểu học Quảng Liên,"Q8H7+Q77, Liên Trường",17.7794174,106.3131654,Trường tiểu học
Trường Tiểu học Long Sơn,"6F92+6RC, Trường Sơn",17.2180153,106.452053,Trường tiểu học
Trường Tiểu Học Vạn Trạch,"JF4Q+JQ3, Vạn Trạch",17.6064923,106.4894266,Trường tiểu học
Trường Tiểu học Long Sơn ( điểm Nội trú),"6C8W+GXC, Trường Sơn",17.216305,106.447388,Trường tiểu học
Trường Tiểu Học Số 1 Xuân Trạch - Bố Trạch,"M65G+QHC, Xuân Trạch",17.6594388,106.2263271,Trường tiểu học
trường tiểu học Xuân Thủy,"6R52+F5C, Xuân Thuỷ",17.2086757,106.8003994,Trường tiểu học
Trường Tiểu học Văn Thủy,"4RP5+29Q, Ba Canh",17.1350228,106.8086068,Trường tiểu học
trường tiểu học Bắc Trạch,"MFX3+GR8, Bắc Trạch",17.6987769,106.4546029,Trường tiểu học
Trường Tiểu Học Hoà Trạch,"GGJ2+V35, Unnamed Road, Hoà Trạch",17.5321267,106.5002364,Trường tiểu học
Trường tiểu học số 2 Cự Nẫm,"J9FV+H3, Nam Nẫm",17.6239997,106.3926533,Trường tiểu học
Trường Tiểu học Quảng Tân,"Q925+PHV, Tân Tiến",17.7518622,106.3589323,Trường tiểu học
Trường tiểu học số 1 Hoàn Lão,"HGQG+3QM, TT. Hoàn Lão",17.5877008,106.5270096,Trường tiểu học
Trường tiểu học Xuân Mai,"R678+8F, Đông Hòa",17.8133281,106.2161743,Trường tiểu học
Trường Trung Học Cơ Sở Hải Trạch,"Trạm Y Tế Cầu Lý Hòa, Ngoại Hòa, Hải Trạch, Bố Trạch Cầu Lý Hòa, Hải Trạch",17.6432439,106.5196704,Trường trung học cơ sở
Trường THCS Vĩnh Ninh,"Vĩnh Ninh, Quảng Ninh",17.4029271,106.6199395,Trường trung học cơ sở
Trung học cơ sở Quảng Xuân,"QCXM+Q42, Quảng Xuân",17.799376,106.4327586,Trường trung học cơ sở
Trường trung học cơ sở Quảng Hưng,"RCCJ+M42, Unnamed Road, Quảng Hưng",17.8216381,106.4302614,Trường trung học cơ sở
Trường Thcs Hải Ninh,"Hiền Trung, Hải Ninh, Quảng Ninh",17.3657436,106.7313166,Trường trung học cơ sở
Trường THCS Võ Ninh,"9MM5+G3G, Võ Ninh",17.3838131,106.6577037,Trường trung học cơ sở
Trường THCS Mai Hóa,"Thôn Xuân Hóa, Mai Hoá",17.815323,106.195034,Trường trung học cơ sở
Trường THCS An Ninh,"8M24+GH2, Kim Nai",17.3012599,106.6563932,Trường trung học cơ sở
Trường THCS Quảng Lưu,"R98J+687, Văn Chung",17.8154921,106.380817,Trường trung học cơ sở
Trường Trung Học Cơ Sở Trung Trạch,"HGQP+98V, QL1A, Trung Trạch",17.588493,106.5358082,Trường trung học cơ sở
Trường Thcs Lệ Ninh,"Nông trường Lệ Ninh, Lệ Thủy",17.2287626,106.6891132,Trường trung học cơ sở
Trường THCS Bảo Ninh,"Thôn Nguyễn Thị Định, Trung Bính",17.461981,106.6374845,Trường trung học cơ sở
Trường Thcs Gia Ninh,"8MWV+86X, QL1A, Gia Ninh",17.3459237,106.69305,Trường trung học cơ sở
Trường THCS Quách Xuân Kỳ,"HGMJ+WRG, TT. Hoàn Lão",17.5848091,106.532076,Trường trung học cơ sở
Trường THCS Quảng Tân,"Q925+PWX, Unnamed Road, Quảng Tân",17.7518515,106.3599552,Trường trung học cơ sở
Trường THCS Đức Ninh,"269 Lê Lợi, Đức Ninh",17.4454469,106.6119904,Trường trung học cơ sở
Trường tiểu học và trung học cơ sở kim thủy,"4Q7J+MV, Cây Bông 1",17.1141309,106.7826586,Trường trung học cơ sở
Trường THCS Sơn Thủy,"6PH2+293, Phú Trinh",17.2275084,106.7009199,Trường trung học cơ sở
Trường THCS Đức Hóa,"Đức Hóa, Tuyên Hóa",17.8233512,106.1286901,Trường trung học cơ sở
Trường THCS Phú Hải,"CJVJ+HHW, Quang Trung, Phú Hải",17.443977,106.6314621,Trường trung học cơ sở
Trường THCS Tân Ninh,"8MPC+C5G, Thế Lộc",17.3360659,106.6704577,Trường trung học cơ sở
Trường THCS Quảng Lộc,"P9MH+X9M, Vĩnh Phước",17.734966,106.3784306,Trường trung học cơ sở
Trường THCS số 2 Nam Lý,"FH6X+R2J, Nam Lý",17.4620995,106.5975211,Trường trung học cơ sở
Trường THCS Quảng Thạch,"R982+3W8, Minh Sơn",17.8151553,106.3523354,Trường trung học cơ sở
Trường THCS Số 1 Nam Lý,"FHFX+8P5, Nam Lý",17.4732547,106.5993555,Trường trung học cơ sở
Trường THCS Quảng Thanh,"Q96J+PJ7, Quảng Thanh",17.7617878,106.3815466,Trường trung học cơ sở
Trường THCS Xuân Ninh,"Xuân Ninh, Quảng Ninh",17.3231024,106.6499264,Trường trung học cơ sở
Trường THCS An Thuỷ,"6QJ7+Q26, An Thuỷ",17.2323275,106.7620106,Trường trung học cơ sở
THCS Hiền Ninh,"8MJ3+M38, Hiền Ninh",17.3317524,106.6528996,Trường trung học cơ sở
Trường THCS Quảng Tiến,"R9MG+J6C, Quảng Tiến",17.8340638,106.3755186,Trường trung học cơ sở
Trường THCS Bắc Nghĩa,"CHWV+2C9, Lý Nhân Tông, Bắc Nghĩa",17.4450292,106.5936123,Trường trung học cơ sở
Trường THCS Sơn Trạch,"J878+M6W, Cù Lạc 1",17.6141663,106.3155868,Trường trung học cơ sở
Trường THCS Quảng Hòa,"301 Nguyễn Chí Thanh, Thanh Tân",17.7312625,106.3777031,Trường trung học cơ sở
Trường trung học cơ sỡ Quảng Phương,"Q9MW+345, Quảng Phương",17.782648,106.3953717,Trường trung học cơ sở
Trường THCS Hải Đình,"FJ6F+58C, Đồng Hải",17.4604446,106.6232523,Trường trung học cơ sở
Trường THCS Đồng Hải.,"5 Nguyễn Du, Đồng An",17.4736205,106.6229524,Trường trung học cơ sở
Trường THCS Lộc Ninh,"GH2X+VQJ, Cảnh Dương, Lộc Ninh",17.5022238,106.5993876,Trường trung học cơ sở
Trường THCS Đức Ninh Đông,"FJ39+2X6, Lê Lợi, Đức Ninh Đông",17.4525454,106.619895,Trường trung học cơ sở
Trường Tiểu học và Trung học cơ sở Quảng Trường,"Q994+GV4, Liên Trường",17.7687618,106.3572024,Trường trung học cơ sở
Trường THCS Nghĩa Ninh,"CHPJ+67M, Thôn, Phương Xuân",17.4355779,106.5806634,Trường trung học cơ sở
Trường Tiểu học và Trung học cơ sở Quảng Hải,"Q93F+R39, Văn Đông",17.7545266,106.3727292,Trường trung học cơ sở
Trường THCS Lộc Thuỷ,"6QQ5+3MC, An Xá",17.2376991,106.7591351,Trường trung học cơ sở
Trường THCS Hải Thành,"41 Linh Giang, Bắc Lý",17.4827654,106.6220798,Trường trung học cơ sở
Nhà thi đấu thể thao THCS Hải Đình,"70 Lê Lợi, Hải Đình",17.460138,106.6226056,Trường trung học cơ sở
Trường Tiểu học và Trung học cơ sở Quảng Thủy,"P9J2+MRM, Thôn Xóm Trung, Xã Quảng Thủy, Huyện Quảng Trạch, Tỉnh Quảng Bình, Quảng Thuỷ",17.7317248,106.3520316,Trường trung học cơ sở
Trường Trung Cấp Nghề Bình Minh Quảng Bình - Cơ sở 3,"DT16, Cam Thuỷ",17.2507619,106.8118159,Trường trung học cơ sở
Trường THCS-THPT Dương Văn An,"7Q5W+P37, QL1A, Thanh Thuỷ",17.259182,106.796422,Trường trung học phổ thông
Trường THPT Nguyễn Hữu Cảnh,"8MV5+V94, Hiền Ninh",17.3446417,106.6584492,Trường trung học phổ thông
Trường THPT Quảng Ninh,"8JCV+3XG, Thôn Xuân Dục, Xã Hiền Ninh, Huyện Quảng Ninh, Xuân Ninh",17.3201916,106.6449549,Trường trung học phổ thông
Trường THPT Đào Duy Từ,"147 đào duy từ, Đồng An",17.4721913,106.6233345,Trường trung học phổ thông
Trường THCS - THPT Việt Trung,TT. NT Việt Trung,17.4700582,106.5060797,Trường trung học phổ thông
Trường THPT Nguyễn Chí Thanh,"6QHG+QPM, TT. Kiến Giang",17.2294589,106.7767825,Trường trung học phổ thông
Trường THPT Hoàng Hoa Thám,"6MMV+Q2V, Sơn Thuỷ",17.2344862,106.6925602,Trường trung học phổ thông
thpt số 4 bố trạch,Phúc Trạch,17.6528937,106.3110622,Trường trung học phổ thông
Trường THPT Lệ Thuỷ,"6Q9R+8M7, Xuân Thuỷ",17.2175509,106.7914557,Trường trung học phổ thông
Trường THPT Lê Lợi - Quảng Bình,"P9RM+WCF, Quảng Lộc",17.7423782,106.3835317,Trường trung học phổ thông
Kí túc xá THPT chuyên Võ Nguyên Giáp,"FJF4+PPQ, Nam Lý",17.4742507,106.6068635,Trường trung học phổ thông
Trường PTTH số 2 Lệ Ninh,"8MW5+4C4, Hiền Ninh",17.3452544,106.6585676,Trường trung học phổ thông
Trường PTDT Nội Trú Bố Trạch,Thượng Trạch,17.3630982,106.1868723,Trường trung học phổ thông
Trường PTDT BÁN TRÚ TH& THCS NGÂN THUỶ,"5JJ9+JF3, Ngân Thuỷ",17.1814147,106.618557,Trường trung học phổ thông
Trường THCS Vạn Trạch,"JF8G+5HV, ĐT561, Vạn Trạch",17.6154752,106.4764225,Trường trung học phổ thông
Trường THCS Tây Trạch,"HFJX+GXJ, Thôn Chùa",17.5813283,106.4998776,Trường trung học phổ thông
Trường TH&THCS Hưng Trạch,Hưng Trạch,17.593153,106.362583,Trường trung học phổ thông
Trường THCS Liên Trạch,"M99R+97C, Liên Trạch",17.6684367,106.3906165,Trường trung học phổ thông
Trường THCS Hàm Ninh,"9J5P+JX3, Trần Xá",17.3590179,106.6374341,Trường trung học phổ thông
Trường THCS Trung Trạch,"HHR3+V2C, 4, Đội 4",17.5921967,106.5525145,Trường trung học phổ thông
Trường THCS Quảng Liên,"Q8W8+9Q8, Liên Trường",17.7959116,106.3169479,Trường trung học phổ thông
Trường THCS Quang Phú,"GJ63+WXM, Đội Cấn, Lộc Ninh",17.5123368,106.6049096,Trường trung học phổ thông
