name,address,lat,lng
Cửa hàng Xăng dầu Petrolimex Số 15,"5WHM+XRP, KCN, Long Hồ, Vĩnh Long",10.1799667,105.9345654
Cửa hàng Xăng dầu Petrolimex Số 31,"6WPJ+GX2, Tân Hạnh, Long Hồ, Vĩnh Long",10.2362544,105.9323986
Cửa hàng Xăng dầu Petrolimex Số 16,"6W7Q+GJ8, QL1A, Tân Hạnh, Long Hồ, Vĩnh Long",10.213778,105.9390821
Cửa hàng Xăng dầu Petrolimex Số 23,"23 Trần Đại Nghĩa, Phường 4, Vĩnh Long",10.2397803,105.9836828
Cửa hàng Xăng dầu Petrolimex Số 03,"7X37+W3W, Phạm Hùng, Vĩnh Long",10.2548567,105.9627147
Cửa hàng Xăng dầu Petrolimex Số 06,"641 Trần Phú, Phường 4, Vĩnh Long",10.245506,105.9833261
Cửa hàng Xăng dầu Petrolimex Số 32,"6XR2+FXX, QL53, Phường 8, Vĩnh Long",10.241239,105.9524918
Cửa hàng Xăng dầu Petrolimex Số 68,"71/22A Đ. Phó Cơ Điều, Phường 3, Vĩnh Long",10.2344825,105.9658838
Cửa hàng Xăng dầu Petrolimex Số 17,"7X24+CQ3, Phường 9, Vĩnh Long",10.2510027,105.9569074
Cửa hàng Xăng dầu Petrolimex Số 27,"5W4F+2VP, QL1A, Hoà Phú, Long Hồ, Vĩnh Long",10.1550931,105.9246905
Cửa hàng Xăng dầu Petrolimex Số 37,"7X53+8J4, Phạm Hùng, Vĩnh Long",10.2582532,105.9540739
Cửa hàng Xăng dầu Petrolimex tân vạn lợi,"6W2V+42J, QL1A, Tân Hạnh, Long Hồ, Vĩnh Long",10.2003282,105.9425225
Cửa hàng Xăng dầu Petrolimex Số 10,"ĐT902, An Phước, Mang Thít, Vĩnh Long",10.2335597,106.1057941
Cửa hàng Xăng dầu Petrolimex Số 2,"2A Nguyễn Huệ, Phường 1, Vĩnh Long",10.2544523,105.9629299
Cửa hàng Xăng dầu Petrolimex Số 41,"54XR+P7X, ĐT902, An Phước, Mang Thít, Vĩnh Long",10.1993514,106.1407329
Cửa hàng Xăng dầu Petrolimex Số 25,"Phú Quới, Long Hồ, Vĩnh Long",10.1614508,105.9227648
Cửa hàng Xăng dầu Petrolimex Số 13,"7W94+232, QL80, Tân Hoà, Vĩnh Long",10.2675069,105.9051531
Cửa hàng Xăng dầu Petrolimex Số 01,"210A Lê Thái Tổ, Phường 1, Vĩnh Long",10.2548109,105.9635377
Cửa hàng Xăng dầu Petrolimex Số 30,"52C9+7RW, QL53, Long An, Long Hồ, Vĩnh Long",10.1707466,106.0195887
Cửa hàng Xăng dầu Petrolimex Số 18,"52CC+7PP, ĐT903, Long An, Long Hồ, Vĩnh Long",10.1707077,106.0218406
Cửa hàng Xăng dầu Petrolimex Số 35,"5WRQ+69M, Phước Long, Long Hồ, Vĩnh Long",10.1905846,105.9384286
Cửa hàng Xăng dầu Petrolimex Số 75,"33/5F Phạm Thái Bường, Phường 4, Vĩnh Long",10.2413572,105.9801662
Cửa hàng Xăng dầu Petrolimex Số 74,"67/25E, Đ. Phó Cơ Điều, Phường 4, Vĩnh Long",10.2336742,105.9816313
Cửa hàng Xăng dầu Petrolimex Số 09,"4X5C+J5W, Mỹ Lộc, Tam Bình, Vĩnh Long",10.1091157,105.9704384
Cửa hàng Xăng dầu Petrolimex Số 62,"52Q9+748, QL53, tt. Long Hồ, Long Hồ, Vĩnh Long",10.1881193,106.017847
Cửa hàng Xăng dầu Petrolimex Số 19,"635P+GVX, Nhơn Phú, Mang Thít, Vĩnh Long",10.2088668,106.0872459
Cửa hàng Xăng dầu Petrolimex Số 22,"67/24h Đ. Phó Cơ Điều, Phường 3, Vĩnh Long",10.2318677,105.9847403
Cửa hàng Xăng dầu Petrolimex Số 04,"30E QL80, Tân Hội, Vĩnh Long",10.2659653,105.8980325
Cửa hàng Xăng dầu Petrolimex Số 11,"ĐT909 An Hòa, tt. Long Hồ, Long Hồ, Vĩnh Long",10.176754,105.9837479
Cửa hàng Xăng dầu Petrolimex Số 08,"6WRQ+RWW, Đ. Phan Văn Đáng, Trường An, Long Hồ, Vĩnh Long",10.2421153,105.9398425
Cửa hàng Xăng dầu Petrolimex Số 63,"6X6W+F59, QL53, Long Phước, Long Hồ, Vĩnh Long",10.2111085,105.9954151
Cửa hàng Xăng dầu Petrolimex Số 21,"355W+JXW, Trung Ngãi, Vũng Liêm, Vĩnh Long",10.0591127,106.1974646
Cửa hàng Xăng dầu Petrolimex Số 14,"XW9H+H88, QL54, Trà Ôn, Vĩnh Long",9.968917,105.928316
Cửa hàng Xăng dầu Petrolimex Số 24,"6XMV+RGC, Thanh Đức, Long Hồ, Vĩnh Long",10.2345546,105.9937628
Cửa hàng Xăng dầu Petrolimex Số 42,"54F5+WRP, Cái Nhum, Mang Thít, Vĩnh Long",10.1748456,106.1095634
Cửa hàng Xăng dầu Petrolimex Số 76,"6W7X+M4C, Đinh Tiên Hoàng, Tân Hạnh, Long Hồ, Vĩnh Long",10.2141997,105.9477525
Cửa hàng Xăng dầu Petrolimex Số 57,"X35J+6JW, Hựu Thành, Trà Ôn, Vĩnh Long",9.9581168,106.0815717
Cửa hàng Xăng dầu Petrolimex Số 70,"6223+H6M, QL53, tt. Long Hồ, Long Hồ, Vĩnh Long",10.2014758,106.0030424
Cửa hàng Xăng dầu Petrolimex Số 29,"2X23+6R2, ĐT904, Loan Mỹ, Tam Bình, Vĩnh Long",10.0005021,105.9545184
Cửa hàng Xăng dầu Petrolimex Số 60,"197 Mười Bốn Tháng Chín, Phường 5, Long Hồ, Vĩnh Long",10.2580381,105.9995259
Cửa hàng Xăng dầu Petrolimex Số 45,"Tổ 20 ấp Thạnh An, Hoà Thạnh, Tam Bình, Vĩnh Long",10.1418174,106.0367429
Cửa hàng Xăng dầu Petrolimex Số 56,"XW7C+753, Trà Ôn, Vĩnh Long",9.9631474,105.9204215
Cửa hàng Xăng dầu Petrolimex Số 48,"QL53, Hiếu Phụng, Vũng Liêm, Vĩnh Long",10.086482,106.1108792
Cửa hàng Xăng dầu Petrolimex Số 7,"4WM8+VX7, QL1A, Song Phú, Tam Bình, Vĩnh Long",10.1346655,105.9174212
Cửa hàng Xăng dầu Petrolimex Số 44,"3X5Q+FWF, ĐT904, Mỹ Thạnh Trung, Tam Bình, Vĩnh Long",10.0586789,105.989806
Cửa hàng Xăng dầu Petrolimex Số 26,"43HP+W3G, Tân An Hội, Mang Thít, Vĩnh Long",10.1297847,106.0852591
"""Petrolimex Vĩnh long"" CỬA HÀNG 28","Tổ 05 ấp Thân Bình, Bình Phước, Mang Thít, Vĩnh Long 85000",10.1670451,106.0438336
Cửa hàng Xăng dầu Petrolimex Số 20,"52W8+428, ĐT909, Hoà Tịnh, Mang Thít, Vĩnh Long",10.1952857,106.0150824
Cửa hàng Xăng dầu Petrolimex Số 55,"35JR+4JF, QL53, Trung Thành, Vũng Liêm, Vĩnh Long",10.0803088,106.1915379
Cửa hàng Xăng dầu Petrolimex Số 49,"35JF+8X4, Trung Hiếu, Vũng Liêm, Vĩnh Long",10.0807746,106.1749578
Cửa hàng Xăng dầu Petrolimex Số 69,"XVVM+M2J, Đông Thành, Bình Minh, Vĩnh Long",9.994208,105.8825205
Cửa hàng Xăng dầu Petrolimex Số 59,"22PX+78V, ĐT901, Hoà Bình, Trà Ôn, Vĩnh Long",10.0357382,106.048306
Cửa hàng Xăng dầu Petrolimex Số 51,"QL53, Trung Nghĩa, Vũng Liêm, Vĩnh Long",10.0328784,106.2038841
Cửa hàng Xăng dầu Petrolimex Số 53,"465J+7CQ, Thanh Bình, Vũng Liêm, Vĩnh Long",10.1081906,106.2310463
Cây xăng Phú Vĩnh Long - Petrolimex,"117 QL1A, Tân Ngãi, Vĩnh Long",10.299406,105.9204648
Cửa hàng Xăng dầu Petrolimex Số 46,"3VXJ+V7C, QL1A, Tân Phú, Tam Bình, Vĩnh Long",10.0996838,105.8806495
Cửa hàng Xăng dầu Petrolimex Số 47,"24J5+FXQ, Hiếu Nhơn, Vũng Liêm, Vĩnh Long",10.0312194,106.1099951
Cửa hàng Xăng dầu Petrolimex Số 61,"522G+F6R, Long An, Long Hồ, Vĩnh Long",10.1512469,106.025531
Cửa hàng Xăng dầu Petrolimex Số 58,"3R6G+2JP, QL54, Đông Thuận, Bình Minh, Vĩnh Long",10.0600789,105.8265721
Cửa hàng Xăng dầu Petrolimex Số 73,"259 QL1A, Phú Thịnh, Tam Bình, Vĩnh Long",10.1395454,105.9188013
Cửa hàng Xăng dầu Petrolimex Số 38,"5QFG+FPJ, ĐT908, Tân Thành, Bình Tân, Vĩnh Long",10.1737278,105.7768069
Petrolimex số 33,"Tổ 13, ấp Tân Lộc, QL54, Tân Lược, Bình Tân, Vĩnh Long 85414",10.1377824,105.7192415
Cửa hàng Xăng dầu Petrolimex Số 66,"3RCF+925, Cái Vồn, Bình Minh, Vĩnh Long",10.0708846,105.8226004
Cửa hàng Xăng dầu Petimex Số 45 - Long Hiệp,"525C+MQ4, QL53, Tân Long, Long Hồ, Vĩnh Long",10.159141,106.0219533
Cửa hàng Xăng dầu Petrolimex Số 36,"200 QL1A, Song Phú, Tam Bình, Vĩnh Long",10.1111694,105.8914169
Cửa hàng Xăng dầu Petrolimex Số 39,"3Q8V+CFR, QL54, Thành Lợi, Bình Tân, Vĩnh Long",10.0661014,105.7936476
Cửa hàng Xăng dầu Petroimex Số 64,"72F4+5MP, Bình Hoà Phước, Long Hồ, Vĩnh Long",10.2729522,106.0067181
Cửa hàng Xăng dầu Petrolimex Số 43,"53CV+8C8, ĐT903, Cái Nhum, Mang Thít, Vĩnh Long",10.1707763,106.0935676
Cửa hàng Xăng dầu Petrolimex Số 52,"447J+FVH, ĐH 61, Trung Hiệp, Vũng Liêm, Vĩnh Long",10.1135942,106.1321381
Cửa hàng Xăng dầu Petrolimex Số 40,"62RW+MXW, ĐT902, Mỹ An, Mang Thít, Vĩnh Long",10.241727,106.0474399
Cửa hàng Xăng dầu Petrolimex Số 08,"2644+PC2, QL53, TT. Càng Long, Càng Long, Trà Vinh",10.0067667,106.2060158
Cửa hàng Xăng dầu Petrolimex Số 54,"454J+84F, Ấp Hòa Nghĩa, Vũng Liêm, Vĩnh Long",10.1058218,106.180283
Petrolimex Số 65,"4Q32+M3G, QL54, Tân Qưới, Bình Tân, Vĩnh Long",10.104197,105.7501915
CỬA HÀNG XĂNG DẦU CAM THỦY 22,"QL1A, Mỹ Hoà, Bình Minh, Vĩnh Long",10.0439973,105.8227865
